{"type":"FeatureCollection","name":"chiayi transit","features":[{"type":"Feature","id":"n2181107954","properties":{"kind":"station","mode":"train","name":"嘉義","name_en":"Chiayi","network":null,"operator":"阿里山林業鐵路及文化資產管理處"},"geometry":{"type":"Point","coordinates":[120.442125,23.480433]}},{"type":"Feature","id":"n3285339077","properties":{"kind":"station","mode":"train","name":"嘉義","name_en":"Chiayi","network":"臺鐵","operator":"國營臺灣鐵路股份有限公司"},"geometry":{"type":"Point","coordinates":[120.441584,23.479904]}},{"type":"Feature","id":"n7384310306","properties":{"kind":"station","mode":"train","name":"北門","name_en":"Beimen","network":"阿里山森林鐵路","operator":"阿里山林業鐵路及文化資產管理處"},"geometry":{"type":"Point","coordinates":[120.45445,23.487843]}},{"type":"Feature","id":"w1061049363","properties":{"kind":"line","mode":"rail","name":"縱貫線","name_en":"West Coast Line","network":null,"operator":"國營臺灣鐵路股份有限公司"},"geometry":{"type":"LineString","coordinates":[[120.449462,23.49542],[120.449889,23.493553],[120.450075,23.492708]]}},{"type":"Feature","id":"w1061049398","properties":{"kind":"line","mode":"rail","name":null,"name_en":null,"network":null,"operator":null},"geometry":{"type":"LineString","coordinates":[[120.438965,23.477148],[120.439265,23.477426],[120.439573,23.477709]]}},{"type":"Feature","id":"w1561290550","properties":{"kind":"line","mode":"rail","name":null,"name_en":null,"network":null,"operator":"國營臺灣鐵路股份有限公司"},"geometry":{"type":"LineString","coordinates":[[120.444964,23.483684],[120.444868,23.48356],[120.444742,23.4834]]}},{"type":"Feature","id":"w1561290551","properties":{"kind":"line","mode":"rail","name":null,"name_en":null,"network":null,"operator":"國營臺灣鐵路股份有限公司"},"geometry":{"type":"LineString","coordinates":[[120.444992,23.483659],[120.444868,23.48356],[120.444704,23.483431]]}},{"type":"Feature","id":"w192216235","properties":{"kind":"line","mode":"rail","name":"縱貫線","name_en":"West Coast Line","network":null,"operator":"國營臺灣鐵路股份有限公司"},"geometry":{"type":"LineString","coordinates":[[120.432254,23.46973],[120.427175,23.464103],[120.426128,23.462824],[120.424645,23.461195],[120.424569,23.461112],[120.424211,23.460718],[120.421703,23.457967],[120.420628,23.456916],[120.419809,23.456056],[120.413387,23.448951],[120.404276,23.438887],[120.399627,23.433717]]}},{"type":"Feature","id":"w321768758","properties":{"kind":"line","mode":"rail","name":"縱貫線","name_en":"Western Trunk line","network":null,"operator":"國營臺灣鐵路股份有限公司"},"geometry":{"type":"LineString","coordinates":[[120.390526,23.420566],[120.395182,23.428532],[120.395678,23.429268],[120.396382,23.430153],[120.398664,23.432719],[120.399605,23.433731],[120.404242,23.438905],[120.413353,23.448974],[120.419772,23.456064],[120.420601,23.456938],[120.421663,23.457988],[120.424181,23.460742],[120.424539,23.461136],[120.424618,23.461223],[120.426092,23.462845],[120.427152,23.464117],[120.432216,23.469758]]}},{"type":"Feature","id":"w321768762","properties":{"kind":"line","mode":"rail","name":"縱貫線","name_en":"Western Trunk line","network":null,"operator":"國營臺灣鐵路股份有限公司"},"geometry":{"type":"LineString","coordinates":[[120.435923,23.47379],[120.436127,23.474013]]}},{"type":"Feature","id":"w321768763","properties":{"kind":"line","mode":"rail","name":"縱貫線","name_en":"Western Trunk line","network":null,"operator":"國營臺灣鐵路股份有限公司"},"geometry":{"type":"LineString","coordinates":[[120.432388,23.469938],[120.433409,23.470943],[120.435923,23.47379]]}},{"type":"Feature","id":"w321768764","properties":{"kind":"line","mode":"rail","name":"縱貫線","name_en":"West Coast Line","network":null,"operator":"國營臺灣鐵路股份有限公司"},"geometry":{"type":"LineString","coordinates":[[120.43596,23.473759],[120.433446,23.470915],[120.432424,23.469908]]}},{"type":"Feature","id":"w321768765","properties":{"kind":"line","mode":"rail","name":"縱貫線","name_en":"West Coast Line","network":null,"operator":"國營臺灣鐵路股份有限公司"},"geometry":{"type":"LineString","coordinates":[[120.43616,23.473993],[120.43596,23.473759]]}},{"type":"Feature","id":"w321768768","properties":{"kind":"line","mode":"rail","name":"縱貫線","name_en":"West Coast Line","network":null,"operator":"國營臺灣鐵路股份有限公司"},"geometry":{"type":"LineString","coordinates":[[120.432424,23.469908],[120.432254,23.46973]]}},{"type":"Feature","id":"w321768770","properties":{"kind":"line","mode":"rail","name":"縱貫線","name_en":"Western Trunk line","network":null,"operator":"國營臺灣鐵路股份有限公司"},"geometry":{"type":"LineString","coordinates":[[120.432216,23.469758],[120.432388,23.469938]]}},{"type":"Feature","id":"w321948640","properties":{"kind":"line","mode":"rail","name":"縱貫線","name_en":"West Coast Line","network":null,"operator":"國營臺灣鐵路股份有限公司"},"geometry":{"type":"LineString","coordinates":[[120.449951,23.489956],[120.449862,23.489681]]}},{"type":"Feature","id":"w321948641","properties":{"kind":"line","mode":"rail","name":"縱貫線","name_en":"West Coast Line","network":null,"operator":"國營臺灣鐵路股份有限公司"},"geometry":{"type":"LineString","coordinates":[[120.449313,23.496067],[120.449462,23.49542]]}},{"type":"Feature","id":"w321948643","properties":{"kind":"line","mode":"rail","name":"縱貫線","name_en":"Western Trunk line","network":null,"operator":"國營臺灣鐵路股份有限公司"},"geometry":{"type":"LineString","coordinates":[[120.449808,23.489669],[120.4499,23.489952]]}},{"type":"Feature","id":"w321948646","properties":{"kind":"line","mode":"rail","name":"縱貫線","name_en":"Western Trunk line","network":null,"operator":"國營臺灣鐵路股份有限公司"},"geometry":{"type":"LineString","coordinates":[[120.449416,23.495414],[120.449268,23.49606]]}},{"type":"Feature","id":"w321948656","properties":{"kind":"line","mode":"rail","name":"縱貫線","name_en":"Western Trunk line","network":null,"operator":"國營臺灣鐵路股份有限公司"},"geometry":{"type":"LineString","coordinates":[[120.450104,23.490955],[120.450121,23.491196],[120.450131,23.491659],[120.450097,23.492185],[120.450028,23.4927],[120.449855,23.493552],[120.449416,23.495414]]}},{"type":"Feature","id":"w321948657","properties":{"kind":"line","mode":"rail","name":"縱貫線","name_en":"West Coast Line","network":null,"operator":"國營臺灣鐵路股份有限公司"},"geometry":{"type":"LineString","coordinates":[[120.450075,23.492708],[120.450142,23.4922],[120.450175,23.491675],[120.450176,23.4912],[120.450162,23.490956]]}},{"type":"Feature","id":"w374524087","properties":{"kind":"line","mode":"rail","name":"縱貫線","name_en":"Western Trunk line","network":null,"operator":"國營臺灣鐵路股份有限公司"},"geometry":{"type":"LineString","coordinates":[[120.436127,23.474013],[120.436515,23.474448],[120.437838,23.475906],[120.438041,23.476128],[120.438254,23.476363],[120.438965,23.477148],[120.440331,23.478671],[120.441566,23.480025],[120.442497,23.481047],[120.443448,23.482073],[120.443634,23.482256],[120.443834,23.482454],[120.444343,23.482982],[120.444742,23.4834],[120.444992,23.483659],[120.445495,23.484182],[120.447092,23.48592],[120.447586,23.48648],[120.448237,23.487197],[120.448911,23.487984],[120.449242,23.488468],[120.44955,23.489036],[120.449808,23.489669]]}},{"type":"Feature","id":"w374524088","properties":{"kind":"line","mode":"rail","name":"縱貫線","name_en":"West Coast Line","network":null,"operator":"國營臺灣鐵路股份有限公司"},"geometry":{"type":"LineString","coordinates":[[120.449862,23.489681],[120.449591,23.489025],[120.449281,23.488461],[120.448949,23.487969],[120.448291,23.487176],[120.447629,23.486453],[120.447108,23.485867],[120.445537,23.48416],[120.444987,23.483606],[120.444363,23.48295],[120.442541,23.48101],[120.441623,23.479974],[120.440389,23.47863],[120.439573,23.477709],[120.43754,23.475524],[120.437367,23.475312],[120.437123,23.475031],[120.436225,23.474068],[120.43616,23.473993]]}},{"type":"Feature","id":"w809478091","properties":{"kind":"line","mode":"rail","name":null,"name_en":null,"network":null,"operator":null},"geometry":{"type":"LineString","coordinates":[[120.443448,23.482073],[120.443077,23.481746]]}},{"type":"Feature","id":"w809638530","properties":{"kind":"line","mode":"rail","name":null,"name_en":null,"network":null,"operator":null},"geometry":{"type":"LineString","coordinates":[[120.43754,23.475524],[120.437838,23.475906]]}},{"type":"Feature","id":"w809638531","properties":{"kind":"line","mode":"rail","name":null,"name_en":null,"network":null,"operator":null},"geometry":{"type":"LineString","coordinates":[[120.438041,23.476128],[120.437776,23.475897]]}},{"type":"Feature","id":"w809638533","properties":{"kind":"line","mode":"rail","name":null,"name_en":null,"network":null,"operator":null},"geometry":{"type":"LineString","coordinates":[[120.436515,23.474448],[120.436225,23.474068]]}},{"type":"Feature","id":"w870511349","properties":{"kind":"line","mode":"rail","name":"縱貫線","name_en":"West Coast Line","network":null,"operator":"國營臺灣鐵路股份有限公司"},"geometry":{"type":"LineString","coordinates":[[120.450162,23.490956],[120.450104,23.490622]]}},{"type":"Feature","id":"w870511350","properties":{"kind":"line","mode":"rail","name":"縱貫線","name_en":"Western Trunk line","network":null,"operator":"國營臺灣鐵路股份有限公司"},"geometry":{"type":"LineString","coordinates":[[120.450054,23.49063],[120.450104,23.490955]]}},{"type":"Feature","id":"w870511351","properties":{"kind":"line","mode":"rail","name":"縱貫線","name_en":"Western Trunk line","network":null,"operator":"國營臺灣鐵路股份有限公司"},"geometry":{"type":"LineString","coordinates":[[120.4499,23.489952],[120.449991,23.490305],[120.450054,23.49063]]}},{"type":"Feature","id":"w870511352","properties":{"kind":"line","mode":"rail","name":"縱貫線","name_en":"West Coast Line","network":null,"operator":"國營臺灣鐵路股份有限公司"},"geometry":{"type":"LineString","coordinates":[[120.450104,23.490622],[120.450039,23.490284],[120.449951,23.489956]]}}]}
