{"type":"FeatureCollection","name":"hsinchu transit","features":[{"type":"Feature","id":"n1543862087","properties":{"kind":"station","mode":"train","name":"北新竹","name_en":"North Hsinchu","network":"臺鐵","operator":"國營臺灣鐵路股份有限公司"},"geometry":{"type":"Point","coordinates":[120.98379,24.80863]}},{"type":"Feature","id":"n3372916575","properties":{"kind":"station","mode":"train","name":"新竹","name_en":"Hsinchu","network":"臺鐵","operator":"國營臺灣鐵路股份有限公司"},"geometry":{"type":"Point","coordinates":[120.971678,24.801403]}},{"type":"Feature","id":"n4170694089","properties":{"kind":"station","mode":"station","name":"Unnamed station","name_en":null,"network":null,"operator":null},"geometry":{"type":"Point","coordinates":[120.971847,24.803045]}},{"type":"Feature","id":"w1061049134","properties":{"kind":"line","mode":"rail","name":null,"name_en":null,"network":null,"operator":null},"geometry":{"type":"LineString","coordinates":[[120.979168,24.805839],[120.978774,24.805623]]}},{"type":"Feature","id":"w1061049139","properties":{"kind":"line","mode":"rail","name":null,"name_en":null,"network":null,"operator":null},"geometry":{"type":"LineString","coordinates":[[120.985719,24.809453],[120.98541,24.809273]]}},{"type":"Feature","id":"w1061049146","properties":{"kind":"line","mode":"rail","name":null,"name_en":null,"network":null,"operator":null},"geometry":{"type":"LineString","coordinates":[[120.974767,24.803033],[120.975013,24.803234]]}},{"type":"Feature","id":"w1061049153","properties":{"kind":"line","mode":"rail","name":"內灣線","name_en":"Neiwan Line","network":null,"operator":"國營臺灣鐵路股份有限公司"},"geometry":{"type":"LineString","coordinates":[[120.984181,24.808625],[120.985369,24.80911],[120.985756,24.809291],[120.98713,24.810032],[120.987582,24.810281],[120.988284,24.810674],[120.988768,24.810939],[120.989021,24.81106],[120.9892,24.811132],[120.98938,24.811192],[120.989577,24.811251],[120.989763,24.811297],[120.989959,24.811339]]}},{"type":"Feature","id":"w1061049156","properties":{"kind":"line","mode":"rail","name":null,"name_en":null,"network":null,"operator":null},"geometry":{"type":"LineString","coordinates":[[120.978171,24.805082],[120.978454,24.805159]]}},{"type":"Feature","id":"w1061049157","properties":{"kind":"line","mode":"rail","name":null,"name_en":null,"network":null,"operator":null},"geometry":{"type":"LineString","coordinates":[[120.976489,24.804394],[120.976092,24.804079]]}},{"type":"Feature","id":"w1061049159","properties":{"kind":"line","mode":"rail","name":null,"name_en":null,"network":null,"operator":null},"geometry":{"type":"LineString","coordinates":[[120.975796,24.803896],[120.97553,24.803684]]}},{"type":"Feature","id":"w1061049170","properties":{"kind":"line","mode":"rail","name":null,"name_en":null,"network":null,"operator":null},"geometry":{"type":"LineString","coordinates":[[120.969974,24.800337],[120.970269,24.800477]]}},{"type":"Feature","id":"w1061049171","properties":{"kind":"line","mode":"rail","name":null,"name_en":null,"network":null,"operator":null},"geometry":{"type":"LineString","coordinates":[[120.969815,24.800319],[120.970095,24.800452]]}},{"type":"Feature","id":"w1061049172","properties":{"kind":"line","mode":"rail","name":null,"name_en":null,"network":null,"operator":null},"geometry":{"type":"LineString","coordinates":[[120.967627,24.798969],[120.967928,24.799155],[120.969815,24.800319],[120.97015,24.800526]]}},{"type":"Feature","id":"w1061049176","properties":{"kind":"line","mode":"rail","name":null,"name_en":null,"network":null,"operator":null},"geometry":{"type":"LineString","coordinates":[[120.967228,24.798683],[120.967812,24.799004]]}},{"type":"Feature","id":"w126487405","properties":{"kind":"line","mode":"rail","name":"縱貫線","name_en":"Western Trunk line","network":null,"operator":"國營臺灣鐵路股份有限公司"},"geometry":{"type":"LineString","coordinates":[[120.975174,24.803592],[120.975487,24.803786],[120.975577,24.80384],[120.976489,24.804394],[120.978374,24.805551],[120.978882,24.805897],[120.979323,24.806195],[120.97993,24.806548],[120.983246,24.808384],[120.983459,24.808501],[120.983955,24.808749],[120.986079,24.809666],[120.987207,24.810224],[120.988034,24.810687],[120.988782,24.811121],[120.988965,24.811224],[120.989224,24.81137],[120.989378,24.811457],[120.989507,24.811548],[120.989677,24.811658],[120.989872,24.811797],[120.990188,24.812029],[120.991095,24.812733]]}},{"type":"Feature","id":"w141030694","properties":{"kind":"line","mode":"rail","name":"內灣線","name_en":"Neiwan Line","network":null,"operator":"國營臺灣鐵路股份有限公司"},"geometry":{"type":"LineString","coordinates":[[120.975226,24.803458],[120.975544,24.803651],[120.976328,24.80414],[120.978041,24.805192],[120.978321,24.805367],[120.978774,24.805623],[120.979118,24.805848],[120.980295,24.806504],[120.983283,24.808171],[120.983912,24.808473],[120.984181,24.808625]]}},{"type":"Feature","id":"w1558799424","properties":{"kind":"line","mode":"rail","name":"內灣線","name_en":"Neiwan Line","network":null,"operator":"國營臺灣鐵路股份有限公司"},"geometry":{"type":"LineString","coordinates":[[120.98519,24.809175],[120.98541,24.809273],[120.9866,24.809805],[120.986807,24.809914]]}},{"type":"Feature","id":"w1558809699","properties":{"kind":"line","mode":"rail","name":"內灣線","name_en":"Neiwan Line","network":null,"operator":"國營臺灣鐵路股份有限公司"},"geometry":{"type":"LineString","coordinates":[[120.969403,24.799874],[120.969827,24.800077],[120.970104,24.800209],[120.970572,24.800411],[120.970676,24.800461],[120.970764,24.800512],[120.970867,24.800575],[120.971968,24.801259],[120.97348,24.802182],[120.97377,24.802367],[120.974175,24.802677],[120.974372,24.802837],[120.974599,24.803021]]}},{"type":"Feature","id":"w1558810416","properties":{"kind":"line","mode":"rail","name":"內灣線","name_en":"Neiwan Line","network":null,"operator":"國營臺灣鐵路股份有限公司"},"geometry":{"type":"LineString","coordinates":[[120.974599,24.803021],[120.974854,24.803179]]}},{"type":"Feature","id":"w1558813187","properties":{"kind":"line","mode":"rail","name":"內灣線","name_en":"Neiwan Line","network":null,"operator":"國營臺灣鐵路股份有限公司"},"geometry":{"type":"LineString","coordinates":[[120.974854,24.803179],[120.97517,24.803424],[120.975226,24.803458]]}},{"type":"Feature","id":"w1558819013","properties":{"kind":"line","mode":"rail","name":"內灣線","name_en":"Neiwan Line","network":null,"operator":"國營臺灣鐵路股份有限公司"},"geometry":{"type":"LineString","coordinates":[[120.984181,24.808625],[120.98519,24.809175]]}},{"type":"Feature","id":"w306544618","properties":{"kind":"line","mode":"rail","name":"縱貫線","name_en":"Western Trunk line","network":null,"operator":"國營臺灣鐵路股份有限公司"},"geometry":{"type":"LineString","coordinates":[[120.959293,24.796337],[120.961711,24.796284],[120.96227,24.796306],[120.962493,24.796326],[120.962714,24.796356],[120.962934,24.796395],[120.963152,24.796444],[120.963367,24.796501],[120.963579,24.796568],[120.963783,24.796645],[120.963947,24.796711],[120.964107,24.796782],[120.964263,24.796858],[120.964414,24.796943],[120.966123,24.797999],[120.966593,24.798292]]}},{"type":"Feature","id":"w306544620","properties":{"kind":"line","mode":"rail","name":"縱貫線","name_en":null,"network":null,"operator":"國營臺灣鐵路股份有限公司"},"geometry":{"type":"LineString","coordinates":[[120.959299,24.796283],[120.958483,24.796306]]}},{"type":"Feature","id":"w306544623","properties":{"kind":"line","mode":"rail","name":"縱貫線","name_en":"Western Trunk line","network":null,"operator":"國營臺灣鐵路股份有限公司"},"geometry":{"type":"LineString","coordinates":[[120.958506,24.796365],[120.959293,24.796337]]}},{"type":"Feature","id":"w306544627","properties":{"kind":"line","mode":"rail","name":"縱貫線","name_en":null,"network":null,"operator":"國營臺灣鐵路股份有限公司"},"geometry":{"type":"LineString","coordinates":[[120.958483,24.796306],[120.955083,24.796374],[120.954923,24.796375],[120.953861,24.796365],[120.953212,24.796323],[120.952955,24.796304],[120.952698,24.796275],[120.952444,24.796236],[120.952191,24.796189],[120.95194,24.796133],[120.951692,24.796068],[120.951447,24.795994],[120.951258,24.79593],[120.951072,24.795861],[120.950888,24.795787],[120.950707,24.795707],[120.948698,24.79484],[120.947663,24.794356],[120.943394,24.792415],[120.94265,24.792109],[120.942094,24.791901]]}},{"type":"Feature","id":"w327757935","properties":{"kind":"line","mode":"rail","name":"內灣線","name_en":"Neiwan Line","network":null,"operator":"國營臺灣鐵路股份有限公司"},"geometry":{"type":"LineString","coordinates":[[120.970194,24.80035],[120.970379,24.800429],[120.970655,24.800558],[120.970758,24.800615],[120.971914,24.801339],[120.973328,24.802207],[120.973561,24.802372],[120.973906,24.802589],[120.974599,24.803021]]}},{"type":"Feature","id":"w327757936","properties":{"kind":"line","mode":"rail","name":null,"name_en":null,"network":null,"operator":null},"geometry":{"type":"LineString","coordinates":[[120.974635,24.803223],[120.974969,24.803386]]}},{"type":"Feature","id":"w327757937","properties":{"kind":"line","mode":"rail","name":"內灣線","name_en":"Neiwan Line","network":null,"operator":"國營臺灣鐵路股份有限公司"},"geometry":{"type":"LineString","coordinates":[[120.975226,24.803458],[120.975446,24.803631],[120.97553,24.803684],[120.977888,24.80515],[120.978471,24.805531],[120.978805,24.805751],[120.97928,24.80605],[120.983238,24.808239],[120.984032,24.808659],[120.98519,24.809175]]}},{"type":"Feature","id":"w368596572","properties":{"kind":"line","mode":"rail","name":"縱貫線","name_en":"West Coast Line","network":null,"operator":"國營臺灣鐵路股份有限公司"},"geometry":{"type":"LineString","coordinates":[[120.99113,24.812712],[120.990142,24.81194],[120.989802,24.811691],[120.989553,24.811525],[120.989253,24.811326],[120.989009,24.811192],[120.988801,24.811073],[120.988438,24.810858],[120.987542,24.810355],[120.987084,24.810105],[120.986818,24.80997],[120.986568,24.809837],[120.986214,24.80967],[120.985719,24.809453],[120.984596,24.808961],[120.98399,24.808698],[120.983292,24.808314],[120.981613,24.80738],[120.980266,24.806626],[120.979598,24.806267],[120.97918,24.806029],[120.977883,24.805197],[120.976092,24.804079],[120.975796,24.803896],[120.974969,24.803386],[120.974539,24.80312],[120.973239,24.802316],[120.971843,24.801451],[120.970744,24.80077],[120.970269,24.800477],[120.969613,24.800072],[120.968845,24.799597],[120.96862,24.799457],[120.968455,24.799356],[120.968361,24.799299],[120.968059,24.799148],[120.967812,24.799004],[120.966618,24.798257],[120.966143,24.797965],[120.964436,24.796909],[120.964281,24.796825],[120.964124,24.796747],[120.963963,24.796673],[120.963799,24.796605],[120.963591,24.796528],[120.963379,24.79646],[120.963163,24.796401],[120.962945,24.796351],[120.962724,24.79631],[120.962502,24.796278],[120.962278,24.796256],[120.962001,24.79624],[120.96172,24.79624],[120.959299,24.796283]]}},{"type":"Feature","id":"w369788699","properties":{"kind":"line","mode":"rail","name":"縱貫線","name_en":"Western Trunk line","network":null,"operator":"國營臺灣鐵路股份有限公司"},"geometry":{"type":"LineString","coordinates":[[120.942076,24.791947],[120.942641,24.792146],[120.94337,24.792446],[120.947626,24.79439],[120.948685,24.794891],[120.95069,24.79574],[120.950935,24.795843],[120.951183,24.795938],[120.951436,24.796023],[120.951692,24.796101],[120.951951,24.796169],[120.952212,24.796228],[120.952459,24.796275],[120.952707,24.796314],[120.952956,24.796345],[120.953206,24.796368],[120.953858,24.796403],[120.955107,24.79641],[120.958506,24.796365]]}},{"type":"Feature","id":"w391706267","properties":{"kind":"line","mode":"rail","name":"縱貫線","name_en":"West Coast Line","network":null,"operator":"國營臺灣鐵路股份有限公司"},"geometry":{"type":"LineString","coordinates":[[120.966593,24.798292],[120.967228,24.798683],[120.968586,24.799522],[120.970095,24.800452],[120.971255,24.801168],[120.971788,24.801497],[120.973203,24.80237],[120.974392,24.803106],[120.975143,24.803573],[120.975174,24.803592]]}}]}
