{"type":"FeatureCollection","name":"kaohsiung transit","features":[{"type":"Feature","id":"n12854723844","properties":{"kind":"station","mode":"station","name":"愛之船國賓站","name_en":null,"network":null,"operator":null},"geometry":{"type":"Point","coordinates":[120.2898,22.624569]}},{"type":"Feature","id":"n12854723875","properties":{"kind":"station","mode":"station","name":"愛之船","name_en":null,"network":null,"operator":null},"geometry":{"type":"Point","coordinates":[120.288419,22.625547]}},{"type":"Feature","id":"n12883636851","properties":{"kind":"station","mode":"station","name":"愛之船","name_en":null,"network":null,"operator":null},"geometry":{"type":"Point","coordinates":[120.290197,22.623716]}},{"type":"Feature","id":"n2083042865","properties":{"kind":"station","mode":"station","name":"駁二碼頭","name_en":null,"network":null,"operator":null},"geometry":{"type":"Point","coordinates":[120.28133,22.619359]}},{"type":"Feature","id":"n2482443968","properties":{"kind":"station","mode":"station","name":"Unnamed station","name_en":null,"network":null,"operator":null},"geometry":{"type":"Point","coordinates":[120.290052,22.62404]}},{"type":"Feature","id":"n3150733770","properties":{"kind":"station","mode":"station","name":"和欣客運建國站","name_en":null,"network":null,"operator":"和欣客運"},"geometry":{"type":"Point","coordinates":[120.304322,22.637573]}},{"type":"Feature","id":"n3150733773","properties":{"kind":"station","mode":"station","name":"統聯客運高雄站","name_en":null,"network":null,"operator":"統聯客運"},"geometry":{"type":"Point","coordinates":[120.303861,22.637629]}},{"type":"Feature","id":"n3921289548","properties":{"kind":"station","mode":"station","name":"旗津輪渡站","name_en":"Cijin Ferry Pier","network":null,"operator":null},"geometry":{"type":"Point","coordinates":[120.269808,22.614142]}},{"type":"Feature","id":"n3921289758","properties":{"kind":"station","mode":"station","name":"鼓山輪渡站","name_en":"Gushan Ferry Pier","network":null,"operator":null},"geometry":{"type":"Point","coordinates":[120.269886,22.619743]}},{"type":"Feature","id":"n4579363124","properties":{"kind":"station","mode":"subway","name":"三多商圈","name_en":"Sanduo Shopping District","network":"高雄捷運","operator":"高雄捷運股份有限公司"},"geometry":{"type":"Point","coordinates":[120.304422,22.614153]}},{"type":"Feature","id":"n4579367648","properties":{"kind":"station","mode":"subway","name":"中央公園","name_en":"Central Park","network":"高雄捷運","operator":"高雄捷運公司"},"geometry":{"type":"Point","coordinates":[120.301118,22.624872]}},{"type":"Feature","id":"n4580663523","properties":{"kind":"station","mode":"subway","name":"哈瑪星","name_en":"Hamasen","network":"高雄捷運","operator":"高雄捷運公司"},"geometry":{"type":"Point","coordinates":[120.274805,22.621369]}},{"type":"Feature","id":"n4580663525","properties":{"kind":"station","mode":"subway","name":"鹽埕埔","name_en":"Yanchengpu","network":"高雄捷運","operator":"高雄捷運公司"},"geometry":{"type":"Point","coordinates":[120.284077,22.624155]}},{"type":"Feature","id":"n4580663526","properties":{"kind":"station","mode":"subway","name":"美麗島","name_en":"Formosa Boulevard","network":"高雄捷運","operator":"高雄捷運公司"},"geometry":{"type":"Point","coordinates":[120.30186,22.631394]}},{"type":"Feature","id":"n4580663528","properties":{"kind":"station","mode":"subway","name":"前金","name_en":"Cianjin","network":"高雄捷運","operator":"高雄捷運公司"},"geometry":{"type":"Point","coordinates":[120.294628,22.628968]}},{"type":"Feature","id":"n4580663532","properties":{"kind":"station","mode":"subway","name":"高雄車站","name_en":"Kaohsiung Main Station","network":"高雄捷運","operator":"高雄捷運公司"},"geometry":{"type":"Point","coordinates":[120.302652,22.639335]}},{"type":"Feature","id":"n4804112949","properties":{"kind":"station","mode":"light_rail","name":"真愛碼頭","name_en":"Love Pier","network":"高雄捷運","operator":"高雄捷運公司"},"geometry":{"type":"Point","coordinates":[120.289426,22.619265]}},{"type":"Feature","id":"n4804112980","properties":{"kind":"station","mode":"light_rail","name":"光榮碼頭","name_en":"Glory Pier","network":"高雄捷運","operator":"高雄捷運公司"},"geometry":{"type":"Point","coordinates":[120.293151,22.616686]}},{"type":"Feature","id":"n4934237745","properties":{"kind":"station","mode":"light_rail","name":"哈瑪星","name_en":"Hamasen","network":"高雄捷運","operator":"高雄捷運公司"},"geometry":{"type":"Point","coordinates":[120.275839,22.621612]}},{"type":"Feature","id":"n4934237746","properties":{"kind":"station","mode":"light_rail","name":"駁二蓬萊","name_en":"Penglai Pier-2","network":"高雄捷運","operator":"高雄捷運公司"},"geometry":{"type":"Point","coordinates":[120.279918,22.620445]}},{"type":"Feature","id":"n4934237755","properties":{"kind":"station","mode":"light_rail","name":"駁二大義","name_en":"Dayi Pier-2","network":"高雄捷運","operator":"高雄捷運公司"},"geometry":{"type":"Point","coordinates":[120.284222,22.618499]}},{"type":"Feature","id":"n5622257947","properties":{"kind":"station","mode":"train","name":"三塊厝","name_en":"Sankuaicuo","network":"臺鐵","operator":"國營臺灣鐵路股份有限公司"},"geometry":{"type":"Point","coordinates":[120.293921,22.639231]}},{"type":"Feature","id":"n5694084480","properties":{"kind":"station","mode":"station","name":"KHH #2 碼頭","name_en":null,"network":null,"operator":"TIPC"},"geometry":{"type":"Point","coordinates":[120.276893,22.61872]}},{"type":"Feature","id":"n5963967382","properties":{"kind":"station","mode":"light_rail","name":"鼓山區公所","name_en":"Gushan District Office","network":"高雄捷運","operator":"高雄捷運公司"},"geometry":{"type":"Point","coordinates":[120.282591,22.636032]}},{"type":"Feature","id":"n5963969989","properties":{"kind":"station","mode":"light_rail","name":"文武聖殿","name_en":"Wenwu Temple","network":"高雄捷運","operator":"高雄捷運公司"},"geometry":{"type":"Point","coordinates":[120.280728,22.629547]}},{"type":"Feature","id":"n5963969990","properties":{"kind":"station","mode":"light_rail","name":"壽山公園","name_en":"Shoushan Park","network":"高雄捷運","operator":"高雄捷運公司"},"geometry":{"type":"Point","coordinates":[120.278669,22.62653]}},{"type":"Feature","id":"n5981456317","properties":{"kind":"station","mode":"train","name":"高雄","name_en":"Kaohsiung","network":"臺鐵","operator":"國營臺灣鐵路股份有限公司"},"geometry":{"type":"Point","coordinates":[120.302559,22.639532]}},{"type":"Feature","id":"n6781154071","properties":{"kind":"station","mode":"station","name":"台榮碼頭","name_en":null,"network":null,"operator":null},"geometry":{"type":"Point","coordinates":[120.274224,22.618547]}},{"type":"Feature","id":"n7866899329","properties":{"kind":"station","mode":"station","name":"香蕉碼頭","name_en":null,"network":null,"operator":null},"geometry":{"type":"Point","coordinates":[120.27831,22.618057]}},{"type":"Feature","id":"n9015936274","properties":{"kind":"station","mode":"station","name":"哨船頭遊艇碼頭","name_en":"Shaochuantou Yacht Port","network":null,"operator":null},"geometry":{"type":"Point","coordinates":[120.269427,22.61877]}},{"type":"Feature","id":"w113715493","properties":{"kind":"line","mode":"subway","name":"高雄捷運橘線","name_en":"Kaohsiung MRT Orange Line","network":"高雄捷運","operator":"高雄捷運公司"},"geometry":{"type":"LineString","coordinates":[[120.273416,22.622106],[120.27369,22.621948],[120.27478,22.621327],[120.275206,22.621098],[120.277624,22.61966],[120.277875,22.61952],[120.278105,22.619407],[120.278274,22.619329],[120.278443,22.619252],[120.278689,22.619166],[120.27884,22.619119],[120.279189,22.619064],[120.279359,22.619053],[120.279529,22.619052],[120.279736,22.619063],[120.279942,22.619077],[120.280112,22.619091],[120.280325,22.61912],[120.280623,22.619182],[120.280835,22.619255],[120.28105,22.619351],[120.281292,22.619499],[120.281448,22.61962],[120.281545,22.619708],[120.28165,22.619827],[120.281728,22.619926],[120.281823,22.620067],[120.28191,22.620195],[120.282071,22.620437],[120.282139,22.620547],[120.282441,22.621027],[120.282729,22.62156],[120.284182,22.62424],[120.284616,22.625035],[120.28467,22.625106],[120.284756,22.625235],[120.284836,22.625339],[120.284943,22.625451],[120.28505,22.625564],[120.285133,22.625653],[120.285278,22.625778],[120.285396,22.625866],[120.285564,22.625997],[120.285716,22.626085],[120.285953,22.626237],[120.286095,22.626319],[120.286239,22.626391],[120.286412,22.626465],[120.287749,22.626989],[120.287872,22.627032],[120.287997,22.627068],[120.288139,22.627101],[120.288315,22.627134],[120.288497,22.627156],[120.288685,22.627174],[120.288807,22.627176],[120.288941,22.627186],[120.289138,22.627204],[120.289287,22.627227],[120.289653,22.627305],[120.289787,22.627333],[120.290069,22.627408],[120.290301,22.627475],[120.290507,22.62752],[120.293342,22.628484],[120.294819,22.628958],[120.299442,22.630534],[120.299875,22.630683],[120.300089,22.630757],[120.300271,22.63083],[120.300418,22.63089],[120.300517,22.630934],[120.300651,22.630997],[120.300763,22.631052],[120.300858,22.631094],[120.301104,22.631201],[120.301235,22.631262],[120.301298,22.631283],[120.301441,22.631313],[120.301623,22.631339],[120.301788,22.631356],[120.301871,22.631364],[120.30197,22.631366],[120.302231,22.631355],[120.302669,22.631328],[120.302989,22.631306],[120.304448,22.631206],[120.30455,22.631197],[120.304646,22.631184],[120.304756,22.631167],[120.304843,22.631155],[120.305009,22.631136],[120.305237,22.63112],[120.306243,22.631048],[120.308466,22.63089],[120.309037,22.630849],[120.311275,22.630681],[120.313572,22.630524],[120.317943,22.630172],[120.320024,22.630034],[120.322761,22.629805],[120.323932,22.629737],[120.324125,22.629732],[120.324313,22.629733],[120.32447,22.629737],[120.324718,22.629749],[120.324946,22.62976],[120.325229,22.629776],[120.325352,22.629779],[120.325558,22.629776],[120.325755,22.629765],[120.325927,22.629752],[120.326116,22.629736],[120.326275,22.629722],[120.32644,22.6297],[120.326614,22.629673],[120.326798,22.62964],[120.326928,22.629614],[120.327682,22.629432],[120.328769,22.629148],[120.329008,22.629101],[120.329248,22.629052],[120.329439,22.629002],[120.329668,22.628928],[120.329911,22.628843],[120.330081,22.628774],[120.330228,22.628706],[120.330464,22.628597],[120.33068,22.628497],[120.330955,22.628377],[120.33116,22.628293],[120.331331,22.628225],[120.331567,22.628134],[120.331755,22.628061],[120.331902,22.628008],[120.332101,22.627942],[120.332292,22.627888],[120.332502,22.627839],[120.332777,22.627786],[120.333029,22.627731],[120.333229,22.627678],[120.333391,22.627629],[120.333595,22.627561],[120.334589,22.627229],[120.336597,22.626543],[120.336834,22.626468],[120.336947,22.626429],[120.337118,22.626367],[120.337349,22.62628],[120.337526,22.626209],[120.337788,22.626094],[120.337958,22.626016],[120.338099,22.625959],[120.338231,22.625905],[120.338464,22.62582],[120.338643,22.625758],[120.339044,22.625629],[120.339305,22.625556],[120.339608,22.625469],[120.339931,22.625374],[120.34016,22.625308],[120.341259,22.624978],[120.342088,22.624753],[120.342197,22.624731],[120.342354,22.624712],[120.34259,22.624703],[120.342765,22.624702],[120.342958,22.624706],[120.343116,22.624716],[120.343242,22.624728],[120.343335,22.624738],[120.344549,22.624862],[120.345506,22.624975],[120.347722,22.625248],[120.349043,22.625415],[120.350791,22.625641],[120.351759,22.625758],[120.35239,22.625834],[120.352593,22.62585],[120.352829,22.625867],[120.353219,22.625891],[120.353955,22.625923],[120.355454,22.625969],[120.35602,22.62599],[120.356761,22.626016],[120.356891,22.626022],[120.357077,22.626037],[120.357306,22.626055],[120.357563,22.626073],[120.357778,22.626088],[120.358048,22.626105],[120.358203,22.626106],[120.358252,22.626105],[120.358332,22.6261],[120.358434,22.626094],[120.358523,22.626083],[120.358668,22.626062],[120.358807,22.626034],[120.359963,22.625801],[120.360072,22.625785],[120.360214,22.625761],[120.360347,22.625739],[120.360527,22.625709],[120.360772,22.625667],[120.36091,22.625646],[120.36102,22.625629],[120.361155,22.625609],[120.361435,22.625562],[120.361946,22.625487],[120.362053,22.62547],[120.363219,22.625227],[120.363825,22.625094],[120.364012,22.625043],[120.364223,22.624968],[120.364399,22.624901],[120.364506,22.624854],[120.364701,22.624777],[120.364827,22.624723],[120.365018,22.624632],[120.36545,22.62441],[120.365593,22.624325],[120.365686,22.624267],[120.365844,22.624167],[120.365948,22.624101],[120.3661,22.623988],[120.366237,22.623894],[120.366338,22.623829],[120.36648,22.623746],[120.366684,22.623642],[120.366985,22.623504],[120.367162,22.623426],[120.367349,22.623351],[120.367546,22.623288],[120.367744,22.62325],[120.367887,22.623233],[120.368028,22.623227],[120.368196,22.62323],[120.36838,22.62325],[120.368537,22.623274],[120.368651,22.623296],[120.368779,22.623319],[120.368946,22.623358],[120.369188,22.623423],[120.369349,22.623476],[120.369579,22.623567],[120.372871,22.624951],[120.375408,22.626061],[120.380894,22.62839],[120.381148,22.628486],[120.381379,22.628541],[120.381676,22.628569],[120.381963,22.628586],[120.38222,22.628587],[120.382641,22.628576],[120.382958,22.628548]]}},{"type":"Feature","id":"w1146167649","properties":{"kind":"line","mode":"subway","name":null,"name_en":null,"network":null,"operator":null},"geometry":{"type":"LineString","coordinates":[[120.302002,22.632446],[120.302013,22.632259],[120.302024,22.632196],[120.302042,22.632112],[120.302092,22.631983],[120.302154,22.63188],[120.302243,22.631766],[120.302334,22.631665],[120.302441,22.63157],[120.302541,22.631501],[120.302671,22.631435],[120.302878,22.631371],[120.303018,22.631345],[120.303266,22.631309],[120.303435,22.631294],[120.303582,22.631284],[120.304533,22.631224],[120.305022,22.631183]]}},{"type":"Feature","id":"w1146167650","properties":{"kind":"line","mode":"subway","name":null,"name_en":null,"network":null,"operator":null},"geometry":{"type":"LineString","coordinates":[[120.305022,22.631183],[120.305547,22.631145],[120.306553,22.631073],[120.308178,22.630958],[120.309101,22.630892]]}},{"type":"Feature","id":"w1146167651","properties":{"kind":"line","mode":"subway","name":null,"name_en":null,"network":null,"operator":null},"geometry":{"type":"LineString","coordinates":[[120.306242,22.631139],[120.306407,22.631101],[120.306553,22.631073]]}},{"type":"Feature","id":"w1146167652","properties":{"kind":"line","mode":"subway","name":null,"name_en":null,"network":null,"operator":null},"geometry":{"type":"LineString","coordinates":[[120.306243,22.631048],[120.306391,22.631061],[120.306553,22.631073]]}},{"type":"Feature","id":"w1221742992","properties":{"kind":"line","mode":"light_rail","name":"高雄捷運環狀輕軌","name_en":"Kaohsiung MRT Circular Line","network":null,"operator":"高雄捷運公司"},"geometry":{"type":"LineString","coordinates":[[120.276293,22.620649],[120.276568,22.620561]]}},{"type":"Feature","id":"w1221742993","properties":{"kind":"line","mode":"light_rail","name":"高雄環狀輕軌","name_en":null,"network":null,"operator":null},"geometry":{"type":"LineString","coordinates":[[120.283794,22.618712],[120.283816,22.618696],[120.283828,22.618686],[120.28385,22.618669],[120.283874,22.61865],[120.283895,22.618635]]}},{"type":"Feature","id":"w1221785006","properties":{"kind":"line","mode":"light_rail","name":"高雄環狀輕軌","name_en":null,"network":null,"operator":null},"geometry":{"type":"LineString","coordinates":[[120.292913,22.616277],[120.292931,22.616298],[120.292943,22.616308],[120.29297,22.616334],[120.292984,22.616348],[120.293003,22.61637]]}},{"type":"Feature","id":"w1247688190","properties":{"kind":"line","mode":"light_rail","name":"高雄捷運環狀輕軌","name_en":"Kaohsiung MRT Circular Line","network":null,"operator":"高雄捷運公司"},"geometry":{"type":"LineString","coordinates":[[120.275854,22.621616],[120.275942,22.621823],[120.276071,22.622107],[120.276222,22.622451],[120.276392,22.62283],[120.276431,22.622915],[120.276803,22.62361]]}},{"type":"Feature","id":"w1247688191","properties":{"kind":"line","mode":"light_rail","name":"高雄捷運環狀輕軌","name_en":"Kaohsiung MRT Circular Line","network":null,"operator":"高雄捷運公司"},"geometry":{"type":"LineString","coordinates":[[120.275828,22.621553],[120.275851,22.621608],[120.275854,22.621616]]}},{"type":"Feature","id":"w1247688192","properties":{"kind":"line","mode":"light_rail","name":"高雄捷運環狀輕軌","name_en":"Kaohsiung MRT Circular Line","network":null,"operator":"高雄捷運公司"},"geometry":{"type":"LineString","coordinates":[[120.276767,22.623631],[120.276385,22.622896],[120.276355,22.62284],[120.276186,22.622467],[120.275945,22.621895],[120.275915,22.621833],[120.275829,22.621625]]}},{"type":"Feature","id":"w1247688193","properties":{"kind":"line","mode":"light_rail","name":"高雄捷運環狀輕軌","name_en":"Kaohsiung MRT Circular Line","network":null,"operator":"高雄捷運公司"},"geometry":{"type":"LineString","coordinates":[[120.275829,22.621625],[120.275826,22.621618],[120.275802,22.621563]]}},{"type":"Feature","id":"w1247688195","properties":{"kind":"line","mode":"rail","name":null,"name_en":null,"network":null,"operator":null},"geometry":{"type":"LineString","coordinates":[[120.27827,22.626015],[120.277655,22.625103],[120.277321,22.624607],[120.277268,22.624528],[120.27707,22.62423],[120.276801,22.623826],[120.276641,22.623584],[120.276504,22.623337],[120.276431,22.623199],[120.276367,22.623058],[120.275845,22.621859],[120.27582,22.621804],[120.275782,22.621716],[120.275662,22.621444],[120.275574,22.621253]]}},{"type":"Feature","id":"w1247688197","properties":{"kind":"line","mode":"rail","name":null,"name_en":null,"network":null,"operator":null},"geometry":{"type":"LineString","coordinates":[[120.278247,22.62603],[120.277617,22.62513],[120.277364,22.624744],[120.277259,22.624583],[120.27704,22.624244],[120.27699,22.624173],[120.276613,22.623607],[120.276474,22.623354],[120.276405,22.623219],[120.276337,22.62307],[120.27581,22.621872],[120.275626,22.621459],[120.275613,22.621428],[120.275542,22.621268]]}},{"type":"Feature","id":"w1247688198","properties":{"kind":"line","mode":"rail","name":null,"name_en":null,"network":null,"operator":null},"geometry":{"type":"LineString","coordinates":[[120.275613,22.621428],[120.275635,22.621455],[120.27576,22.621685],[120.275782,22.621716]]}},{"type":"Feature","id":"w1247688203","properties":{"kind":"line","mode":"rail","name":null,"name_en":null,"network":null,"operator":null},"geometry":{"type":"LineString","coordinates":[[120.277268,22.624528],[120.277219,22.624477],[120.277055,22.624238],[120.27699,22.624173]]}},{"type":"Feature","id":"w1247688206","properties":{"kind":"line","mode":"rail","name":null,"name_en":null,"network":null,"operator":null},"geometry":{"type":"LineString","coordinates":[[120.277655,22.625103],[120.277602,22.625051],[120.277417,22.6248],[120.277364,22.624744]]}},{"type":"Feature","id":"w1559431716","properties":{"kind":"line","mode":"light_rail","name":"高雄環狀輕軌","name_en":null,"network":null,"operator":null},"geometry":{"type":"LineString","coordinates":[[120.293209,22.61676],[120.293317,22.616964],[120.293365,22.617051],[120.293423,22.617257],[120.29344,22.6174]]}},{"type":"Feature","id":"w1559431717","properties":{"kind":"line","mode":"light_rail","name":"高雄環狀輕軌","name_en":null,"network":null,"operator":null},"geometry":{"type":"LineString","coordinates":[[120.293389,22.617405],[120.293375,22.617267],[120.293312,22.617058],[120.293287,22.616976],[120.293179,22.616774]]}},{"type":"Feature","id":"w1559431718","properties":{"kind":"line","mode":"light_rail","name":"高雄環狀輕軌","name_en":null,"network":null,"operator":null},"geometry":{"type":"LineString","coordinates":[[120.293173,22.616692],[120.293209,22.61676]]}},{"type":"Feature","id":"w1559431719","properties":{"kind":"line","mode":"light_rail","name":"高雄環狀輕軌","name_en":null,"network":null,"operator":null},"geometry":{"type":"LineString","coordinates":[[120.293179,22.616774],[120.293143,22.616706]]}},{"type":"Feature","id":"w1559431720","properties":{"kind":"line","mode":"light_rail","name":"高雄環狀輕軌","name_en":null,"network":null,"operator":null},"geometry":{"type":"LineString","coordinates":[[120.292754,22.61901],[120.292628,22.619125],[120.292403,22.619286],[120.29214,22.619441],[120.291975,22.61951],[120.291805,22.619569],[120.291602,22.619626],[120.291489,22.619647],[120.291316,22.619671],[120.291173,22.619681],[120.290995,22.619682],[120.29083,22.619673],[120.29074,22.619659],[120.290437,22.619584],[120.289798,22.61942],[120.289655,22.619384],[120.289477,22.619335]]}},{"type":"Feature","id":"w1559431721","properties":{"kind":"line","mode":"light_rail","name":"高雄環狀輕軌","name_en":null,"network":null,"operator":null},"geometry":{"type":"LineString","coordinates":[[120.289484,22.619315],[120.289663,22.619364],[120.289805,22.619397],[120.290038,22.619458],[120.290448,22.619562],[120.290737,22.619627],[120.290837,22.619647],[120.290988,22.619657],[120.291212,22.619654],[120.291382,22.619632],[120.291513,22.619611],[120.291795,22.619544],[120.292009,22.619463],[120.292128,22.61941],[120.292342,22.619294],[120.292614,22.619108],[120.292653,22.61907],[120.292733,22.618984]]}},{"type":"Feature","id":"w1559431722","properties":{"kind":"line","mode":"light_rail","name":"高雄環狀輕軌","name_en":null,"network":null,"operator":null},"geometry":{"type":"LineString","coordinates":[[120.289477,22.619335],[120.289441,22.619325],[120.289408,22.619316]]}},{"type":"Feature","id":"w1559431723","properties":{"kind":"line","mode":"light_rail","name":"高雄環狀輕軌","name_en":null,"network":null,"operator":null},"geometry":{"type":"LineString","coordinates":[[120.289414,22.619295],[120.289448,22.619305],[120.289484,22.619315]]}},{"type":"Feature","id":"w1559431724","properties":{"kind":"line","mode":"light_rail","name":"高雄環狀輕軌","name_en":null,"network":null,"operator":null},"geometry":{"type":"LineString","coordinates":[[120.284144,22.618548],[120.283916,22.618656],[120.283794,22.618712]]}},{"type":"Feature","id":"w1559431725","properties":{"kind":"line","mode":"light_rail","name":"高雄環狀輕軌","name_en":null,"network":null,"operator":null},"geometry":{"type":"LineString","coordinates":[[120.283784,22.618688],[120.283895,22.618635],[120.283903,22.618631],[120.28413,22.618524]]}},{"type":"Feature","id":"w1559431726","properties":{"kind":"line","mode":"light_rail","name":"高雄環狀輕軌","name_en":null,"network":null,"operator":null},"geometry":{"type":"LineString","coordinates":[[120.28413,22.618524],[120.284206,22.618488]]}},{"type":"Feature","id":"w1559431727","properties":{"kind":"line","mode":"light_rail","name":"高雄環狀輕軌","name_en":null,"network":null,"operator":null},"geometry":{"type":"LineString","coordinates":[[120.284219,22.618513],[120.284144,22.618548]]}},{"type":"Feature","id":"w1559431728","properties":{"kind":"line","mode":"light_rail","name":"高雄捷運環狀輕軌","name_en":"Kaohsiung MRT Circular Line","network":null,"operator":"高雄捷運公司"},"geometry":{"type":"LineString","coordinates":[[120.283794,22.618712],[120.28315,22.619021],[120.282457,22.61936],[120.281783,22.619671],[120.281708,22.619705],[120.281619,22.619746],[120.2815,22.619801],[120.280547,22.620209],[120.280198,22.620376],[120.28016,22.620388],[120.279954,22.620482],[120.279933,22.620493]]}},{"type":"Feature","id":"w1559431729","properties":{"kind":"line","mode":"light_rail","name":"高雄捷運環狀輕軌","name_en":"Kaohsiung MRT Circular Line","network":null,"operator":"高雄捷運公司"},"geometry":{"type":"LineString","coordinates":[[120.279919,22.620469],[120.279941,22.620457],[120.280152,22.620364],[120.280183,22.620351],[120.280535,22.620185],[120.281484,22.619755],[120.281597,22.619705],[120.281686,22.619665],[120.281764,22.61963],[120.282438,22.619327],[120.283136,22.618994],[120.283784,22.618688]]}},{"type":"Feature","id":"w1559431730","properties":{"kind":"line","mode":"light_rail","name":"高雄捷運環狀輕軌","name_en":"Kaohsiung MRT Circular Line","network":null,"operator":"高雄捷運公司"},"geometry":{"type":"LineString","coordinates":[[120.27984,22.620507],[120.279919,22.620469]]}},{"type":"Feature","id":"w1559431731","properties":{"kind":"line","mode":"light_rail","name":"高雄捷運環狀輕軌","name_en":"Kaohsiung MRT Circular Line","network":null,"operator":"高雄捷運公司"},"geometry":{"type":"LineString","coordinates":[[120.279933,22.620493],[120.279854,22.620532]]}},{"type":"Feature","id":"w1559431732","properties":{"kind":"line","mode":"light_rail","name":"高雄環狀輕軌","name_en":null,"network":null,"operator":null},"geometry":{"type":"LineString","coordinates":[[120.276803,22.62361],[120.277149,22.624197],[120.277231,22.624338],[120.278356,22.626024],[120.278439,22.626149],[120.278493,22.626217],[120.278658,22.62646]]}},{"type":"Feature","id":"w1559431733","properties":{"kind":"line","mode":"light_rail","name":"高雄環狀輕軌","name_en":null,"network":null,"operator":null},"geometry":{"type":"LineString","coordinates":[[120.278658,22.62646],[120.278699,22.626521]]}},{"type":"Feature","id":"w1559431734","properties":{"kind":"line","mode":"light_rail","name":"高雄環狀輕軌","name_en":null,"network":null,"operator":null},"geometry":{"type":"LineString","coordinates":[[120.278616,22.626484],[120.278448,22.626237],[120.278402,22.626169],[120.278321,22.626047],[120.277201,22.624353],[120.277117,22.624213],[120.276767,22.623631]]}},{"type":"Feature","id":"w1559431735","properties":{"kind":"line","mode":"light_rail","name":"高雄環狀輕軌","name_en":null,"network":null,"operator":null},"geometry":{"type":"LineString","coordinates":[[120.278655,22.62654],[120.278616,22.626484]]}},{"type":"Feature","id":"w1559431736","properties":{"kind":"line","mode":"light_rail","name":"高雄環狀輕軌","name_en":null,"network":null,"operator":null},"geometry":{"type":"LineString","coordinates":[[120.278699,22.626521],[120.278835,22.626736],[120.278988,22.626995],[120.279029,22.62707],[120.279075,22.62713],[120.280434,22.629118],[120.28048,22.629183],[120.280533,22.629262],[120.280596,22.629374],[120.280693,22.629513]]}},{"type":"Feature","id":"w1559431737","properties":{"kind":"line","mode":"light_rail","name":"高雄環狀輕軌","name_en":null,"network":null,"operator":null},"geometry":{"type":"LineString","coordinates":[[120.280669,22.629527],[120.280573,22.629388],[120.280511,22.629276],[120.280458,22.629196],[120.280411,22.629131],[120.279036,22.627151],[120.27899,22.627092],[120.278949,22.627017],[120.278794,22.626758],[120.278655,22.62654]]}},{"type":"Feature","id":"w1559431738","properties":{"kind":"line","mode":"light_rail","name":"高雄環狀輕軌","name_en":null,"network":null,"operator":null},"geometry":{"type":"LineString","coordinates":[[120.280693,22.629513],[120.280722,22.629555],[120.280733,22.629571]]}},{"type":"Feature","id":"w1559431739","properties":{"kind":"line","mode":"light_rail","name":"高雄環狀輕軌","name_en":null,"network":null,"operator":null},"geometry":{"type":"LineString","coordinates":[[120.280709,22.629584],[120.280703,22.629575],[120.280669,22.629527]]}},{"type":"Feature","id":"w1561299330","properties":{"kind":"line","mode":"light_rail","name":"高雄環狀輕軌","name_en":null,"network":null,"operator":null},"geometry":{"type":"LineString","coordinates":[[120.282598,22.635981],[120.282579,22.636044],[120.282521,22.636247],[120.282497,22.636321],[120.282081,22.637761],[120.282034,22.637995],[120.282025,22.63807],[120.281999,22.638534],[120.281984,22.63862],[120.281974,22.638693],[120.281674,22.639634],[120.28156,22.639998],[120.281369,22.640594],[120.281227,22.641147],[120.281147,22.641529],[120.281112,22.641746],[120.281105,22.64181],[120.281092,22.641977]]}},{"type":"Feature","id":"w1561299331","properties":{"kind":"line","mode":"light_rail","name":"高雄環狀輕軌","name_en":null,"network":null,"operator":null},"geometry":{"type":"LineString","coordinates":[[120.282617,22.635915],[120.282598,22.635981]]}},{"type":"Feature","id":"w1561299332","properties":{"kind":"line","mode":"light_rail","name":"高雄環狀輕軌","name_en":null,"network":null,"operator":null},"geometry":{"type":"LineString","coordinates":[[120.281075,22.641975],[120.281087,22.641808],[120.281091,22.641744],[120.281116,22.641523],[120.281202,22.641135],[120.28134,22.640582],[120.281527,22.639989],[120.281642,22.639619],[120.28193,22.638736],[120.281935,22.638683],[120.28194,22.638665],[120.281945,22.638618],[120.281954,22.638586],[120.281967,22.638494],[120.28198,22.638071],[120.281989,22.637996],[120.282038,22.637747],[120.282464,22.636319],[120.282486,22.636239],[120.282543,22.636037],[120.282562,22.635973]]}},{"type":"Feature","id":"w1561299333","properties":{"kind":"line","mode":"light_rail","name":"高雄環狀輕軌","name_en":null,"network":null,"operator":null},"geometry":{"type":"LineString","coordinates":[[120.282562,22.635973],[120.282581,22.635907]]}},{"type":"Feature","id":"w224342035","properties":{"kind":"line","mode":"light_rail","name":"高雄環狀輕軌","name_en":null,"network":null,"operator":null},"geometry":{"type":"LineString","coordinates":[[120.293353,22.61165],[120.293062,22.611783],[120.292891,22.611853],[120.292831,22.611882],[120.292768,22.611909],[120.292495,22.612045],[120.292344,22.612151],[120.292186,22.612288],[120.292087,22.612406],[120.292053,22.612447],[120.292015,22.612491],[120.291944,22.612572],[120.291908,22.61262],[120.291847,22.612699],[120.29178,22.612846],[120.291714,22.613095],[120.291681,22.613285],[120.291667,22.613462],[120.291682,22.613668],[120.291705,22.613784],[120.291712,22.613821],[120.291734,22.613877],[120.291756,22.613933],[120.29185,22.614167],[120.292892,22.616161],[120.293003,22.61637],[120.293018,22.616398],[120.293166,22.616678],[120.293173,22.616692]]}},{"type":"Feature","id":"w224343173","properties":{"kind":"line","mode":"light_rail","name":"高雄環狀輕軌","name_en":null,"network":null,"operator":null},"geometry":{"type":"LineString","coordinates":[[120.289408,22.619316],[120.289193,22.619256],[120.28915,22.619244],[120.289092,22.619229],[120.289008,22.619197],[120.288912,22.61915],[120.288851,22.619114],[120.288736,22.619015],[120.288636,22.618889],[120.288559,22.618762],[120.288381,22.618491],[120.288307,22.618399],[120.28822,22.618301],[120.288128,22.618206],[120.288032,22.618118],[120.287929,22.618037],[120.28782,22.617962],[120.287706,22.617894],[120.287587,22.617833],[120.287464,22.61778],[120.287338,22.617735],[120.287209,22.617697],[120.287075,22.617668],[120.286939,22.617646],[120.286802,22.617634],[120.286664,22.61763],[120.286526,22.617635],[120.286389,22.617649],[120.286254,22.617671],[120.28612,22.617702],[120.285989,22.617741],[120.285856,22.617782],[120.285762,22.617821]]}},{"type":"Feature","id":"w224343174","properties":{"kind":"line","mode":"light_rail","name":"高雄捷運環狀輕軌","name_en":"Kaohsiung MRT Circular Line","network":null,"operator":"高雄捷運公司"},"geometry":{"type":"LineString","coordinates":[[120.279854,22.620532],[120.279717,22.6206],[120.27956,22.620671],[120.279453,22.620713],[120.279375,22.620727],[120.279346,22.620727],[120.279309,22.620727],[120.279251,22.620717],[120.279192,22.620695],[120.279141,22.620662],[120.279096,22.620619],[120.279051,22.620555],[120.278698,22.619905],[120.27866,22.619857],[120.278621,22.619822],[120.278568,22.619787],[120.278504,22.619769],[120.278451,22.619764],[120.27839,22.619764],[120.278335,22.619774],[120.278282,22.619794],[120.277678,22.620067],[120.276568,22.620561],[120.275904,22.620864],[120.275834,22.620897],[120.275768,22.620945],[120.275726,22.620994],[120.2757,22.621034],[120.275684,22.621076],[120.275678,22.621133],[120.275683,22.62119],[120.275704,22.621268],[120.275756,22.621386],[120.275828,22.621553]]}},{"type":"Feature","id":"w435657350","properties":{"kind":"line","mode":"light_rail","name":"高雄捷運環狀輕軌","name_en":"Kaohsiung MRT Circular Line","network":null,"operator":"高雄捷運公司"},"geometry":{"type":"LineString","coordinates":[[120.275802,22.621563],[120.275728,22.621397],[120.275668,22.621276],[120.275639,22.621201],[120.275631,22.621137],[120.275637,22.621096],[120.275654,22.621028],[120.275687,22.62097],[120.27574,22.620909],[120.275807,22.620865],[120.275885,22.620826],[120.276293,22.620649],[120.277659,22.620033],[120.27826,22.619761],[120.278327,22.619736],[120.278384,22.619721],[120.278427,22.619718],[120.278508,22.619719],[120.278573,22.619737],[120.278653,22.619785],[120.2787,22.619835],[120.278733,22.619884],[120.279084,22.620537],[120.279124,22.620587],[120.279169,22.620626],[120.279201,22.620647],[120.279227,22.620659],[120.279292,22.620679],[120.279316,22.620681],[120.279361,22.620686],[120.279437,22.620676],[120.279548,22.620643],[120.279704,22.620575],[120.27984,22.620507]]}},{"type":"Feature","id":"w435657353","properties":{"kind":"line","mode":"light_rail","name":"高雄環狀輕軌","name_en":null,"network":null,"operator":null},"geometry":{"type":"LineString","coordinates":[[120.285746,22.617793],[120.285845,22.617755],[120.285976,22.617707],[120.286109,22.617667],[120.286246,22.617636],[120.286384,22.617613],[120.286524,22.617599],[120.286664,22.617594],[120.286804,22.617598],[120.286944,22.61761],[120.287082,22.617632],[120.287219,22.617662],[120.287351,22.6177],[120.28748,22.617747],[120.287605,22.617801],[120.287726,22.617863],[120.287842,22.617932],[120.287953,22.618008],[120.288058,22.618092],[120.288157,22.618181],[120.288249,22.618276],[120.288336,22.618375],[120.288414,22.618479],[120.288583,22.618752],[120.288657,22.618872],[120.288734,22.618973],[120.288809,22.619041],[120.288875,22.619087],[120.288933,22.619129],[120.289009,22.619168],[120.289097,22.619205],[120.2892,22.619236],[120.289414,22.619295]]}},{"type":"Feature","id":"w435657359","properties":{"kind":"line","mode":"light_rail","name":"高雄環狀輕軌","name_en":null,"network":null,"operator":null},"geometry":{"type":"LineString","coordinates":[[120.293143,22.616706],[120.293136,22.616693],[120.292984,22.61641],[120.292913,22.616277],[120.291788,22.614176],[120.291702,22.613944],[120.291675,22.613872],[120.29166,22.613832],[120.291648,22.613776],[120.291629,22.613682],[120.291629,22.613472],[120.291639,22.613279],[120.291674,22.61309],[120.291765,22.612773],[120.291802,22.612689],[120.291877,22.612583],[120.291896,22.612555],[120.291977,22.612459],[120.292014,22.612414],[120.292044,22.612378],[120.292148,22.612255],[120.292303,22.612126],[120.292476,22.612016],[120.292757,22.611883],[120.292818,22.611859],[120.292876,22.611834],[120.293048,22.61176],[120.293341,22.611626]]}},{"type":"Feature","id":"w462002035","properties":{"kind":"line","mode":"subway","name":"捷運紅線","name_en":"MRT Red Line","network":"高雄捷運","operator":"高雄捷運公司"},"geometry":{"type":"LineString","coordinates":[[120.30383,22.694828],[120.305456,22.692386],[120.306646,22.690655],[120.306752,22.690517],[120.307743,22.689214],[120.309051,22.687929],[120.311357,22.685521],[120.311519,22.685272],[120.311676,22.68496],[120.311854,22.684482],[120.311909,22.683936],[120.31187,22.683555],[120.311855,22.68345],[120.311844,22.683321],[120.311821,22.683228],[120.311793,22.68312],[120.311744,22.682997],[120.311633,22.682766],[120.311609,22.68271],[120.311566,22.68264],[120.311462,22.682499],[120.31033,22.681276],[120.309787,22.680746],[120.309305,22.680282],[120.308799,22.679804],[120.308645,22.679647],[120.308447,22.679417],[120.308205,22.679128],[120.307199,22.677809],[120.306329,22.676544],[120.30625,22.676405],[120.305384,22.674901],[120.305302,22.674725],[120.304687,22.673405],[120.304273,22.672525],[120.30392,22.67165],[120.303458,22.670446],[120.303374,22.670101],[120.303251,22.665335],[120.303173,22.664117],[120.303106,22.662855],[120.303069,22.661288],[120.302986,22.658173],[120.302996,22.657627],[120.303023,22.657135],[120.3033,22.655728],[120.303506,22.654457],[120.303627,22.653167],[120.303585,22.652368],[120.303396,22.64996],[120.303324,22.649152],[120.303264,22.648677],[120.303247,22.648404],[120.303204,22.647941],[120.302871,22.643759],[120.302491,22.639334],[120.302373,22.637868],[120.30239,22.637575],[120.302275,22.636595],[120.302246,22.636213],[120.302183,22.635554],[120.302157,22.635188],[120.302115,22.634768],[120.301931,22.632571],[120.301794,22.631237],[120.301592,22.629194],[120.301067,22.62486],[120.300944,22.623695],[120.300927,22.623485],[120.300918,22.62335],[120.300917,22.623222],[120.300922,22.623113],[120.300948,22.622955],[120.300983,22.622797],[120.30101,22.62268],[120.301041,22.622583],[120.301086,22.62243],[120.301334,22.62186],[120.301644,22.621132],[120.301704,22.62097],[120.301748,22.620852],[120.301793,22.620749],[120.301857,22.62062],[120.301952,22.62041],[120.30205,22.620189],[120.302114,22.620039],[120.302174,22.619888],[120.302221,22.619758],[120.302272,22.619619],[120.303248,22.617112],[120.303774,22.615708],[120.30457,22.6135],[120.304987,22.612389],[120.305216,22.611837],[120.305534,22.611055],[120.305606,22.610871],[120.305741,22.610511],[120.305944,22.609972],[120.306013,22.609787],[120.306634,22.60814],[120.306719,22.607925],[120.306839,22.607646],[120.306959,22.607393],[120.307052,22.607207],[120.307163,22.607022],[120.307303,22.606829],[120.307449,22.60663],[120.308227,22.605602],[120.308742,22.604963],[120.309185,22.604422],[120.309479,22.60406],[120.310209,22.603138],[120.310654,22.602582],[120.311059,22.602033],[120.311642,22.601476],[120.311871,22.60127],[120.31204,22.601097],[120.312157,22.600966],[120.312324,22.600791],[120.31249,22.600611],[120.312646,22.600435],[120.31273,22.600335],[120.312873,22.600141],[120.313046,22.599917],[120.31317,22.599729],[120.313267,22.599581],[120.313405,22.599338],[120.313483,22.59917],[120.313861,22.598366],[120.313956,22.598233],[120.314988,22.596799],[120.31561,22.596012],[120.317407,22.59375],[120.318084,22.592974],[120.318211,22.592816],[120.318345,22.592621],[120.31841,22.592524],[120.318647,22.592191],[120.31891,22.591816],[120.319083,22.591576],[120.3194,22.591145],[120.31947,22.591052],[120.319546,22.590952],[120.320157,22.590195],[120.321699,22.5884],[120.32517,22.584235],[120.325782,22.583486],[120.328851,22.579782],[120.330983,22.577272],[120.331088,22.577158],[120.33118,22.577066],[120.331393,22.576866],[120.331962,22.57636],[120.333686,22.574838],[120.333927,22.57464],[120.334148,22.574451],[120.334301,22.574316],[120.3344,22.574225],[120.334489,22.574122],[120.334962,22.573538],[120.336813,22.571362],[120.33698,22.571203],[120.337158,22.571073],[120.337414,22.570925],[120.337686,22.570804],[120.338116,22.570637],[120.338492,22.570516],[120.338774,22.57042],[120.339175,22.570308],[120.339372,22.570259],[120.339574,22.570206],[120.339855,22.570153],[120.340012,22.57013],[120.340305,22.570104],[120.340526,22.570091],[120.341806,22.570061],[120.342896,22.570026],[120.346895,22.569896],[120.347058,22.569883],[120.347268,22.569867],[120.34754,22.569823],[120.347716,22.569799],[120.348512,22.569618],[120.348846,22.569533],[120.349079,22.569461],[120.349359,22.569339],[120.349576,22.569233],[120.349746,22.569114],[120.34994,22.568969],[120.350132,22.568801],[120.350331,22.56861],[120.350534,22.568418],[120.350596,22.568351],[120.350712,22.568209],[120.350858,22.567994],[120.351032,22.567684],[120.351215,22.567404],[120.351341,22.567236],[120.351533,22.566988],[120.353929,22.564367],[120.355591,22.562493]]}},{"type":"Feature","id":"w462133990","properties":{"kind":"line","mode":"subway","name":"高雄捷運橘線","name_en":"Kaohsiung MRT Orange Line","network":"高雄捷運","operator":"高雄捷運公司"},"geometry":{"type":"LineString","coordinates":[[120.387912,22.624982],[120.386901,22.625773],[120.385582,22.627141],[120.385153,22.627534],[120.384705,22.627914],[120.384123,22.628284],[120.38394,22.628392],[120.383793,22.628453],[120.383549,22.628535],[120.38336,22.628587],[120.383135,22.628631],[120.382885,22.628667],[120.382608,22.628687],[120.38231,22.628697],[120.38201,22.628695],[120.381767,22.628685],[120.381497,22.628661],[120.381261,22.628621],[120.381088,22.628566],[120.380821,22.62846],[120.375345,22.626127],[120.371661,22.624607],[120.36935,22.623577],[120.369193,22.623522],[120.369057,22.623484],[120.368913,22.623447],[120.368766,22.623414],[120.368564,22.623372],[120.368347,22.623331],[120.368174,22.623312],[120.368043,22.623309],[120.367882,22.623315],[120.367834,22.62332],[120.367696,22.62334],[120.367508,22.623384],[120.367349,22.623433],[120.367232,22.623477],[120.367036,22.623559],[120.366902,22.62362],[120.366726,22.623704],[120.366561,22.623793],[120.366441,22.623864],[120.366273,22.623964],[120.366096,22.624066],[120.36598,22.624141],[120.365889,22.624199],[120.365728,22.624292],[120.365461,22.624431],[120.365002,22.624671],[120.364877,22.624726],[120.364695,22.624803],[120.364492,22.624881],[120.364236,22.624983],[120.364061,22.625047],[120.363986,22.625072],[120.363912,22.62509],[120.363782,22.625125],[120.362851,22.625321],[120.362051,22.625489],[120.361443,22.62559],[120.361167,22.625639],[120.361054,22.625659],[120.360933,22.625682],[120.360814,22.625707],[120.360649,22.625742],[120.360439,22.625787],[120.360271,22.625817],[120.360121,22.625843],[120.359968,22.62587],[120.358891,22.626072],[120.358747,22.626099],[120.358625,22.62612],[120.358478,22.626139],[120.358318,22.626153],[120.358126,22.62616],[120.357918,22.626154],[120.35718,22.626113],[120.354858,22.626028],[120.352989,22.625945],[120.352783,22.625931],[120.352535,22.625915],[120.352258,22.625882],[120.351998,22.62585],[120.351726,22.625818],[120.349034,22.625469],[120.347505,22.625297],[120.345496,22.625052],[120.344529,22.624941],[120.343964,22.624882],[120.343215,22.624805],[120.343002,22.624791],[120.342735,22.624784],[120.342575,22.624789],[120.34239,22.624799],[120.342202,22.624821],[120.342101,22.624842],[120.341277,22.625076],[120.340185,22.625396],[120.339908,22.625476],[120.339686,22.625539],[120.339483,22.625598],[120.33927,22.625665],[120.338979,22.625761],[120.338693,22.625858],[120.338465,22.625935],[120.338234,22.626017],[120.338035,22.626098],[120.337787,22.626202],[120.337629,22.626271],[120.337445,22.626343],[120.337248,22.62642],[120.337081,22.62648],[120.336845,22.626559],[120.334605,22.627296],[120.333607,22.62764],[120.333425,22.627701],[120.333259,22.627746],[120.333147,22.627777],[120.333005,22.627808],[120.33276,22.627863],[120.332565,22.627905],[120.332363,22.627948],[120.332238,22.627984],[120.332075,22.628029],[120.331944,22.628073],[120.331764,22.628137],[120.331586,22.628204],[120.331288,22.628318],[120.330995,22.628436],[120.330746,22.628535],[120.330492,22.628654],[120.330261,22.628764],[120.330046,22.628865],[120.329819,22.628951],[120.329677,22.629002],[120.329507,22.629053],[120.329417,22.629081],[120.329337,22.629101],[120.329117,22.629148],[120.328931,22.629183],[120.328752,22.629223],[120.327704,22.629495],[120.327008,22.629665],[120.326803,22.629704],[120.326629,22.629731],[120.326436,22.629761],[120.326196,22.629789],[120.326008,22.629806],[120.325857,22.629821],[120.325695,22.629832],[120.325535,22.629838],[120.325357,22.629837],[120.325131,22.629829],[120.324987,22.629825],[120.324785,22.629822],[120.324581,22.629825],[120.324406,22.629832],[120.324238,22.629835],[120.324027,22.629847],[120.321526,22.630028],[120.320051,22.630147],[120.319519,22.630206],[120.317282,22.63036],[120.313581,22.630623],[120.31072,22.630832],[120.309055,22.630945],[120.308476,22.630985],[120.306242,22.631139],[120.305233,22.631208],[120.30503,22.631222],[120.304928,22.631226],[120.304838,22.631232],[120.304678,22.631241],[120.304578,22.631247],[120.30318,22.631339],[120.302971,22.631353],[120.302684,22.631371],[120.302144,22.631406],[120.301953,22.63141],[120.301849,22.631407],[120.301633,22.631384],[120.301512,22.631365],[120.301385,22.63134],[120.301268,22.631315],[120.30119,22.631292],[120.299671,22.630768],[120.299537,22.630716],[120.299411,22.630667],[120.299229,22.630594],[120.299103,22.630535],[120.298932,22.630456],[120.298823,22.630412],[120.298685,22.630361],[120.296919,22.629783],[120.294365,22.628948],[120.290716,22.627702],[120.290443,22.627613],[120.290347,22.627582],[120.290113,22.627522],[120.289854,22.62746],[120.289566,22.627388],[120.289263,22.627316],[120.289108,22.627291],[120.288939,22.627273],[120.288785,22.627262],[120.288647,22.627256],[120.288514,22.627248],[120.288343,22.627235],[120.288191,22.627216],[120.288009,22.627182],[120.287836,22.627138],[120.287705,22.627095],[120.286159,22.626487],[120.285983,22.626396],[120.28585,22.626318],[120.285687,22.626214],[120.285498,22.626088],[120.285287,22.625922],[120.28511,22.625765],[120.284993,22.625665],[120.284885,22.625562],[120.284804,22.625479],[120.284663,22.625325],[120.284593,22.625227],[120.284503,22.625069],[120.284126,22.624357],[120.283984,22.624101],[120.283676,22.623548],[120.282618,22.621542],[120.282102,22.620653],[120.282062,22.62058],[120.281985,22.620463],[120.28191,22.62036],[120.281811,22.620222],[120.281625,22.619989],[120.28149,22.61983],[120.281288,22.619654],[120.281112,22.61953],[120.280927,22.619427],[120.280761,22.61935],[120.280573,22.619287],[120.280432,22.619245],[120.280279,22.619213],[120.280075,22.619183],[120.279914,22.619172],[120.279677,22.619162],[120.279453,22.61915],[120.279283,22.619154],[120.279116,22.619168],[120.278877,22.61921],[120.278717,22.619253],[120.278568,22.619307],[120.27835,22.619402],[120.278035,22.619551],[120.277667,22.619741],[120.275636,22.620941],[120.275037,22.621284],[120.27483,22.621392],[120.273726,22.622024],[120.273458,22.622183]]}},{"type":"Feature","id":"w462701171","properties":{"kind":"line","mode":"subway","name":"捷運紅線","name_en":"MRT Red Line","network":"高雄捷運","operator":"高雄捷運公司"},"geometry":{"type":"LineString","coordinates":[[120.35565,22.562543],[120.354007,22.564408],[120.351644,22.567014],[120.351411,22.567304],[120.35126,22.56751],[120.351156,22.567677],[120.351064,22.567845],[120.350918,22.568093],[120.350798,22.56826],[120.350673,22.568411],[120.350488,22.568597],[120.350307,22.568776],[120.350016,22.56904],[120.349835,22.569189],[120.349634,22.569308],[120.349522,22.569373],[120.349345,22.569462],[120.349198,22.569522],[120.348936,22.569609],[120.348183,22.569797],[120.347961,22.569853],[120.347547,22.569929],[120.347364,22.569955],[120.347138,22.569982],[120.346891,22.569999],[120.341168,22.570168],[120.340494,22.570186],[120.340149,22.5702],[120.339897,22.570232],[120.339692,22.57027],[120.339426,22.570334],[120.339127,22.57041],[120.338827,22.570508],[120.33844,22.570628],[120.338141,22.570731],[120.337716,22.570896],[120.337525,22.570979],[120.337302,22.571093],[120.337136,22.571201],[120.336999,22.571309],[120.336812,22.5715],[120.335068,22.573554],[120.334407,22.574347],[120.33428,22.574476],[120.334121,22.57462],[120.333903,22.574796],[120.331929,22.576514],[120.33157,22.576821],[120.331415,22.57696],[120.33124,22.577136],[120.331085,22.5773],[120.328348,22.580571],[120.325879,22.583505],[120.325252,22.584274],[120.321765,22.588442],[120.320239,22.590239],[120.319629,22.590991],[120.319476,22.591172],[120.319306,22.591406],[120.319108,22.591666],[120.318977,22.591846],[120.318789,22.592136],[120.318647,22.592337],[120.318545,22.592487],[120.318351,22.592745],[120.318252,22.59288],[120.318142,22.593014],[120.317464,22.593798],[120.315036,22.596891],[120.314558,22.59752],[120.314438,22.597695],[120.31404,22.598288],[120.313889,22.598545],[120.313735,22.598824],[120.313642,22.599016],[120.313505,22.599297],[120.313427,22.599464],[120.313296,22.59969],[120.313178,22.599875],[120.313051,22.600064],[120.312919,22.600244],[120.312778,22.600412],[120.312577,22.600648],[120.312185,22.601112],[120.311757,22.601688],[120.311303,22.602217],[120.310927,22.602612],[120.310642,22.602919],[120.310345,22.603251],[120.309598,22.604142],[120.3094,22.604392],[120.309324,22.60449],[120.308914,22.605017],[120.307915,22.606323],[120.30762,22.606679],[120.307371,22.607009],[120.307266,22.607159],[120.307149,22.607353],[120.307045,22.607545],[120.30695,22.607745],[120.306865,22.607951],[120.306777,22.608171],[120.306527,22.608826],[120.305998,22.610074],[120.305825,22.610513],[120.305544,22.611228],[120.30541,22.611598],[120.305306,22.611864],[120.305064,22.612484],[120.304465,22.614114],[120.303861,22.615741],[120.303328,22.617137],[120.302422,22.619658],[120.302351,22.619837],[120.302282,22.619998],[120.302185,22.620195],[120.302109,22.620365],[120.302036,22.620514],[120.301947,22.620701],[120.301872,22.620849],[120.301833,22.62093],[120.301812,22.621041],[120.301757,22.621185],[120.301455,22.621869],[120.301231,22.622464],[120.301189,22.622582],[120.30116,22.622682],[120.301132,22.62278],[120.301109,22.622865],[120.301087,22.622983],[120.301073,22.623101],[120.301066,22.623227],[120.301062,22.623338],[120.301067,22.623468],[120.301082,22.623697],[120.301201,22.624849],[120.301719,22.629191],[120.301905,22.631231],[120.302002,22.632446],[120.302012,22.632577],[120.302257,22.634831],[120.302314,22.63551],[120.302452,22.636776],[120.302498,22.637672],[120.302554,22.638061]]}},{"type":"Feature","id":"w504037146","properties":{"kind":"line","mode":"light_rail","name":"高雄環狀輕軌","name_en":null,"network":null,"operator":null},"geometry":{"type":"LineString","coordinates":[[120.284779,22.618248],[120.284537,22.618367],[120.28451,22.618379],[120.284219,22.618513]]}},{"type":"Feature","id":"w504037148","properties":{"kind":"line","mode":"light_rail","name":"高雄環狀輕軌","name_en":null,"network":null,"operator":null},"geometry":{"type":"LineString","coordinates":[[120.284206,22.618488],[120.284495,22.618351],[120.284522,22.618337],[120.284758,22.618219]]}},{"type":"Feature","id":"w509451208","properties":{"kind":"line","mode":"light_rail","name":"高雄環狀輕軌","name_en":null,"network":null,"operator":null},"geometry":{"type":"LineString","coordinates":[[120.292733,22.618984],[120.292769,22.618944],[120.292955,22.618706],[120.293104,22.618474],[120.293221,22.618233],[120.293301,22.618044],[120.293355,22.617868],[120.2934,22.617568],[120.293389,22.617405]]}},{"type":"Feature","id":"w509451209","properties":{"kind":"line","mode":"light_rail","name":"高雄環狀輕軌","name_en":null,"network":null,"operator":null},"geometry":{"type":"LineString","coordinates":[[120.29344,22.6174],[120.293436,22.617568],[120.293401,22.617866],[120.293344,22.618045],[120.293263,22.618237],[120.293144,22.618491],[120.292992,22.618725],[120.292787,22.618971],[120.292754,22.61901]]}},{"type":"Feature","id":"w509451210","properties":{"kind":"line","mode":"light_rail","name":"高雄環狀輕軌","name_en":null,"network":null,"operator":null},"geometry":{"type":"LineString","coordinates":[[120.284758,22.618219],[120.285746,22.617793]]}},{"type":"Feature","id":"w509451211","properties":{"kind":"line","mode":"light_rail","name":"高雄環狀輕軌","name_en":null,"network":null,"operator":null},"geometry":{"type":"LineString","coordinates":[[120.285762,22.617821],[120.284779,22.618248]]}},{"type":"Feature","id":"w526535918","properties":{"kind":"line","mode":"light_rail","name":"高雄環狀輕軌","name_en":null,"network":null,"operator":null},"geometry":{"type":"LineString","coordinates":[[120.282581,22.635907],[120.282657,22.635651],[120.282705,22.635508],[120.28278,22.635234],[120.282938,22.63472],[120.282972,22.634587],[120.282998,22.634455],[120.283015,22.634354],[120.283023,22.634295],[120.283037,22.634198],[120.283087,22.633801],[120.283084,22.633676],[120.283078,22.633582],[120.283065,22.633465],[120.283047,22.633371],[120.283026,22.633309],[120.282991,22.633164],[120.282873,22.632928],[120.282641,22.632504],[120.281584,22.630887],[120.280868,22.629819],[120.280709,22.629584]]}},{"type":"Feature","id":"w526535921","properties":{"kind":"line","mode":"light_rail","name":"高雄環狀輕軌","name_en":null,"network":null,"operator":null},"geometry":{"type":"LineString","coordinates":[[120.280733,22.629571],[120.280894,22.629801],[120.281615,22.630866],[120.282668,22.632491],[120.282914,22.632923],[120.283032,22.633176],[120.283079,22.633359],[120.2831,22.633457],[120.283119,22.633608],[120.283121,22.633798],[120.28307,22.634194],[120.283057,22.634301],[120.283034,22.634423],[120.283002,22.63457],[120.282961,22.634736],[120.282815,22.63524],[120.282706,22.635612],[120.282693,22.635658],[120.282617,22.635915]]}},{"type":"Feature","id":"w574405403","properties":{"kind":"line","mode":"rail","name":"屏東線","name_en":"Pingtung Line","network":null,"operator":"國營臺灣鐵路股份有限公司"},"geometry":{"type":"LineString","coordinates":[[120.366081,22.632278],[120.365625,22.63195],[120.365261,22.631701],[120.364967,22.631513],[120.364648,22.631338],[120.364298,22.631169],[120.363886,22.631016],[120.363562,22.630917],[120.363123,22.630819],[120.362581,22.630732],[120.361945,22.630692],[120.361591,22.630716],[120.360771,22.630848],[120.359786,22.631003],[120.357486,22.631384],[120.356761,22.631505],[120.356661,22.631525],[120.352729,22.632326],[120.349782,22.632924],[120.349696,22.632941],[120.347122,22.633375],[120.342754,22.634077],[120.342201,22.634178],[120.340817,22.634413],[120.331602,22.636117],[120.32635,22.637027],[120.321467,22.637873],[120.318766,22.638375],[120.318691,22.638389],[120.317667,22.638516],[120.315096,22.638665],[120.314592,22.638694],[120.305677,22.639288]]}},{"type":"Feature","id":"w576403132","properties":{"kind":"line","mode":"rail","name":"縱貫線","name_en":"West Coast Line","network":null,"operator":"國營臺灣鐵路股份有限公司"},"geometry":{"type":"LineString","coordinates":[[120.298944,22.679542],[120.298732,22.679326],[120.297957,22.678489],[120.296868,22.677316],[120.295866,22.676218],[120.293997,22.674215],[120.293761,22.673972],[120.291786,22.67194],[120.291118,22.671195],[120.290415,22.670489],[120.290389,22.670461],[120.289952,22.670006],[120.289427,22.669377],[120.289333,22.669255],[120.289043,22.66884],[120.288783,22.668483],[120.288558,22.668164],[120.288208,22.667676],[120.287907,22.667213],[120.287599,22.666756],[120.287274,22.666262],[120.287006,22.665874],[120.286843,22.665637],[120.286546,22.665207],[120.286235,22.664764],[120.285893,22.664261],[120.285555,22.66376],[120.285164,22.663188],[120.284745,22.662566],[120.284253,22.661857],[120.283823,22.661217],[120.283317,22.660473],[120.283016,22.65999],[120.282767,22.659598],[120.28255,22.659227],[120.28238,22.658877],[120.282205,22.658524],[120.282132,22.658353],[120.282067,22.658179],[120.28201,22.658003],[120.28196,22.657821],[120.281919,22.657638],[120.281886,22.657453],[120.281813,22.656772],[120.281691,22.654582],[120.281507,22.65194],[120.281401,22.650505],[120.281357,22.649799],[120.28129,22.648971],[120.281257,22.648456],[120.28121,22.647278],[120.281181,22.646751],[120.281104,22.645975],[120.281084,22.645765],[120.280925,22.644582],[120.280882,22.643618],[120.280881,22.642745],[120.280889,22.642635],[120.280922,22.642076],[120.281015,22.641443],[120.281269,22.640566],[120.281442,22.639974],[120.28172,22.639139],[120.281775,22.638987],[120.281831,22.638868],[120.281929,22.638672],[120.282016,22.638509],[120.282111,22.63835],[120.282214,22.638196],[120.282326,22.638047],[120.282445,22.637903],[120.282572,22.637765],[120.282707,22.637633],[120.282848,22.637508],[120.282996,22.637389],[120.28315,22.637276],[120.28331,22.637172],[120.283476,22.637074],[120.283646,22.636985],[120.283809,22.636908],[120.283976,22.636839],[120.284146,22.636777],[120.284319,22.636723],[120.284494,22.636676],[120.284672,22.636636],[120.284851,22.636604],[120.285032,22.63658],[120.285214,22.636564],[120.285397,22.636555],[120.285581,22.636555],[120.285914,22.636561],[120.286254,22.636608],[120.286551,22.636664],[120.286915,22.636737],[120.288429,22.637068],[120.289796,22.63738],[120.290264,22.637499],[120.29146,22.637989],[120.292277,22.638449],[120.292519,22.638571],[120.293683,22.639129],[120.293912,22.63924],[120.294326,22.639443],[120.294816,22.639641],[120.295332,22.639796],[120.295844,22.639921],[120.296172,22.63998],[120.29662,22.640011],[120.297879,22.639962],[120.299127,22.639895],[120.299737,22.639828]]}},{"type":"Feature","id":"w595516455","properties":{"kind":"line","mode":"rail","name":"縱貫線","name_en":"West Coast Line","network":null,"operator":"國營臺灣鐵路股份有限公司"},"geometry":{"type":"LineString","coordinates":[[120.299737,22.639828],[120.300194,22.639726],[120.301423,22.639556],[120.301832,22.639525],[120.302586,22.639468],[120.304246,22.639344],[120.305673,22.639336]]}},{"type":"Feature","id":"w595516459","properties":{"kind":"line","mode":"rail","name":"縱貫線","name_en":"Western Trunk line","network":null,"operator":"國營臺灣鐵路股份有限公司"},"geometry":{"type":"LineString","coordinates":[[120.299712,22.639768],[120.299036,22.639858],[120.297837,22.639912],[120.296649,22.639961],[120.296025,22.639912],[120.295354,22.639765],[120.294843,22.639605],[120.294356,22.639411],[120.293926,22.639205],[120.292544,22.638543],[120.292313,22.638412],[120.291494,22.637951],[120.290283,22.637445],[120.289793,22.637324],[120.288445,22.637024],[120.286924,22.636699],[120.286559,22.636626],[120.286261,22.63657],[120.285918,22.636522],[120.285582,22.636516],[120.285395,22.636516],[120.285211,22.636525],[120.285027,22.636541],[120.284844,22.636566],[120.284663,22.636598],[120.284483,22.636638],[120.284306,22.636686],[120.284132,22.636741],[120.28396,22.636804],[120.283791,22.636874],[120.283626,22.636951],[120.283454,22.637041],[120.283287,22.637139],[120.283125,22.637245],[120.282969,22.637359],[120.28282,22.637479],[120.282677,22.637606],[120.282541,22.637739],[120.282412,22.637879],[120.282292,22.638024],[120.282179,22.638175],[120.282074,22.63833],[120.281978,22.638491],[120.281892,22.638655],[120.281793,22.638852],[120.281737,22.638972],[120.281681,22.639126],[120.2814,22.63996],[120.281214,22.640559],[120.280972,22.64144],[120.280883,22.64207],[120.28085,22.642635],[120.280832,22.64362],[120.280886,22.64459],[120.281044,22.645771],[120.281065,22.645984],[120.281103,22.646355],[120.281142,22.64676],[120.281158,22.647197],[120.281175,22.647648],[120.281198,22.648138],[120.281227,22.648816],[120.281297,22.64982],[120.281347,22.650503],[120.281458,22.65194],[120.281642,22.654587],[120.281726,22.656133],[120.281773,22.656772],[120.28185,22.657465],[120.281882,22.657651],[120.281924,22.657835],[120.281974,22.658018],[120.282031,22.658195],[120.282097,22.658369],[120.282171,22.658541],[120.282519,22.659249],[120.282979,22.66001],[120.283623,22.661004],[120.284825,22.662783],[120.285147,22.663256],[120.285626,22.663958],[120.286223,22.664841],[120.286801,22.665704],[120.28694,22.665907],[120.287304,22.666439],[120.287467,22.666661],[120.287979,22.667453],[120.288312,22.667921],[120.288366,22.667996],[120.288758,22.66855],[120.289223,22.669245],[120.289562,22.66968],[120.289976,22.67015],[120.290586,22.670783],[120.291037,22.671201],[120.291763,22.671985],[120.293702,22.674016],[120.293938,22.674263],[120.295813,22.676264],[120.296506,22.677015],[120.297366,22.677952],[120.298119,22.678744],[120.298913,22.679569]]}},{"type":"Feature","id":"w595516466","properties":{"kind":"line","mode":"rail","name":"縱貫線","name_en":"Western Trunk line","network":null,"operator":"國營臺灣鐵路股份有限公司"},"geometry":{"type":"LineString","coordinates":[[120.305677,22.639288],[120.304243,22.639309],[120.302582,22.639433],[120.301811,22.63949],[120.301415,22.63952],[120.300583,22.639641],[120.299712,22.639768]]}},{"type":"Feature","id":"w595516467","properties":{"kind":"line","mode":"rail","name":"屏東線","name_en":"Pingtung Line","network":null,"operator":"國營臺灣鐵路股份有限公司"},"geometry":{"type":"LineString","coordinates":[[120.305673,22.639336],[120.314589,22.638741],[120.315098,22.638711],[120.317676,22.638565],[120.318703,22.638432],[120.32148,22.637923],[120.32635,22.637073],[120.331597,22.636158],[120.340814,22.634472],[120.342215,22.634222],[120.342757,22.634123],[120.347118,22.633417],[120.349703,22.632977],[120.351706,22.632599],[120.352757,22.632375],[120.356672,22.631585],[120.356778,22.631563],[120.359794,22.631045],[120.360779,22.63089],[120.361596,22.630759],[120.361945,22.630735],[120.362575,22.630775],[120.363114,22.63086],[120.363549,22.630957],[120.36387,22.631055],[120.364278,22.631208],[120.364625,22.631375],[120.364942,22.631549],[120.365234,22.631736],[120.365597,22.631984],[120.366054,22.632309]]}},{"type":"Feature","id":"w631561143","properties":{"kind":"line","mode":"light_rail","name":"高雄捷運環狀輕軌","name_en":"Kaohsiung MRT Circular Line","network":null,"operator":"高雄捷運公司"},"geometry":{"type":"LineString","coordinates":[[120.276071,22.622107],[120.275945,22.621895]]}},{"type":"Feature","id":"w631561144","properties":{"kind":"line","mode":"light_rail","name":"高雄環狀輕軌","name_en":null,"network":null,"operator":null},"geometry":{"type":"LineString","coordinates":[[120.282706,22.635612],[120.282705,22.635508]]}},{"type":"Feature","id":"w911443379","properties":{"kind":"line","mode":"subway","name":"捷運紅線","name_en":"MRT Red Line","network":"高雄捷運","operator":"高雄捷運公司"},"geometry":{"type":"LineString","coordinates":[[120.302554,22.638061],[120.302724,22.640048],[120.303091,22.644118],[120.303427,22.648608],[120.303445,22.64883],[120.303458,22.649113],[120.303514,22.649807],[120.303731,22.652353],[120.303763,22.653174],[120.303656,22.65447],[120.303409,22.65574],[120.303166,22.65721],[120.303125,22.657832],[120.303124,22.658236],[120.303132,22.658586],[120.303265,22.662848],[120.303336,22.664391],[120.303376,22.665268],[120.303412,22.665862],[120.303493,22.670101],[120.30357,22.670426],[120.304034,22.671612],[120.304369,22.672405],[120.304787,22.673277],[120.305519,22.674773],[120.306379,22.676385],[120.306993,22.677253],[120.30807,22.678766],[120.308266,22.679072],[120.308618,22.679486],[120.308839,22.679721],[120.309009,22.679883],[120.309234,22.680097],[120.309748,22.680601],[120.310221,22.681076],[120.311754,22.682627],[120.311814,22.682739],[120.311875,22.682881],[120.311938,22.683032],[120.311992,22.68325],[120.312026,22.683494],[120.312052,22.683745],[120.312066,22.683939],[120.312066,22.684103],[120.312053,22.684224],[120.312036,22.684342],[120.3119,22.684723],[120.311868,22.684811],[120.311709,22.685214],[120.311602,22.685407],[120.309427,22.687766],[120.309274,22.687921],[120.308856,22.688333],[120.307839,22.689309],[120.306645,22.690743],[120.305467,22.692456],[120.303961,22.694852]]}}]}
