{"type":"FeatureCollection","name":"keelung transit","features":[{"type":"Feature","id":"n3614567486","properties":{"kind":"station","mode":"station","name":"基隆港東岸客運中心","name_en":"East Passenger Terminal","network":null,"operator":null},"geometry":{"type":"Point","coordinates":[121.74342,25.132323]}},{"type":"Feature","id":"n402296986","properties":{"kind":"station","mode":"train","name":"三坑","name_en":"Sankeng","network":"臺鐵","operator":"國營臺灣鐵路股份有限公司"},"geometry":{"type":"Point","coordinates":[121.742098,25.122217]}},{"type":"Feature","id":"n402297001","properties":{"kind":"station","mode":"train","name":"基隆","name_en":"Keelung","network":"臺鐵","operator":"國營臺灣鐵路股份有限公司"},"geometry":{"type":"Point","coordinates":[121.73923,25.133032]}},{"type":"Feature","id":"n5171581149","properties":{"kind":"station","mode":"station","name":"基隆港西岸客運中心","name_en":"West Passenger Terminal","network":null,"operator":null},"geometry":{"type":"Point","coordinates":[121.741621,25.135083]}},{"type":"Feature","id":"w194097692","properties":{"kind":"line","mode":"rail","name":"縱貫線東正線","name_en":null,"network":null,"operator":"國營臺灣鐵路股份有限公司"},"geometry":{"type":"LineString","coordinates":[[121.740145,25.113542],[121.74033,25.113625],[121.740652,25.113771],[121.740881,25.113893],[121.74109,25.11402],[121.741269,25.114143],[121.74151,25.114328],[121.741705,25.114515],[121.741874,25.114682],[121.741978,25.114799],[121.742086,25.114935],[121.742159,25.115036],[121.742242,25.115178],[121.742351,25.115353],[121.742396,25.115422],[121.742491,25.115631],[121.742559,25.115803],[121.742618,25.115977],[121.742667,25.116153],[121.742708,25.116331],[121.742738,25.116511],[121.742759,25.116692],[121.74277,25.116874],[121.74277,25.11712],[121.742744,25.117425]]}},{"type":"Feature","id":"w194097694","properties":{"kind":"line","mode":"rail","name":"縱貫線西正線","name_en":null,"network":null,"operator":"國營臺灣鐵路股份有限公司"},"geometry":{"type":"LineString","coordinates":[[121.742235,25.120693],[121.742061,25.122209],[121.741938,25.123145],[121.741874,25.123631],[121.741795,25.12404]]}},{"type":"Feature","id":"w194097716","properties":{"kind":"line","mode":"rail","name":"縱貫線東正線","name_en":null,"network":null,"operator":"國營臺灣鐵路股份有限公司"},"geometry":{"type":"LineString","coordinates":[[121.742357,25.120708],[121.742151,25.122218],[121.742043,25.123156],[121.741993,25.123643],[121.74189,25.124056]]}},{"type":"Feature","id":"w194097719","properties":{"kind":"line","mode":"rail","name":"縱貫線西正線","name_en":null,"network":null,"operator":"國營臺灣鐵路股份有限公司"},"geometry":{"type":"LineString","coordinates":[[121.741109,25.125361],[121.741003,25.125485],[121.740892,25.125604],[121.740792,25.125712],[121.74066,25.125823],[121.74054,25.125923],[121.740404,25.126017],[121.740126,25.126209],[121.73962,25.126515],[121.739577,25.126542],[121.739049,25.126862],[121.738795,25.127011],[121.738647,25.127097]]}},{"type":"Feature","id":"w34618538","properties":{"kind":"line","mode":"rail","name":"縱貫線西正線","name_en":null,"network":null,"operator":"國營臺灣鐵路股份有限公司"},"geometry":{"type":"LineString","coordinates":[[121.740128,25.113571],[121.740614,25.113802],[121.740894,25.113953],[121.741244,25.114188],[121.74142,25.114333],[121.741645,25.114544],[121.741832,25.114761],[121.741919,25.114862],[121.742043,25.115032],[121.742167,25.115232],[121.742296,25.11547],[121.742375,25.115632],[121.742457,25.115842],[121.742497,25.115969],[121.742568,25.116225],[121.742622,25.116524],[121.742656,25.116838],[121.742658,25.117088],[121.742656,25.117206],[121.742633,25.117452]]}},{"type":"Feature","id":"w369367000","properties":{"kind":"line","mode":"rail","name":"縱貫線西正線","name_en":null,"network":null,"operator":"國營臺灣鐵路股份有限公司"},"geometry":{"type":"LineString","coordinates":[[121.737468,25.129265],[121.737462,25.12944],[121.737467,25.129614],[121.737482,25.129789],[121.737506,25.129962],[121.737541,25.130134],[121.737586,25.130304],[121.737642,25.130475],[121.737708,25.130644],[121.737785,25.130809],[121.73787,25.13097],[121.737966,25.131126],[121.738046,25.131275]]}},{"type":"Feature","id":"w369367001","properties":{"kind":"line","mode":"rail","name":"縱貫線西正線","name_en":null,"network":null,"operator":"國營臺灣鐵路股份有限公司"},"geometry":{"type":"LineString","coordinates":[[121.738647,25.127097],[121.738516,25.127211],[121.738391,25.12733],[121.738272,25.127455],[121.73816,25.127585],[121.738054,25.127719],[121.737943,25.127874],[121.737842,25.128035],[121.73775,25.1282],[121.737668,25.128368],[121.7376,25.128543]]}},{"type":"Feature","id":"w369367002","properties":{"kind":"line","mode":"rail","name":"縱貫線東正線","name_en":null,"network":null,"operator":"國營臺灣鐵路股份有限公司"},"geometry":{"type":"LineString","coordinates":[[121.737528,25.129263],[121.737521,25.129417],[121.737522,25.129571],[121.737531,25.129724],[121.737548,25.129877],[121.737574,25.13003],[121.737607,25.130181],[121.737649,25.13033],[121.737661,25.130365],[121.737694,25.130464],[121.737745,25.130597],[121.737803,25.130727],[121.737866,25.130855],[121.737937,25.13098],[121.738013,25.131103],[121.738104,25.131244]]}},{"type":"Feature","id":"w369367003","properties":{"kind":"line","mode":"rail","name":"縱貫線東正線","name_en":null,"network":null,"operator":"國營臺灣鐵路股份有限公司"},"geometry":{"type":"LineString","coordinates":[[121.738691,25.127155],[121.73856,25.127258],[121.738435,25.127367],[121.738317,25.127482],[121.738206,25.127603],[121.738102,25.12773],[121.738006,25.127861],[121.737918,25.127996],[121.737842,25.128129],[121.737774,25.128264],[121.737714,25.128403],[121.737661,25.128544]]}},{"type":"Feature","id":"w525611070","properties":{"kind":"line","mode":"rail","name":"第二A月台停靠線","name_en":null,"network":null,"operator":"國營臺灣鐵路股份有限公司"},"geometry":{"type":"LineString","coordinates":[[121.739645,25.133717],[121.738472,25.131908],[121.738166,25.131456]]}},{"type":"Feature","id":"w532812719","properties":{"kind":"line","mode":"rail","name":"縱貫線西正線","name_en":null,"network":null,"operator":"國營臺灣鐵路股份有限公司"},"geometry":{"type":"LineString","coordinates":[[121.737512,25.128873],[121.73747,25.129086],[121.737467,25.129185],[121.737468,25.129265]]}},{"type":"Feature","id":"w532812720","properties":{"kind":"line","mode":"rail","name":"縱貫線東正線","name_en":null,"network":null,"operator":"國營臺灣鐵路股份有限公司"},"geometry":{"type":"LineString","coordinates":[[121.73758,25.128876],[121.737536,25.129093],[121.737528,25.129196],[121.737528,25.129263]]}},{"type":"Feature","id":"w532812721","properties":{"kind":"line","mode":"rail","name":"縱貫線西正線","name_en":null,"network":null,"operator":"國營臺灣鐵路股份有限公司"},"geometry":{"type":"LineString","coordinates":[[121.7376,25.128543],[121.737512,25.128873]]}},{"type":"Feature","id":"w532812722","properties":{"kind":"line","mode":"rail","name":"縱貫線東正線","name_en":null,"network":null,"operator":"國營臺灣鐵路股份有限公司"},"geometry":{"type":"LineString","coordinates":[[121.737661,25.128544],[121.73758,25.128876]]}},{"type":"Feature","id":"w532812723","properties":{"kind":"line","mode":"rail","name":"縱貫線西正線","name_en":null,"network":null,"operator":"國營臺灣鐵路股份有限公司"},"geometry":{"type":"LineString","coordinates":[[121.741795,25.12404],[121.741741,25.124221],[121.741676,25.124399],[121.741602,25.124574],[121.741518,25.124746],[121.741424,25.124913],[121.741321,25.125076],[121.741209,25.125234],[121.741109,25.125361]]}},{"type":"Feature","id":"w532812725","properties":{"kind":"line","mode":"rail","name":"縱貫線東正線","name_en":null,"network":null,"operator":"國營臺灣鐵路股份有限公司"},"geometry":{"type":"LineString","coordinates":[[121.74189,25.124056],[121.741834,25.124229],[121.74177,25.124403],[121.741696,25.124573],[121.741613,25.124741],[121.74152,25.124904],[121.74142,25.125063],[121.74131,25.125217],[121.741192,25.125366],[121.741066,25.12551],[121.740951,25.125629],[121.740836,25.125738],[121.740829,25.125743],[121.740703,25.125855],[121.740571,25.125961],[121.740435,25.126061],[121.739652,25.126557],[121.739607,25.126588],[121.739097,25.126913],[121.738836,25.127067],[121.738691,25.127155]]}},{"type":"Feature","id":"w532812726","properties":{"kind":"line","mode":"rail","name":"縱貫線東正線","name_en":null,"network":null,"operator":"國營臺灣鐵路股份有限公司"},"geometry":{"type":"LineString","coordinates":[[121.742744,25.117425],[121.742529,25.119225],[121.742357,25.120708]]}},{"type":"Feature","id":"w532812727","properties":{"kind":"line","mode":"rail","name":"縱貫線西正線","name_en":null,"network":null,"operator":"國營臺灣鐵路股份有限公司"},"geometry":{"type":"LineString","coordinates":[[121.742633,25.117452],[121.742413,25.119211],[121.742235,25.120693]]}},{"type":"Feature","id":"w533464245","properties":{"kind":"line","mode":"rail","name":"第一B月台停靠線","name_en":null,"network":null,"operator":"國營臺灣鐵路股份有限公司"},"geometry":{"type":"LineString","coordinates":[[121.738219,25.131427],[121.738512,25.131887],[121.739691,25.13369]]}},{"type":"Feature","id":"w533464251","properties":{"kind":"line","mode":"rail","name":"縱貫線西正線","name_en":null,"network":null,"operator":"國營臺灣鐵路股份有限公司"},"geometry":{"type":"LineString","coordinates":[[121.738046,25.131275],[121.738166,25.131456]]}},{"type":"Feature","id":"w533464253","properties":{"kind":"line","mode":"rail","name":"縱貫線東正線","name_en":null,"network":null,"operator":"國營臺灣鐵路股份有限公司"},"geometry":{"type":"LineString","coordinates":[[121.738104,25.131244],[121.738219,25.131427]]}},{"type":"Feature","id":"w538336151","properties":{"kind":"line","mode":"rail","name":"橫渡線","name_en":null,"network":null,"operator":null},"geometry":{"type":"LineString","coordinates":[[121.738795,25.127011],[121.738948,25.126961],[121.739097,25.126913]]}},{"type":"Feature","id":"w538336152","properties":{"kind":"line","mode":"rail","name":"橫渡線","name_en":null,"network":null,"operator":null},"geometry":{"type":"LineString","coordinates":[[121.738836,25.127067],[121.738948,25.126961],[121.739049,25.126862]]}}]}
