{"type":"FeatureCollection","name":"new-taipei transit","features":[{"type":"Feature","id":"n1320065245","properties":{"kind":"station","mode":"train","name":"浮洲","name_en":"Fuzhou","network":"臺鐵","operator":"國營臺灣鐵路股份有限公司"},"geometry":{"type":"Point","coordinates":[121.444762,25.004192]}},{"type":"Feature","id":"n2866559962","properties":{"kind":"station","mode":"subway","name":"新埔民生","name_en":"Xinpu Minsheng","network":"新北捷運","operator":"新北捷運公司"},"geometry":{"type":"Point","coordinates":[121.466666,25.026127]}},{"type":"Feature","id":"n2866570655","properties":{"kind":"station","mode":"subway","name":"板橋","name_en":"Banqiao","network":"新北捷運","operator":"新北捷運公司"},"geometry":{"type":"Point","coordinates":[121.464592,25.015187]}},{"type":"Feature","id":"n2866590585","properties":{"kind":"station","mode":"subway","name":"板新","name_en":"Banxin","network":"新北捷運","operator":"新北捷運公司"},"geometry":{"type":"Point","coordinates":[121.472418,25.014531]}},{"type":"Feature","id":"n3639530940","properties":{"kind":"station","mode":"subway","name":"亞東醫院","name_en":"Far Eastern Hospital","network":"臺北捷運","operator":"臺北大眾捷運股份有限公司"},"geometry":{"type":"Point","coordinates":[121.452363,24.997522]}},{"type":"Feature","id":"n3639530943","properties":{"kind":"station","mode":"subway","name":"府中","name_en":"Fuzhong","network":"臺北捷運","operator":"臺北大眾捷運股份有限公司"},"geometry":{"type":"Point","coordinates":[121.45928,25.00877]}},{"type":"Feature","id":"n3639530946","properties":{"kind":"station","mode":"subway","name":"新埔","name_en":"Xinpu","network":"臺北捷運","operator":"臺北大眾捷運股份有限公司"},"geometry":{"type":"Point","coordinates":[121.468306,25.02346]}},{"type":"Feature","id":"n3639530948","properties":{"kind":"station","mode":"subway","name":"板橋","name_en":"Banqiao","network":"臺北捷運","operator":"臺北大眾捷運股份有限公司"},"geometry":{"type":"Point","coordinates":[121.462992,25.014499]}},{"type":"Feature","id":"n3933530681","properties":{"kind":"station","mode":"train","name":"板橋","name_en":"Banqiao","network":"台灣高鐵","operator":"台灣高速鐵路股份有限公司"},"geometry":{"type":"Point","coordinates":[121.464262,25.013705]}},{"type":"Feature","id":"n4732262582","properties":{"kind":"station","mode":"train","name":"板橋","name_en":"Banqiao","network":"臺鐵","operator":"國營臺灣鐵路股份有限公司"},"geometry":{"type":"Point","coordinates":[121.464128,25.01381]}},{"type":"Feature","id":"n8976426706","properties":{"kind":"station","mode":"station","name":"新北板橋轉運站","name_en":null,"network":null,"operator":null},"geometry":{"type":"Point","coordinates":[121.464919,25.01535]}},{"type":"Feature","id":"w1061049434","properties":{"kind":"line","mode":"rail","name":null,"name_en":null,"network":null,"operator":null},"geometry":{"type":"LineString","coordinates":[[121.448135,25.003949],[121.449059,25.003853]]}},{"type":"Feature","id":"w1086336405","properties":{"kind":"line","mode":"subway","name":"儲車廠","name_en":null,"network":null,"operator":null},"geometry":{"type":"LineString","coordinates":[[121.470675,24.995966],[121.471388,24.994575],[121.470563,24.994237],[121.469875,24.995544],[121.469981,24.995683],[121.470675,24.995966]]}},{"type":"Feature","id":"w111449030","properties":{"kind":"line","mode":"rail","name":"縱貫線","name_en":"Western Trunk line","network":null,"operator":"國營臺灣鐵路股份有限公司"},"geometry":{"type":"LineString","coordinates":[[121.442511,25.00441],[121.443374,25.004316],[121.444769,25.004248],[121.446076,25.004183],[121.446681,25.004137],[121.447029,25.004117]]}},{"type":"Feature","id":"w111449035","properties":{"kind":"line","mode":"rail","name":"台灣高速鐵路","name_en":"Taiwan High Speed Rail","network":"台灣高鐵","operator":"台灣高速鐵路股份有限公司"},"geometry":{"type":"LineString","coordinates":[[121.447007,25.004011],[121.448135,25.003949],[121.451776,25.003748]]}},{"type":"Feature","id":"w111449037","properties":{"kind":"line","mode":"rail","name":"縱貫線","name_en":"Western Trunk line","network":null,"operator":"國營臺灣鐵路股份有限公司"},"geometry":{"type":"LineString","coordinates":[[121.452688,25.003818],[121.453072,25.003816],[121.453446,25.003825],[121.453848,25.003863],[121.45424,25.003941],[121.454674,25.004081],[121.455079,25.004242],[121.455609,25.00457],[121.456091,25.004953],[121.45666,25.005553],[121.456684,25.005583],[121.457882,25.006947],[121.459246,25.008486],[121.460698,25.010125],[121.462073,25.011735],[121.463251,25.013186],[121.463376,25.013339],[121.464023,25.01394],[121.465341,25.014972]]}},{"type":"Feature","id":"w1168339047","properties":{"kind":"line","mode":"subway","name":"LG08A莒光站","name_en":null,"network":null,"operator":null},"geometry":{"type":"LineString","coordinates":[[121.46962,24.994964],[121.469912,24.995078],[121.470561,24.993688],[121.470253,24.993566],[121.46962,24.994964]]}},{"type":"Feature","id":"w1247622884","properties":{"kind":"line","mode":"subway","name":"捷運板南線","name_en":"MRT Bannan Line","network":"台北捷運","operator":"臺北大眾捷運股份有限公司"},"geometry":{"type":"LineString","coordinates":[[121.454075,25.002457],[121.454426,25.003098],[121.455139,25.004482],[121.455286,25.004766],[121.455852,25.005377],[121.456517,25.006049],[121.458356,25.007885],[121.459259,25.008766],[121.459943,25.009404],[121.460044,25.009509],[121.460123,25.009603],[121.460209,25.009736],[121.460297,25.009921],[121.460358,25.010082],[121.460448,25.010375],[121.460889,25.011667]]}},{"type":"Feature","id":"w1247622885","properties":{"kind":"line","mode":"subway","name":"捷運板南線","name_en":"MRT Bannan Line","network":"台北捷運","operator":"臺北大眾捷運股份有限公司"},"geometry":{"type":"LineString","coordinates":[[121.454124,25.00244],[121.454463,25.003084],[121.4554,25.004698],[121.45594,25.005312],[121.456551,25.00598],[121.458361,25.007882],[121.459262,25.008765],[121.45995,25.009401],[121.46006,25.009494],[121.4602,25.009656],[121.460263,25.009754],[121.460344,25.009884],[121.460411,25.010034],[121.46053,25.010371],[121.460627,25.010667],[121.461004,25.011775],[121.461057,25.011889],[121.4611,25.011969],[121.461156,25.012068],[121.461208,25.012154],[121.461276,25.012255],[121.461404,25.012415],[121.461616,25.012642],[121.463064,25.014457],[121.463602,25.015163],[121.46374,25.015361],[121.463791,25.015447],[121.463868,25.015609],[121.463922,25.015729],[121.463969,25.015881],[121.464017,25.01609],[121.464068,25.016558],[121.464128,25.016986],[121.464192,25.017253],[121.464259,25.017512],[121.464315,25.017677],[121.464363,25.017804],[121.464421,25.017909],[121.464477,25.018011],[121.465159,25.018949],[121.46646,25.020538],[121.466621,25.020769],[121.467029,25.021305],[121.468006,25.022803],[121.468032,25.022844]]}},{"type":"Feature","id":"w1247622886","properties":{"kind":"line","mode":"subway","name":"捷運板南線","name_en":"MRT Bannan Line","network":"台北捷運","operator":"臺北大眾捷運股份有限公司"},"geometry":{"type":"LineString","coordinates":[[121.460889,25.011667],[121.460946,25.011821],[121.461024,25.012004],[121.461088,25.012123],[121.461148,25.012221],[121.461335,25.012484],[121.461487,25.01268],[121.462948,25.014529],[121.46349,25.015223],[121.463645,25.015404],[121.463718,25.015482],[121.463782,25.015609],[121.463849,25.015761],[121.463909,25.015972],[121.463933,25.016126],[121.463985,25.01653],[121.464035,25.016852],[121.464064,25.017029],[121.464101,25.017197],[121.464161,25.01742],[121.464212,25.017588],[121.464272,25.017733],[121.46434,25.017881],[121.464409,25.017999],[121.465126,25.018969],[121.466427,25.020559],[121.466588,25.020788],[121.466995,25.021324],[121.467399,25.022053],[121.467887,25.022932]]}},{"type":"Feature","id":"w1487904676","properties":{"kind":"line","mode":"subway","name":"捷運環狀線","name_en":"MRT Circular Line","network":"新北捷運","operator":"新北捷運公司"},"geometry":{"type":"LineString","coordinates":[[121.465269,25.01476],[121.465209,25.014796],[121.464546,25.015235]]}},{"type":"Feature","id":"w1487904677","properties":{"kind":"line","mode":"subway","name":"捷運環狀線","name_en":"MRT Circular Line","network":"新北捷運","operator":"新北捷運公司"},"geometry":{"type":"LineString","coordinates":[[121.465244,25.014727],[121.465183,25.014767],[121.464522,25.015201]]}},{"type":"Feature","id":"w194118014","properties":{"kind":"line","mode":"rail","name":"縱貫線","name_en":"West Coast Line","network":null,"operator":"國營臺灣鐵路股份有限公司"},"geometry":{"type":"LineString","coordinates":[[121.464477,25.014236],[121.465389,25.014904],[121.46587,25.015201],[121.466741,25.015617],[121.467885,25.016315],[121.469099,25.017127],[121.469564,25.01749],[121.474438,25.020896],[121.479592,25.024507],[121.479929,25.024757],[121.480286,25.025007],[121.480764,25.025367],[121.481183,25.025648],[121.481835,25.026025],[121.482499,25.026355],[121.483045,25.026559],[121.483279,25.026615],[121.483658,25.026674]]}},{"type":"Feature","id":"w194118026","properties":{"kind":"line","mode":"rail","name":"第二大嵙崁溪橋","name_en":null,"network":null,"operator":"國營臺灣鐵路股份有限公司"},"geometry":{"type":"LineString","coordinates":[[121.442296,25.004365],[121.440356,25.004641],[121.439708,25.004713],[121.43666,25.004893],[121.435894,25.004922],[121.435401,25.0049],[121.435044,25.004866],[121.434698,25.00482],[121.434333,25.004734],[121.43357,25.004502],[121.433294,25.004385],[121.43303,25.004241]]}},{"type":"Feature","id":"w194118027","properties":{"kind":"line","mode":"rail","name":"縱貫線","name_en":null,"network":null,"operator":"國營臺灣鐵路股份有限公司"},"geometry":{"type":"LineString","coordinates":[[121.452686,25.003773],[121.45233,25.003793]]}},{"type":"Feature","id":"w194118028","properties":{"kind":"line","mode":"rail","name":"縱貫線","name_en":"Western Trunk line","network":null,"operator":"國營臺灣鐵路股份有限公司"},"geometry":{"type":"LineString","coordinates":[[121.465341,25.014972],[121.465832,25.015244],[121.466704,25.015699],[121.467875,25.01636],[121.469081,25.017181],[121.469539,25.017532],[121.474432,25.020932],[121.476953,25.022698],[121.479574,25.024543],[121.479904,25.024785],[121.48026,25.025035],[121.48074,25.025395],[121.48116,25.025678],[121.481815,25.026056],[121.482481,25.026388],[121.483032,25.026593],[121.48327,25.02665],[121.483653,25.02671]]}},{"type":"Feature","id":"w194118034","properties":{"kind":"line","mode":"rail","name":"第二大嵙崁溪橋","name_en":null,"network":null,"operator":"國營臺灣鐵路股份有限公司"},"geometry":{"type":"LineString","coordinates":[[121.433015,25.004292],[121.433274,25.004429],[121.433554,25.004546],[121.433956,25.00469],[121.434372,25.004822],[121.43503,25.004949],[121.435375,25.004979],[121.435887,25.004991],[121.436669,25.004959],[121.43896,25.004829],[121.439469,25.004797],[121.440332,25.004708],[121.442511,25.00441]]}},{"type":"Feature","id":"w194118035","properties":{"kind":"line","mode":"rail","name":"縱貫線","name_en":"West Coast Line","network":null,"operator":"國營臺灣鐵路股份有限公司"},"geometry":{"type":"LineString","coordinates":[[121.452686,25.003773],[121.452877,25.003765],[121.453073,25.003766],[121.453173,25.003767],[121.453436,25.003776],[121.453854,25.003817],[121.454245,25.00389],[121.454673,25.004028],[121.455077,25.004182],[121.455627,25.004512],[121.456084,25.004897],[121.456669,25.005513],[121.456687,25.005533],[121.460717,25.01007],[121.462109,25.011673],[121.46343,25.013299],[121.464063,25.013895],[121.464477,25.014236]]}},{"type":"Feature","id":"w198159379","properties":{"kind":"line","mode":"subway","name":"捷運環狀線","name_en":"MRT Circular Line","network":"新北捷運","operator":"新北捷運公司"},"geometry":{"type":"LineString","coordinates":[[121.475819,25.012394],[121.472895,25.014245],[121.472432,25.014536],[121.471879,25.014888],[121.471521,25.015093],[121.471384,25.015168],[121.471254,25.015232],[121.471089,25.015307],[121.470919,25.015375],[121.47071,25.015449],[121.46933,25.015881],[121.469111,25.015929],[121.468938,25.015959],[121.468766,25.015976],[121.468638,25.015984],[121.468487,25.015987],[121.467663,25.015956],[121.467538,25.01594],[121.467413,25.01591],[121.467308,25.015872],[121.467208,25.015823],[121.467113,25.015764],[121.465787,25.014781],[121.465712,25.014743]]}},{"type":"Feature","id":"w198199185","properties":{"kind":"line","mode":"subway","name":"捷運板南線","name_en":"MRT Bannan Line","network":"台北捷運","operator":"臺北大眾捷運股份有限公司"},"geometry":{"type":"LineString","coordinates":[[121.434991,24.966034],[121.436221,24.966938],[121.437564,24.967936],[121.438702,24.968661],[121.439094,24.968837],[121.440676,24.969517],[121.441275,24.969772],[121.441742,24.97003],[121.442068,24.970281],[121.442448,24.97071],[121.442786,24.971241],[121.443162,24.971864],[121.443554,24.972339],[121.444346,24.973201],[121.445426,24.974348],[121.446737,24.97558],[121.447059,24.975977],[121.447287,24.976299],[121.447499,24.97664],[121.447621,24.976871],[121.447634,24.976899],[121.447798,24.977237],[121.44801,24.977822],[121.448179,24.978498],[121.448359,24.97955],[121.448531,24.980585],[121.448569,24.980895],[121.448565,24.981142],[121.448549,24.981415],[121.448507,24.981739],[121.448397,24.982396],[121.448386,24.982538],[121.448365,24.98279],[121.448376,24.983165],[121.44849,24.983858],[121.448768,24.985705],[121.44879,24.985847],[121.448834,24.986114],[121.448876,24.986379],[121.448922,24.986743],[121.448989,24.9871],[121.44893,24.987571],[121.448839,24.988104],[121.44855,24.989721],[121.448355,24.990824],[121.448337,24.991148],[121.448377,24.991456],[121.44846,24.991744],[121.448528,24.991902],[121.448606,24.992037],[121.448795,24.992303],[121.448996,24.992509],[121.449364,24.992828],[121.449606,24.993045],[121.450185,24.993562],[121.450664,24.993979],[121.450923,24.994254],[121.451064,24.994494],[121.451643,24.995732],[121.45178,24.996039],[121.452085,24.996939],[121.452271,24.99768],[121.453158,25.000405],[121.453616,25.001334],[121.45378,25.0018],[121.454075,25.002457]]}},{"type":"Feature","id":"w198199189","properties":{"kind":"line","mode":"subway","name":"捷運板南線","name_en":"MRT Bannan Line","network":"台北捷運","operator":"臺北大眾捷運股份有限公司"},"geometry":{"type":"LineString","coordinates":[[121.467887,25.022932],[121.468192,25.02346],[121.4684,25.023831],[121.46853,25.024062],[121.470731,25.027914],[121.47129,25.028843],[121.472705,25.030466],[121.473225,25.031017],[121.475765,25.033828],[121.476925,25.035053],[121.477184,25.035305],[121.477524,25.035565],[121.477848,25.03577],[121.478296,25.035978]]}},{"type":"Feature","id":"w198199191","properties":{"kind":"line","mode":"subway","name":"捷運板南線","name_en":"MRT Bannan Line","network":"台北捷運","operator":"臺北大眾捷運股份有限公司"},"geometry":{"type":"LineString","coordinates":[[121.468032,25.022844],[121.46804,25.022858],[121.468325,25.023364],[121.46854,25.023742],[121.468637,25.023912],[121.470844,25.027858],[121.471462,25.028738],[121.472848,25.030379],[121.473356,25.030934],[121.475796,25.033806],[121.476953,25.035027],[121.477209,25.035277],[121.477548,25.035536],[121.477866,25.035738],[121.478309,25.035944]]}},{"type":"Feature","id":"w198281410","properties":{"kind":"line","mode":"subway","name":"捷運板南線","name_en":"MRT Bannan Line","network":"台北捷運","operator":"臺北大眾捷運股份有限公司"},"geometry":{"type":"LineString","coordinates":[[121.435086,24.965898],[121.436319,24.966811],[121.437718,24.967845],[121.438755,24.968629],[121.439121,24.968818],[121.440695,24.969494],[121.441305,24.969753],[121.441773,24.970016],[121.442083,24.970255],[121.442475,24.970694],[121.442961,24.971491],[121.443203,24.971874],[121.443277,24.971964],[121.443645,24.972257],[121.444435,24.973126],[121.445514,24.974262],[121.446682,24.975463],[121.447064,24.975917],[121.447319,24.976275],[121.447522,24.976614],[121.447828,24.977224],[121.448048,24.97782],[121.448217,24.978488],[121.448398,24.979582],[121.448577,24.980621],[121.448603,24.980888],[121.448607,24.98117],[121.448583,24.981422],[121.448539,24.981749],[121.448435,24.982393],[121.448423,24.982523],[121.448401,24.982776],[121.44841,24.983159],[121.448525,24.983856],[121.448892,24.985701],[121.448921,24.98586],[121.449009,24.98637],[121.449059,24.986724],[121.449026,24.987095],[121.448961,24.987602],[121.448866,24.988126],[121.448579,24.989728],[121.448421,24.990629],[121.448387,24.990847],[121.448368,24.991161],[121.448392,24.99131],[121.448407,24.991465],[121.448495,24.99173],[121.44855,24.991864],[121.448635,24.992023],[121.448864,24.992253],[121.449142,24.99247],[121.449699,24.992968],[121.450768,24.99391],[121.451025,24.994202],[121.451175,24.994455],[121.451741,24.995697],[121.451827,24.99589],[121.452401,24.997656],[121.453285,25.000354],[121.453654,25.001323],[121.453817,25.001787],[121.454124,25.00244]]}},{"type":"Feature","id":"w199771905","properties":{"kind":"line","mode":"rail","name":"台灣高速鐵路","name_en":"Taiwan High Speed Rail","network":"台灣高鐵","operator":"台灣高速鐵路股份有限公司"},"geometry":{"type":"LineString","coordinates":[[121.45269,25.003654],[121.45232,25.00367]]}},{"type":"Feature","id":"w199771906","properties":{"kind":"line","mode":"rail","name":"台灣高速鐵路","name_en":"Taiwan High Speed Rail","network":"台灣高鐵","operator":"台灣高速鐵路股份有限公司"},"geometry":{"type":"LineString","coordinates":[[121.452692,25.003697],[121.453057,25.003706],[121.453524,25.003734],[121.453956,25.003789],[121.454456,25.003893],[121.454818,25.004002],[121.455175,25.004169],[121.455642,25.004436],[121.455956,25.004678],[121.456371,25.005089],[121.456575,25.005327],[121.458386,25.007376],[121.459621,25.00877],[121.460888,25.010171],[121.461079,25.010383]]}},{"type":"Feature","id":"w199771907","properties":{"kind":"line","mode":"rail","name":"台灣高速鐵路","name_en":"Taiwan High Speed Rail","network":"台灣高鐵","operator":"台灣高速鐵路股份有限公司"},"geometry":{"type":"LineString","coordinates":[[121.461032,25.010246],[121.45966,25.008715],[121.458424,25.007316],[121.457999,25.006835],[121.456593,25.005279],[121.456389,25.00504],[121.455973,25.004628],[121.455657,25.004385],[121.455189,25.004118],[121.454831,25.003949],[121.454467,25.00384],[121.453965,25.003736],[121.453532,25.003681],[121.453063,25.003653],[121.45269,25.003654]]}},{"type":"Feature","id":"w199771908","properties":{"kind":"line","mode":"rail","name":"台灣高速鐵路","name_en":"Taiwan High Speed Rail","network":"台灣高鐵","operator":"台灣高速鐵路股份有限公司"},"geometry":{"type":"LineString","coordinates":[[121.490085,25.027713],[121.489846,25.027599],[121.489636,25.027499],[121.489422,25.027417],[121.489204,25.027341],[121.488983,25.027271],[121.488737,25.027203],[121.48849,25.027151],[121.488191,25.027092],[121.485039,25.026612],[121.483838,25.026433],[121.483634,25.026398],[121.483403,25.026349],[121.48313,25.02629],[121.482841,25.026217],[121.482577,25.026134],[121.482319,25.026049],[121.482019,25.025935],[121.481735,25.02581],[121.481503,25.025706],[121.481317,25.025609],[121.481072,25.025474],[121.48084,25.025335],[121.477847,25.023179],[121.476099,25.021924],[121.475207,25.021289],[121.474272,25.020696],[121.471935,25.019045],[121.470777,25.018212],[121.470184,25.017824],[121.469589,25.017395],[121.469156,25.017083],[121.467795,25.01611],[121.467508,25.015921],[121.467163,25.015704]]}},{"type":"Feature","id":"w199771909","properties":{"kind":"line","mode":"rail","name":"台灣高速鐵路","name_en":"Taiwan High Speed Rail","network":"台灣高鐵","operator":"台灣高速鐵路股份有限公司"},"geometry":{"type":"LineString","coordinates":[[121.466212,25.015042],[121.465788,25.014753],[121.464487,25.013849],[121.464114,25.013547],[121.462965,25.012397],[121.462783,25.012213],[121.462733,25.012157]]}},{"type":"Feature","id":"w199771910","properties":{"kind":"line","mode":"rail","name":"台灣高速鐵路","name_en":"Taiwan High Speed Rail","network":"台灣高鐵","operator":"台灣高速鐵路股份有限公司"},"geometry":{"type":"LineString","coordinates":[[121.466156,25.01512],[121.466763,25.015541],[121.467314,25.015891],[121.467648,25.016098],[121.467966,25.016298],[121.469131,25.017116],[121.469563,25.017428],[121.470159,25.017858],[121.470752,25.018245],[121.47191,25.019078],[121.474246,25.020729],[121.475181,25.021322],[121.476073,25.021957],[121.477821,25.023212],[121.480815,25.025368],[121.481048,25.025508],[121.481294,25.025644],[121.481482,25.025742],[121.481716,25.025846],[121.482001,25.025972],[121.482303,25.026087],[121.482562,25.026172],[121.482827,25.026256],[121.483119,25.026329],[121.483393,25.026388],[121.483625,25.026437],[121.48383,25.026473],[121.485032,25.026651],[121.48818,25.02714],[121.48848,25.027199],[121.488727,25.027251],[121.488972,25.027319],[121.489189,25.027388],[121.489403,25.027464],[121.489614,25.027546],[121.489822,25.027636],[121.490062,25.027748]]}},{"type":"Feature","id":"w209146698","properties":{"kind":"line","mode":"subway","name":"捷運環狀線","name_en":"MRT Circular Line","network":"新北捷運","operator":"新北捷運公司"},"geometry":{"type":"LineString","coordinates":[[121.465739,25.014706],[121.465818,25.01475],[121.46714,25.015731],[121.467236,25.01579],[121.467333,25.015837],[121.467433,25.015873],[121.467555,25.015904],[121.467667,25.015917],[121.468489,25.01596],[121.468636,25.015957],[121.468767,25.015952],[121.468936,25.01593],[121.469101,25.015906],[121.46932,25.015851],[121.470694,25.01542],[121.470909,25.015339],[121.471073,25.01527],[121.471238,25.015194],[121.471359,25.015134],[121.471491,25.015063],[121.471855,25.014855],[121.472412,25.014512],[121.47288,25.014224],[121.475805,25.012377]]}},{"type":"Feature","id":"w317259540","properties":{"kind":"line","mode":"rail","name":"台灣高速鐵路","name_en":"Taiwan High Speed Rail","network":"台灣高鐵","operator":"台灣高速鐵路股份有限公司"},"geometry":{"type":"LineString","coordinates":[[121.447006,25.003965],[121.446493,25.003986],[121.445215,25.004041],[121.44425,25.004074],[121.443876,25.004099],[121.443223,25.00414],[121.442211,25.004253],[121.440468,25.004452],[121.439623,25.004518]]}},{"type":"Feature","id":"w317259541","properties":{"kind":"line","mode":"rail","name":"縱貫線","name_en":"Western Trunk line","network":null,"operator":"國營臺灣鐵路股份有限公司"},"geometry":{"type":"LineString","coordinates":[[121.447029,25.004117],[121.451788,25.003866]]}},{"type":"Feature","id":"w317259542","properties":{"kind":"line","mode":"rail","name":"縱貫線","name_en":"West Coast Line","network":null,"operator":"國營臺灣鐵路股份有限公司"},"geometry":{"type":"LineString","coordinates":[[121.447023,25.004077],[121.44476,25.004165],[121.443308,25.004251],[121.442296,25.004365]]}},{"type":"Feature","id":"w317259543","properties":{"kind":"line","mode":"rail","name":"台灣高速鐵路","name_en":"Taiwan High Speed Rail","network":"台灣高鐵","operator":"台灣高速鐵路股份有限公司"},"geometry":{"type":"LineString","coordinates":[[121.439633,25.004557],[121.440476,25.004497],[121.442218,25.004288],[121.44323,25.004189],[121.443879,25.004141],[121.444258,25.004124],[121.445229,25.004088],[121.446499,25.004031],[121.447007,25.004011]]}},{"type":"Feature","id":"w492239303","properties":{"kind":"line","mode":"subway","name":"捷運環狀線","name_en":"MRT Circular Line","network":"新北捷運","operator":"新北捷運公司"},"geometry":{"type":"LineString","coordinates":[[121.477104,25.011691],[121.476776,25.011858],[121.476456,25.01203],[121.476135,25.012209],[121.475819,25.012394]]}},{"type":"Feature","id":"w492239305","properties":{"kind":"line","mode":"subway","name":"捷運環狀線","name_en":"MRT Circular Line","network":"新北捷運","operator":"新北捷運公司"},"geometry":{"type":"LineString","coordinates":[[121.475805,25.012377],[121.476117,25.012189],[121.476444,25.012004],[121.476762,25.011832],[121.477084,25.011667]]}},{"type":"Feature","id":"w492239307","properties":{"kind":"line","mode":"subway","name":"捷運環狀線","name_en":"MRT Circular Line","network":"新北捷運","operator":"新北捷運公司"},"geometry":{"type":"LineString","coordinates":[[121.477084,25.011667],[121.477618,25.011409],[121.477992,25.011224],[121.478521,25.010971],[121.478829,25.010839],[121.479106,25.010712],[121.479399,25.010568],[121.480252,25.010147],[121.48051,25.010016],[121.480723,25.009901],[121.480939,25.009779],[121.481494,25.009492],[121.481936,25.009276]]}},{"type":"Feature","id":"w548088155","properties":{"kind":"line","mode":"subway","name":"捷運環狀線","name_en":"MRT Circular Line","network":"新北捷運","operator":"新北捷運公司"},"geometry":{"type":"LineString","coordinates":[[121.46757,25.022945],[121.467512,25.023573],[121.467469,25.024141],[121.467454,25.024268],[121.467435,25.02438],[121.467397,25.024494],[121.467342,25.024683]]}},{"type":"Feature","id":"w548088156","properties":{"kind":"line","mode":"subway","name":"捷運環狀線","name_en":"MRT Circular Line","network":"新北捷運","operator":"新北捷運公司"},"geometry":{"type":"LineString","coordinates":[[121.467618,25.022951],[121.467517,25.024146],[121.467501,25.024271],[121.467478,25.024389],[121.467448,25.024502],[121.467394,25.024695]]}},{"type":"Feature","id":"w593874817","properties":{"kind":"line","mode":"rail","name":"高速鐵路","name_en":"Taiwan High Speed Rail","network":"台灣高鐵","operator":"台灣高速鐵路股份有限公司"},"geometry":{"type":"LineString","coordinates":[[121.461149,25.010381],[121.460888,25.010171]]}},{"type":"Feature","id":"w593874818","properties":{"kind":"line","mode":"rail","name":"高速鐵路","name_en":"Taiwan High Speed Rail","network":"台灣高鐵","operator":"台灣高速鐵路股份有限公司"},"geometry":{"type":"LineString","coordinates":[[121.461375,25.010736],[121.461268,25.010511]]}},{"type":"Feature","id":"w663747205","properties":{"kind":"line","mode":"subway","name":"捷運環狀線","name_en":"MRT Circular Line","network":"新北捷運","operator":"新北捷運公司"},"geometry":{"type":"LineString","coordinates":[[121.467394,25.024695],[121.466963,25.025585],[121.466743,25.026022],[121.466666,25.026177],[121.465276,25.028959],[121.463808,25.031799],[121.463658,25.032152],[121.463579,25.032377],[121.463488,25.032646],[121.463377,25.032983],[121.463281,25.033209],[121.462961,25.033995],[121.461959,25.036496],[121.461735,25.036938],[121.461492,25.037365],[121.460925,25.038251],[121.460771,25.03857],[121.460705,25.038741],[121.460644,25.038911],[121.460336,25.039901],[121.460322,25.039944],[121.460242,25.0402],[121.460211,25.040311],[121.460192,25.040398],[121.460178,25.040484],[121.460165,25.040612],[121.460122,25.041012],[121.460084,25.042723],[121.460037,25.044436],[121.460014,25.047106],[121.459991,25.049593]]}},{"type":"Feature","id":"w663747207","properties":{"kind":"line","mode":"subway","name":"捷運環狀線","name_en":"MRT Circular Line","network":"新北捷運","operator":"新北捷運公司"},"geometry":{"type":"LineString","coordinates":[[121.467342,25.024683],[121.466924,25.025564],[121.466629,25.026159],[121.46608,25.027265],[121.465952,25.027504],[121.465778,25.027837],[121.465698,25.027993],[121.465623,25.028141],[121.465539,25.028305],[121.465438,25.028472],[121.465377,25.028544],[121.465304,25.028641],[121.465241,25.028738],[121.465158,25.028834],[121.465086,25.028932],[121.465017,25.029037],[121.464939,25.029221],[121.464828,25.029504],[121.463898,25.031359],[121.463741,25.031677],[121.463672,25.031854],[121.463621,25.031997],[121.463562,25.032163],[121.463513,25.032338],[121.463398,25.032766],[121.463329,25.032968],[121.463233,25.033197],[121.462913,25.033972],[121.461904,25.036485],[121.461779,25.036738],[121.461646,25.036999],[121.46144,25.037357],[121.460897,25.038226],[121.46083,25.038358],[121.460755,25.038528],[121.460672,25.038735],[121.46061,25.038903],[121.460301,25.039896],[121.460286,25.039945],[121.460208,25.04019],[121.460175,25.040302],[121.460155,25.040391],[121.46014,25.04048],[121.460127,25.040608],[121.460084,25.041011],[121.460043,25.042723],[121.460005,25.044436],[121.459981,25.047107],[121.459957,25.049593]]}},{"type":"Feature","id":"w706686404","properties":{"kind":"line","mode":"rail","name":"台灣高速鐵路","name_en":"Taiwan High Speed Rail","network":"台灣高鐵","operator":"台灣高速鐵路股份有限公司"},"geometry":{"type":"LineString","coordinates":[[121.467163,25.015704],[121.466212,25.015042]]}},{"type":"Feature","id":"w706686405","properties":{"kind":"line","mode":"rail","name":"台灣高速鐵路","name_en":"Taiwan High Speed Rail","network":"台灣高鐵","operator":"台灣高速鐵路股份有限公司"},"geometry":{"type":"LineString","coordinates":[[121.462675,25.012201],[121.462744,25.012279],[121.462919,25.012458],[121.46404,25.013598],[121.464452,25.013939],[121.465878,25.014929],[121.465945,25.014974],[121.466156,25.01512]]}},{"type":"Feature","id":"w706686406","properties":{"kind":"line","mode":"rail","name":"台灣高速鐵路","name_en":"Taiwan High Speed Rail","network":"台灣高鐵","operator":"台灣高速鐵路股份有限公司"},"geometry":{"type":"LineString","coordinates":[[121.461079,25.010383],[121.461362,25.010721],[121.461375,25.010736],[121.462675,25.012201]]}},{"type":"Feature","id":"w706686407","properties":{"kind":"line","mode":"rail","name":"台灣高速鐵路","name_en":"Taiwan High Speed Rail","network":"台灣高鐵","operator":"台灣高速鐵路股份有限公司"},"geometry":{"type":"LineString","coordinates":[[121.462733,25.012157],[121.461268,25.010511],[121.461149,25.010381],[121.461032,25.010246]]}},{"type":"Feature","id":"w712373727","properties":{"kind":"line","mode":"rail","name":"台灣高速鐵路","name_en":"Taiwan High Speed Rail","network":"台灣高鐵","operator":"台灣高速鐵路股份有限公司"},"geometry":{"type":"LineString","coordinates":[[121.452321,25.003713],[121.452692,25.003697]]}},{"type":"Feature","id":"w712373728","properties":{"kind":"line","mode":"rail","name":"縱貫線","name_en":"Western Trunk line","network":null,"operator":"國營臺灣鐵路股份有限公司"},"geometry":{"type":"LineString","coordinates":[[121.45233,25.003793],[121.451784,25.003823]]}},{"type":"Feature","id":"w712373729","properties":{"kind":"line","mode":"rail","name":"台灣高速鐵路","name_en":"Taiwan High Speed Rail","network":"台灣高鐵","operator":"台灣高速鐵路股份有限公司"},"geometry":{"type":"LineString","coordinates":[[121.45232,25.00367],[121.451771,25.003705]]}},{"type":"Feature","id":"w712373730","properties":{"kind":"line","mode":"rail","name":"縱貫線","name_en":null,"network":null,"operator":"國營臺灣鐵路股份有限公司"},"geometry":{"type":"LineString","coordinates":[[121.452331,25.003837],[121.452688,25.003818]]}},{"type":"Feature","id":"w741259910","properties":{"kind":"line","mode":"subway","name":"捷運環狀線","name_en":"MRT Circular Line","network":"新北捷運","operator":"新北捷運公司"},"geometry":{"type":"LineString","coordinates":[[121.465244,25.014727],[121.465318,25.014692],[121.465375,25.014675],[121.465444,25.014662],[121.465507,25.014658],[121.465566,25.01466],[121.465632,25.01467],[121.465688,25.014686],[121.465739,25.014706]]}},{"type":"Feature","id":"w741259911","properties":{"kind":"line","mode":"subway","name":"捷運環狀線","name_en":"MRT Circular Line","network":"新北捷運","operator":"新北捷運公司"},"geometry":{"type":"LineString","coordinates":[[121.465712,25.014743],[121.465665,25.014726],[121.465615,25.014713],[121.465565,25.014705],[121.46551,25.014702],[121.46545,25.014706],[121.46539,25.014716],[121.465331,25.014733],[121.465269,25.01476]]}},{"type":"Feature","id":"w741259912","properties":{"kind":"line","mode":"subway","name":"捷運環狀線","name_en":"MRT Circular Line","network":"新北捷運","operator":"新北捷運公司"},"geometry":{"type":"LineString","coordinates":[[121.464522,25.015201],[121.463433,25.015944],[121.463355,25.016003],[121.463292,25.016063]]}},{"type":"Feature","id":"w741259913","properties":{"kind":"line","mode":"subway","name":"捷運環狀線","name_en":"MRT Circular Line","network":"新北捷運","operator":"新北捷運公司"},"geometry":{"type":"LineString","coordinates":[[121.464546,25.015235],[121.463458,25.015973],[121.463388,25.016023],[121.463331,25.016081]]}},{"type":"Feature","id":"w741259914","properties":{"kind":"line","mode":"subway","name":"捷運環狀線","name_en":"MRT Circular Line","network":"新北捷運","operator":"新北捷運公司"},"geometry":{"type":"LineString","coordinates":[[121.463356,25.016683],[121.463288,25.016602],[121.463241,25.016535],[121.463212,25.016471],[121.463195,25.016409],[121.463188,25.016343],[121.463194,25.016263],[121.463207,25.016213],[121.463227,25.016162],[121.463256,25.01611],[121.463292,25.016063]]}},{"type":"Feature","id":"w741259915","properties":{"kind":"line","mode":"subway","name":"捷運環狀線","name_en":"MRT Circular Line","network":"新北捷運","operator":"新北捷運公司"},"geometry":{"type":"LineString","coordinates":[[121.463331,25.016081],[121.463277,25.016168],[121.46325,25.016247],[121.463241,25.016316],[121.463247,25.016399],[121.463276,25.01649],[121.463321,25.016566],[121.463393,25.016663]]}},{"type":"Feature","id":"w741259916","properties":{"kind":"line","mode":"subway","name":"捷運環狀線","name_en":"MRT Circular Line","network":"新北捷運","operator":"新北捷運公司"},"geometry":{"type":"LineString","coordinates":[[121.463393,25.016663],[121.466447,25.020419],[121.466625,25.020648],[121.46674,25.02081],[121.466846,25.020964],[121.467073,25.021309],[121.467313,25.021697],[121.467371,25.021792],[121.467418,25.021883],[121.46746,25.021973],[121.467492,25.022053],[121.467521,25.022132],[121.467546,25.022212],[121.467567,25.022288],[121.467583,25.022359],[121.467598,25.022437],[121.467607,25.022497],[121.467617,25.022577],[121.467623,25.022656],[121.467626,25.022791],[121.467618,25.022951]]}},{"type":"Feature","id":"w741259917","properties":{"kind":"line","mode":"subway","name":"捷運環狀線","name_en":"MRT Circular Line","network":"新北捷運","operator":"新北捷運公司"},"geometry":{"type":"LineString","coordinates":[[121.463356,25.016683],[121.466407,25.020439],[121.466574,25.020668],[121.46669,25.02083],[121.466799,25.020987],[121.467028,25.021327],[121.467275,25.021709],[121.467332,25.021807],[121.467378,25.021898],[121.467419,25.021986],[121.467448,25.022059],[121.467477,25.022138],[121.467503,25.022223],[121.467522,25.022294],[121.467538,25.022364],[121.467551,25.022433],[121.467561,25.0225],[121.46757,25.022575],[121.467576,25.022654],[121.467579,25.022793],[121.46757,25.022945]]}},{"type":"Feature","id":"w767908306","properties":{"kind":"line","mode":"subway","name":"捷運環狀線","name_en":"MRT Circular Line","network":"新北捷運","operator":"新北捷運公司"},"geometry":{"type":"LineString","coordinates":[[121.481937,25.00928],[121.481499,25.009499],[121.48123,25.009646],[121.481029,25.009761],[121.480876,25.009853],[121.480722,25.009942],[121.480528,25.010047],[121.480272,25.010181],[121.479417,25.010606],[121.479124,25.010749],[121.478848,25.010877],[121.478543,25.011007],[121.47801,25.01125],[121.477634,25.011436],[121.477104,25.011691]]}},{"type":"Feature","id":"w966445954","properties":{"kind":"line","mode":"rail","name":"台灣高速鐵路","name_en":"Taiwan High Speed Rail","network":"台灣高鐵","operator":"台灣高速鐵路股份有限公司"},"geometry":{"type":"LineString","coordinates":[[121.451771,25.003705],[121.449059,25.003853],[121.447006,25.003965]]}},{"type":"Feature","id":"w966445955","properties":{"kind":"line","mode":"rail","name":"台灣高速鐵路","name_en":"Taiwan High Speed Rail","network":"台灣高鐵","operator":"台灣高速鐵路股份有限公司"},"geometry":{"type":"LineString","coordinates":[[121.451776,25.003748],[121.452321,25.003713]]}},{"type":"Feature","id":"w966445956","properties":{"kind":"line","mode":"rail","name":"縱貫線","name_en":"Western Trunk line","network":null,"operator":"國營臺灣鐵路股份有限公司"},"geometry":{"type":"LineString","coordinates":[[121.451784,25.003823],[121.447023,25.004077]]}},{"type":"Feature","id":"w966445957","properties":{"kind":"line","mode":"rail","name":"縱貫線","name_en":"Western Trunk line","network":null,"operator":"國營臺灣鐵路股份有限公司"},"geometry":{"type":"LineString","coordinates":[[121.451788,25.003866],[121.452331,25.003837]]}}]}
