{"type":"FeatureCollection","name":"taichung transit","features":[{"type":"Feature","id":"n12819660782","properties":{"kind":"station","mode":"station","name":"國光客運臺中車站","name_en":null,"network":null,"operator":null},"geometry":{"type":"Point","coordinates":[120.685648,24.141035]}},{"type":"Feature","id":"n2536535400","properties":{"kind":"station","mode":"station","name":"國光客運","name_en":null,"network":null,"operator":null},"geometry":{"type":"Point","coordinates":[120.670562,24.150515]}},{"type":"Feature","id":"n4399076119","properties":{"kind":"station","mode":"train","name":"精武","name_en":"Jingwu","network":"臺鐵","operator":"國營臺灣鐵路股份有限公司"},"geometry":{"type":"Point","coordinates":[120.697801,24.149326]}},{"type":"Feature","id":"n4449245395","properties":{"kind":"station","mode":"train","name":"臺中","name_en":"Taichung","network":"臺鐵","operator":"國營臺灣鐵路股份有限公司"},"geometry":{"type":"Point","coordinates":[120.686867,24.137066]}},{"type":"Feature","id":"n4644145556","properties":{"kind":"station","mode":"station","name":"總達客運台中站","name_en":null,"network":null,"operator":"總達客運"},"geometry":{"type":"Point","coordinates":[120.685613,24.140544]}},{"type":"Feature","id":"n5031349922","properties":{"kind":"station","mode":"station","name":"干城站","name_en":null,"network":null,"operator":null},"geometry":{"type":"Point","coordinates":[120.685558,24.142069]}},{"type":"Feature","id":"n8829707198","properties":{"kind":"station","mode":"station","name":"中山站","name_en":null,"network":null,"operator":"統聯客運"},"geometry":{"type":"Point","coordinates":[120.670015,24.149281]}},{"type":"Feature","id":"w442204146","properties":{"kind":"line","mode":"rail","name":"臺中線","name_en":"Taichung Line","network":null,"operator":"國營臺灣鐵路股份有限公司"},"geometry":{"type":"LineString","coordinates":[[120.689362,24.138245],[120.689656,24.138399],[120.690291,24.138708],[120.691223,24.139108],[120.692527,24.13967],[120.693612,24.140111],[120.693831,24.140206],[120.694045,24.140309],[120.694258,24.140426],[120.69446,24.140544],[120.694655,24.140664],[120.694849,24.140802],[120.695044,24.140947],[120.695226,24.141091],[120.695401,24.141244],[120.695549,24.141416],[120.69571,24.141581],[120.695863,24.141752],[120.696008,24.141929],[120.696146,24.14211],[120.696275,24.142297],[120.696397,24.142488],[120.696509,24.142684],[120.696613,24.142883],[120.696708,24.143086],[120.696795,24.143293],[120.696872,24.143502],[120.696939,24.143714],[120.696998,24.143928],[120.697047,24.144144],[120.6971,24.1444],[120.697136,24.144671],[120.697223,24.145311],[120.697759,24.149281],[120.697871,24.150113],[120.699531,24.16212],[120.699548,24.162284],[120.699838,24.164402],[120.700114,24.166427],[120.700411,24.168669],[120.701989,24.180184],[120.702176,24.181555],[120.702255,24.182299],[120.702558,24.184493],[120.702619,24.185031],[120.702696,24.185876],[120.702746,24.186395],[120.702762,24.186703],[120.702796,24.187018],[120.703132,24.189478],[120.703324,24.190854],[120.703775,24.194103],[120.70396,24.195343],[120.704228,24.19745],[120.704619,24.200317],[120.704868,24.202153],[120.704894,24.202354],[120.704994,24.203194],[120.705126,24.204577],[120.705359,24.207077],[120.70544,24.207985],[120.705496,24.208627],[120.705528,24.208967],[120.705589,24.20955],[120.705633,24.21005],[120.705784,24.211624],[120.705863,24.212573],[120.706091,24.215036],[120.706202,24.216195],[120.706233,24.216527],[120.706495,24.219334],[120.706551,24.219797],[120.706591,24.220074],[120.706639,24.220349],[120.706691,24.220607],[120.706749,24.220864],[120.708386,24.227629],[120.709243,24.230977],[120.709344,24.231332],[120.709456,24.231689],[120.70958,24.232049],[120.709692,24.232354],[120.709932,24.232948],[120.710595,24.234601],[120.71089,24.235355],[120.711965,24.238052],[120.712803,24.24014],[120.71302,24.240661],[120.713214,24.241061],[120.713415,24.241433],[120.713618,24.241768],[120.713881,24.24216],[120.714099,24.242454],[120.714372,24.242792],[120.714707,24.243168],[120.715039,24.243512],[120.720171,24.248842],[120.720543,24.249245],[120.720742,24.249486],[120.720895,24.249683],[120.721057,24.249911],[120.721207,24.250136],[120.721377,24.250412],[120.721531,24.25068],[120.721684,24.250959],[120.721807,24.251179],[120.722119,24.25174]]}},{"type":"Feature","id":"w442204147","properties":{"kind":"line","mode":"rail","name":"臺中線","name_en":"Taichung Line","network":null,"operator":"國營臺灣鐵路股份有限公司"},"geometry":{"type":"LineString","coordinates":[[120.689386,24.138216],[120.689674,24.138368],[120.690309,24.138676],[120.691639,24.139248],[120.69199,24.139399],[120.693629,24.140078],[120.693849,24.140174],[120.694064,24.140277],[120.694278,24.140395],[120.694482,24.140514],[120.694678,24.140635],[120.694873,24.140773],[120.69507,24.140919],[120.695252,24.141064],[120.695428,24.141219],[120.695578,24.141391],[120.69574,24.141558],[120.695894,24.14173],[120.69604,24.141908],[120.696179,24.14209],[120.696309,24.142278],[120.696431,24.142471],[120.696545,24.142668],[120.696649,24.142868],[120.696745,24.143073],[120.696832,24.14328],[120.696909,24.143491],[120.696977,24.143704],[120.697036,24.14392],[120.697085,24.144137],[120.697139,24.144394],[120.697175,24.144666],[120.697262,24.145307],[120.697798,24.149279],[120.697911,24.150109],[120.69957,24.162116],[120.699588,24.162287],[120.699874,24.164399],[120.70015,24.166439],[120.70045,24.168664],[120.702042,24.180186],[120.702223,24.181551],[120.702318,24.182304],[120.702622,24.184484],[120.702682,24.185016],[120.70275,24.185863],[120.702797,24.186389],[120.702815,24.186699],[120.702849,24.187016],[120.703186,24.189486],[120.703373,24.190855],[120.703819,24.194104],[120.704001,24.195338],[120.704265,24.197439],[120.704673,24.200399],[120.704941,24.20235],[120.705051,24.203307],[120.705171,24.204575],[120.7054,24.207077],[120.705487,24.207986],[120.705549,24.208613],[120.705577,24.208958],[120.705632,24.209551],[120.705677,24.210046],[120.705823,24.211624],[120.705903,24.212572],[120.70613,24.215033],[120.70619,24.215648],[120.706272,24.216524],[120.70659,24.219793],[120.70663,24.220068],[120.706678,24.220343],[120.706729,24.220601],[120.706787,24.220857],[120.708424,24.227621],[120.709289,24.230957],[120.709389,24.231313],[120.7095,24.231665],[120.709626,24.232031],[120.709735,24.232328],[120.709929,24.232821],[120.709976,24.232932],[120.710635,24.234589],[120.710941,24.235349],[120.71202,24.238035],[120.71281,24.24002],[120.713055,24.2406],[120.71327,24.24105],[120.713514,24.241496],[120.713785,24.241922],[120.713934,24.242136],[120.714159,24.242438],[120.714432,24.242778],[120.714759,24.243144],[120.715099,24.243505],[120.720205,24.248818],[120.720576,24.249223],[120.720779,24.249472],[120.72093,24.249665],[120.721091,24.249889],[120.721235,24.250108],[120.721408,24.250393],[120.721562,24.250667],[120.721713,24.250932],[120.722085,24.251621],[120.722146,24.251726]]}},{"type":"Feature","id":"w442234245","properties":{"kind":"line","mode":"rail","name":"臺中線","name_en":"Taichung Line","network":null,"operator":"國營臺灣鐵路股份有限公司"},"geometry":{"type":"LineString","coordinates":[[120.689386,24.138216],[120.688408,24.137725],[120.687007,24.137103],[120.685855,24.136594],[120.68483,24.136252],[120.684546,24.136154]]}},{"type":"Feature","id":"w442234246","properties":{"kind":"line","mode":"rail","name":"臺中線","name_en":"Taichung Line","network":null,"operator":"國營臺灣鐵路股份有限公司"},"geometry":{"type":"LineString","coordinates":[[120.684914,24.136326],[120.685837,24.136648],[120.686982,24.137144],[120.688404,24.137773],[120.689362,24.138245]]}},{"type":"Feature","id":"w442234247","properties":{"kind":"line","mode":"rail","name":"臺中線","name_en":"Taichung Line","network":null,"operator":"國營臺灣鐵路股份有限公司"},"geometry":{"type":"LineString","coordinates":[[120.642326,24.115491],[120.642997,24.115894],[120.644264,24.11666],[120.645904,24.1177],[120.646945,24.118324],[120.648083,24.119035],[120.648807,24.119481],[120.649876,24.12014],[120.653138,24.122156],[120.657213,24.124634],[120.657775,24.124971],[120.658058,24.125133],[120.658346,24.125288],[120.658649,24.125439],[120.658957,24.125583],[120.660377,24.126196],[120.661867,24.126825],[120.666282,24.128678],[120.666675,24.128842],[120.669702,24.130105],[120.673527,24.13169],[120.678346,24.13371],[120.681856,24.135183],[120.682356,24.135399],[120.682765,24.135571],[120.683546,24.135843],[120.684227,24.136084],[120.684745,24.136264],[120.684914,24.136326]]}},{"type":"Feature","id":"w442234249","properties":{"kind":"line","mode":"rail","name":"臺中線","name_en":"Taichung Line","network":null,"operator":"國營臺灣鐵路股份有限公司"},"geometry":{"type":"LineString","coordinates":[[120.684546,24.136154],[120.684231,24.136039],[120.683575,24.135798],[120.682979,24.135599],[120.682725,24.135502],[120.682392,24.135366],[120.681859,24.135137],[120.681062,24.134798],[120.680344,24.134506],[120.67886,24.133879],[120.678361,24.133674],[120.673543,24.131657],[120.668672,24.129618],[120.66667,24.128777],[120.666306,24.128624],[120.662709,24.127124],[120.660392,24.12615],[120.658969,24.125547],[120.658661,24.125403],[120.658358,24.125251],[120.658074,24.125099],[120.657794,24.12494],[120.657234,24.124604],[120.652596,24.12176],[120.649898,24.1201],[120.648831,24.11945],[120.648101,24.119006],[120.646971,24.11829],[120.64591,24.117645],[120.643549,24.116181],[120.64236,24.11546]]}},{"type":"Feature","id":"w576368395","properties":{"kind":"line","mode":"rail","name":null,"name_en":null,"network":null,"operator":null},"geometry":{"type":"LineString","coordinates":[[120.691223,24.139108],[120.691639,24.139248]]}},{"type":"Feature","id":"w576368396","properties":{"kind":"line","mode":"rail","name":null,"name_en":null,"network":null,"operator":null},"geometry":{"type":"LineString","coordinates":[[120.69199,24.139399],[120.692527,24.13967]]}},{"type":"Feature","id":"w685613824","properties":{"kind":"line","mode":"rail","name":null,"name_en":null,"network":null,"operator":null},"geometry":{"type":"LineString","coordinates":[[120.683546,24.135843],[120.684231,24.136039]]}},{"type":"Feature","id":"w685613825","properties":{"kind":"line","mode":"rail","name":null,"name_en":null,"network":null,"operator":null},"geometry":{"type":"LineString","coordinates":[[120.681856,24.135183],[120.681062,24.134798]]}}]}
