{"type":"FeatureCollection","name":"tainan transit","features":[{"type":"Feature","id":"n257398161","properties":{"kind":"station","mode":"train","name":"臺南","name_en":"Tainan","network":"TRA","operator":"臺灣鐵路管理局"},"geometry":{"type":"Point","coordinates":[120.213043,22.997215]}},{"type":"Feature","id":"w108037248","properties":{"kind":"line","mode":"rail","name":"縱貫線","name_en":"West Coast Line","network":null,"operator":"國營臺灣鐵路股份有限公司"},"geometry":{"type":"LineString","coordinates":[[120.212445,22.994376],[120.212313,22.993654],[120.212198,22.993029],[120.21204,22.99228],[120.211963,22.991801],[120.21194,22.991531],[120.211938,22.991357],[120.211978,22.990751],[120.212049,22.990261],[120.212195,22.989721],[120.212849,22.98765],[120.213335,22.986028],[120.213554,22.985329],[120.214586,22.982102],[120.214669,22.981843],[120.216587,22.975663]]}},{"type":"Feature","id":"w108071669","properties":{"kind":"line","mode":"rail","name":"縱貫線","name_en":"West Coast Line","network":null,"operator":"國營臺灣鐵路股份有限公司"},"geometry":{"type":"LineString","coordinates":[[120.213901,23.001773],[120.213826,23.001399]]}},{"type":"Feature","id":"w108071684","properties":{"kind":"line","mode":"rail","name":"縱貫線","name_en":"West Coast Line","network":null,"operator":"國營臺灣鐵路股份有限公司"},"geometry":{"type":"LineString","coordinates":[[120.223161,23.017725],[120.221461,23.015349],[120.22,23.013286],[120.219629,23.012795],[120.218127,23.010749],[120.215519,23.007107],[120.215269,23.006768],[120.215061,23.006429],[120.214924,23.006101],[120.21476,23.005786],[120.214668,23.005551],[120.214538,23.005146],[120.214289,23.003931],[120.214275,23.003831],[120.213901,23.001773]]}},{"type":"Feature","id":"w1176543136","properties":{"kind":"line","mode":"rail","name":"縱貫線","name_en":"Western Trunk line","network":null,"operator":"國營臺灣鐵路股份有限公司"},"geometry":{"type":"LineString","coordinates":[[120.212437,22.994573],[120.212452,22.994657],[120.21267,22.995718],[120.212955,22.997245],[120.213777,23.001419]]}},{"type":"Feature","id":"w1176543137","properties":{"kind":"line","mode":"rail","name":"壽陸橋","name_en":"Shou Overpass Bridge","network":null,"operator":"國營臺灣鐵路股份有限公司"},"geometry":{"type":"LineString","coordinates":[[120.212401,22.994385],[120.212437,22.994573]]}},{"type":"Feature","id":"w1176543138","properties":{"kind":"line","mode":"rail","name":"縱貫線","name_en":"West Coast Line","network":null,"operator":"國營臺灣鐵路股份有限公司"},"geometry":{"type":"LineString","coordinates":[[120.212594,22.995192],[120.212482,22.994571]]}},{"type":"Feature","id":"w1176543139","properties":{"kind":"line","mode":"rail","name":"壽陸橋","name_en":"Shou Overpass Bridge","network":null,"operator":"國營臺灣鐵路股份有限公司"},"geometry":{"type":"LineString","coordinates":[[120.212482,22.994571],[120.212445,22.994376]]}},{"type":"Feature","id":"w347018826","properties":{"kind":"line","mode":"rail","name":"縱貫線","name_en":"Western Trunk line","network":null,"operator":"國營臺灣鐵路股份有限公司"},"geometry":{"type":"LineString","coordinates":[[120.213851,23.001792],[120.214225,23.003841],[120.214244,23.003937],[120.214498,23.005155],[120.214621,23.005557],[120.214714,23.005799],[120.214865,23.00611],[120.215006,23.006437],[120.215214,23.006784],[120.215474,23.007129],[120.218062,23.010768],[120.219574,23.0128],[120.219967,23.013326],[120.221412,23.015375],[120.22313,23.017742]]}},{"type":"Feature","id":"w347018833","properties":{"kind":"line","mode":"rail","name":"縱貫線","name_en":"Western Trunk line","network":null,"operator":"國營臺灣鐵路股份有限公司"},"geometry":{"type":"LineString","coordinates":[[120.213777,23.001419],[120.213851,23.001792]]}},{"type":"Feature","id":"w347019916","properties":{"kind":"line","mode":"rail","name":"縱貫線","name_en":"Western Trunk line","network":null,"operator":"國營臺灣鐵路股份有限公司"},"geometry":{"type":"LineString","coordinates":[[120.230289,22.935618],[120.229947,22.936263],[120.229263,22.937588],[120.228485,22.939048],[120.227585,22.940398],[120.225825,22.942533],[120.224107,22.944604],[120.223197,22.945672],[120.221874,22.947281],[120.220529,22.948929],[120.219851,22.949773],[120.21945,22.950471],[120.219234,22.950902],[120.219017,22.951361],[120.218773,22.952028],[120.218638,22.952478],[120.218437,22.953567],[120.218152,22.955496],[120.217773,22.958319],[120.217704,22.958727],[120.217461,22.960456],[120.217374,22.961081],[120.217244,22.962191],[120.21725,22.962658],[120.217268,22.963691],[120.217298,22.964632],[120.217306,22.964726],[120.217375,22.965725],[120.217509,22.967815],[120.217599,22.969226],[120.217656,22.969967],[120.217705,22.97067],[120.217702,22.971356],[120.217666,22.971815],[120.21755,22.972481],[120.217349,22.973309],[120.216928,22.974505],[120.216532,22.975643],[120.216004,22.977394],[120.214608,22.981831],[120.213281,22.986016],[120.212817,22.98764],[120.212557,22.98844],[120.212147,22.989705],[120.212007,22.990248],[120.211933,22.990749],[120.211887,22.991358],[120.211898,22.991535],[120.211918,22.991816],[120.211992,22.992293],[120.212273,22.993682],[120.212401,22.994385]]}},{"type":"Feature","id":"w747411514","properties":{"kind":"line","mode":"rail","name":"縱貫線","name_en":null,"network":null,"operator":"國營臺灣鐵路股份有限公司"},"geometry":{"type":"LineString","coordinates":[[120.212594,22.995192],[120.212992,22.997234],[120.213826,23.001399]]}}]}
