{"type":"FeatureCollection","name":"taipei transit","features":[{"type":"Feature","id":"n1273038428","properties":{"kind":"station","mode":"train","name":"萬華","name_en":"Wanhua","network":"臺鐵","operator":"國營臺灣鐵路股份有限公司"},"geometry":{"type":"Point","coordinates":[121.499927,25.03344]}},{"type":"Feature","id":"n1940469232","properties":{"kind":"station","mode":"subway","name":"東門","name_en":"Dongmen","network":"臺北捷運","operator":"臺北大眾捷運股份有限公司"},"geometry":{"type":"Point","coordinates":[121.529258,25.033842]}},{"type":"Feature","id":"n1942197448","properties":{"kind":"station","mode":"station","name":"大稻埕碼頭","name_en":"Dadaocheng Wharf","network":null,"operator":null},"geometry":{"type":"Point","coordinates":[121.507286,25.056696]}},{"type":"Feature","id":"n2973163775","properties":{"kind":"station","mode":"subway","name":"台大醫院","name_en":"NTU Hospital","network":"臺北捷運","operator":"臺北大眾捷運股份有限公司"},"geometry":{"type":"Point","coordinates":[121.516181,25.041646]}},{"type":"Feature","id":"n3263840809","properties":{"kind":"station","mode":"subway","name":"北門","name_en":"Beimen","network":"臺北捷運","operator":"臺北大眾捷運股份有限公司"},"geometry":{"type":"Point","coordinates":[121.510329,25.049399]}},{"type":"Feature","id":"n3494960750","properties":{"kind":"station","mode":"subway","name":"中正紀念堂","name_en":"Chiang Kai-Shek Memorial Hall","network":"臺北捷運","operator":"臺北大眾捷運股份有限公司"},"geometry":{"type":"Point","coordinates":[121.517545,25.033696]}},{"type":"Feature","id":"n3495094870","properties":{"kind":"station","mode":"subway","name":"台北車站","name_en":"Taipei main station","network":"臺北捷運","operator":"臺北大眾捷運股份有限公司"},"geometry":{"type":"Point","coordinates":[121.517475,25.046243]}},{"type":"Feature","id":"n3495094871","properties":{"kind":"station","mode":"subway","name":"中山","name_en":"Zhongshan","network":"臺北捷運","operator":"臺北大眾捷運股份有限公司"},"geometry":{"type":"Point","coordinates":[121.520391,25.052626]}},{"type":"Feature","id":"n3495094872","properties":{"kind":"station","mode":"subway","name":"雙連","name_en":"Shuanglian","network":"臺北捷運","operator":"臺北大眾捷運股份有限公司"},"geometry":{"type":"Point","coordinates":[121.520699,25.057632]}},{"type":"Feature","id":"n3495094873","properties":{"kind":"station","mode":"subway","name":"民權西路","name_en":"Minquan W. Rd.","network":"臺北捷運","operator":"臺北大眾捷運股份有限公司"},"geometry":{"type":"Point","coordinates":[121.519403,25.062851]}},{"type":"Feature","id":"n3578751641","properties":{"kind":"station","mode":"subway","name":"善導寺","name_en":"Shandao Temple","network":"臺北捷運","operator":"臺北大眾捷運股份有限公司"},"geometry":{"type":"Point","coordinates":[121.523423,25.044762]}},{"type":"Feature","id":"n3639530979","properties":{"kind":"station","mode":"subway","name":"西門","name_en":"Ximen","network":"臺北捷運","operator":"臺北大眾捷運股份有限公司"},"geometry":{"type":"Point","coordinates":[121.508608,25.042713]}},{"type":"Feature","id":"n3639530981","properties":{"kind":"station","mode":"subway","name":"龍山寺","name_en":"Longshan Temple","network":"臺北捷運","operator":"臺北大眾捷運股份有限公司"},"geometry":{"type":"Point","coordinates":[121.499581,25.035284]}},{"type":"Feature","id":"n3779252951","properties":{"kind":"station","mode":"subway","name":"台北橋","name_en":"Taipei Bridge","network":"臺北捷運","operator":"臺北大眾捷運股份有限公司"},"geometry":{"type":"Point","coordinates":[121.500551,25.063178]}},{"type":"Feature","id":"n3799089099","properties":{"kind":"station","mode":"train","name":"臺北","name_en":"Taipei","network":"臺鐵","operator":"國營臺灣鐵路股份有限公司"},"geometry":{"type":"Point","coordinates":[121.517005,25.047931]}},{"type":"Feature","id":"n3812564391","properties":{"kind":"station","mode":"subway","name":"中山國小","name_en":"Zhongshan Elementary School","network":"臺北捷運","operator":"臺北大眾捷運股份有限公司"},"geometry":{"type":"Point","coordinates":[121.526598,25.062674]}},{"type":"Feature","id":"n3812564398","properties":{"kind":"station","mode":"subway","name":"大橋頭","name_en":"Daqiaotou","network":"臺北捷運","operator":"臺北大眾捷運股份有限公司"},"geometry":{"type":"Point","coordinates":[121.512694,25.063198]}},{"type":"Feature","id":"n3812564399","properties":{"kind":"station","mode":"subway","name":"小南門","name_en":"Xiaonanmen","network":"臺北捷運","operator":"臺北大眾捷運股份有限公司"},"geometry":{"type":"Point","coordinates":[121.510806,25.035901]}},{"type":"Feature","id":"n3812564422","properties":{"kind":"station","mode":"subway","name":"菜寮","name_en":"Cailiao","network":"臺北捷運","operator":"臺北大眾捷運股份有限公司"},"geometry":{"type":"Point","coordinates":[121.492105,25.060268]}},{"type":"Feature","id":"n3933501987","properties":{"kind":"station","mode":"train","name":"台北","name_en":"Taipei","network":"台灣高鐵","operator":"台灣高速鐵路股份有限公司"},"geometry":{"type":"Point","coordinates":[121.51705,25.047554]}},{"type":"Feature","id":"n4653351592","properties":{"kind":"station","mode":"subway","name":"台北車站","name_en":"Taipei main station","network":"桃園捷運","operator":"桃園大眾捷運股份有限公司"},"geometry":{"type":"Point","coordinates":[121.514345,25.048704]}},{"type":"Feature","id":"n6779509366","properties":{"kind":"station","mode":"station","name":"忠孝碼頭","name_en":"Zhong Xiao Pier","network":null,"operator":null},"geometry":{"type":"Point","coordinates":[121.500098,25.05611]}},{"type":"Feature","id":"n7787708384","properties":{"kind":"station","mode":"station","name":"日統客運臺北站","name_en":null,"network":null,"operator":"日統汽車客運股份有限公司"},"geometry":{"type":"Point","coordinates":[121.508351,25.048186]}},{"type":"Feature","id":"w1054526757","properties":{"kind":"line","mode":"subway","name":null,"name_en":null,"network":null,"operator":null},"geometry":{"type":"LineString","coordinates":[[121.521848,25.062891],[121.521595,25.062893],[121.520807,25.06281],[121.520512,25.062797]]}},{"type":"Feature","id":"w1054526758","properties":{"kind":"line","mode":"subway","name":null,"name_en":null,"network":null,"operator":null},"geometry":{"type":"LineString","coordinates":[[121.520642,25.062945],[121.520858,25.062922],[121.521615,25.062791],[121.522016,25.06275]]}},{"type":"Feature","id":"w105689021","properties":{"kind":"line","mode":"subway","name":"捷運中和新蘆線","name_en":"MRT Zhonghe-Xinlu Line","network":"台北捷運","operator":"臺北大眾捷運股份有限公司"},"geometry":{"type":"LineString","coordinates":[[121.519279,25.062977],[121.518704,25.062991],[121.518657,25.062992],[121.518582,25.062994],[121.516676,25.063047],[121.516441,25.063063],[121.516278,25.063082],[121.51609,25.063104],[121.515937,25.063132],[121.51508,25.063272],[121.514837,25.063306],[121.514616,25.063331],[121.514405,25.063341],[121.514054,25.063337],[121.512922,25.063288],[121.511951,25.063244],[121.51172,25.063235],[121.511499,25.06323],[121.511332,25.063235],[121.511202,25.063245],[121.511054,25.063267],[121.510889,25.063301],[121.510785,25.063331],[121.510685,25.063364],[121.510463,25.063444],[121.510036,25.063617],[121.50943,25.063862],[121.50913,25.063956],[121.50886,25.06402]]}},{"type":"Feature","id":"w111811915","properties":{"kind":"line","mode":"subway","name":"捷運板南線","name_en":"MRT Bannan Line","network":"台北捷運","operator":"臺北大眾捷運股份有限公司"},"geometry":{"type":"LineString","coordinates":[[121.483694,25.036137],[121.489951,25.035948],[121.492405,25.035671],[121.492859,25.035628],[121.493351,25.035598],[121.494254,25.035579],[121.496034,25.035526],[121.496267,25.035509],[121.49655,25.035471],[121.497094,25.035384],[121.497567,25.035306],[121.498031,25.035263],[121.498597,25.035239]]}},{"type":"Feature","id":"w1228676672","properties":{"kind":"line","mode":"subway","name":"捷運淡水信義線","name_en":"MRT Tamsui-Xinyi Line","network":"台北捷運","operator":"臺北大眾捷運股份有限公司"},"geometry":{"type":"LineString","coordinates":[[121.522072,25.07665],[121.521535,25.075658],[121.521036,25.074623],[121.520655,25.073832],[121.520537,25.073598],[121.520435,25.073337],[121.520398,25.073237],[121.520332,25.072989],[121.520283,25.072742],[121.520179,25.072122],[121.520069,25.071426],[121.519955,25.070698],[121.519862,25.070083],[121.519813,25.069544],[121.519751,25.068807],[121.519665,25.068199],[121.519549,25.067384],[121.519467,25.066835],[121.519431,25.066621]]}},{"type":"Feature","id":"w1228676673","properties":{"kind":"line","mode":"subway","name":"捷運淡水信義線","name_en":"MRT Tamsui-Xinyi Line","network":"台北捷運","operator":"臺北大眾捷運股份有限公司"},"geometry":{"type":"LineString","coordinates":[[121.519484,25.066624],[121.519518,25.06683],[121.520211,25.071412],[121.520229,25.071534],[121.520509,25.07331],[121.520586,25.073535],[121.520652,25.07371],[121.520953,25.074364],[121.521593,25.075657],[121.522115,25.076639]]}},{"type":"Feature","id":"w13991375","properties":{"kind":"line","mode":"rail","name":"台灣高速鐵路","name_en":"Taiwan High Speed Rail","network":"台灣高鐵","operator":"台灣高速鐵路股份有限公司"},"geometry":{"type":"LineString","coordinates":[[121.509536,25.047045],[121.509618,25.047172],[121.509708,25.047295],[121.509805,25.047413],[121.509908,25.047526],[121.510018,25.047634],[121.510135,25.047737],[121.510257,25.047833],[121.510385,25.047924],[121.510518,25.048008],[121.510666,25.04809],[121.510819,25.048165],[121.510976,25.048232],[121.511137,25.04829],[121.511301,25.04834],[121.511469,25.048382],[121.511639,25.048414],[121.51181,25.048438],[121.511983,25.048452],[121.512145,25.048458],[121.512307,25.048455],[121.512811,25.048401],[121.513406,25.048304],[121.514046,25.048195],[121.51479,25.048055]]}},{"type":"Feature","id":"w1551465830","properties":{"kind":"line","mode":"rail","name":"縱貫線西正線","name_en":null,"network":null,"operator":"國營臺灣鐵路股份有限公司"},"geometry":{"type":"LineString","coordinates":[[121.514,25.048298],[121.514383,25.048263],[121.514623,25.048241]]}},{"type":"Feature","id":"w1551465831","properties":{"kind":"line","mode":"rail","name":"縱貫線西正線","name_en":null,"network":null,"operator":"國營臺灣鐵路股份有限公司"},"geometry":{"type":"LineString","coordinates":[[121.513705,25.048346],[121.513743,25.04834],[121.513771,25.048335],[121.51382,25.048327],[121.514,25.048298]]}},{"type":"Feature","id":"w1551465832","properties":{"kind":"line","mode":"rail","name":"縱貫線東正線","name_en":null,"network":null,"operator":"國營臺灣鐵路股份有限公司"},"geometry":{"type":"LineString","coordinates":[[121.513173,25.048395],[121.513259,25.04838],[121.513704,25.048305]]}},{"type":"Feature","id":"w1551482234","properties":{"kind":"line","mode":"rail","name":"縱貫線東正線","name_en":null,"network":null,"operator":"國營臺灣鐵路股份有限公司"},"geometry":{"type":"LineString","coordinates":[[121.513173,25.048395],[121.513704,25.048305]]}},{"type":"Feature","id":"w1558102738","properties":{"kind":"line","mode":"subway","name":"桃園機場捷運","name_en":"Taoyuan Airport MRT","network":"桃園捷運","operator":null},"geometry":{"type":"LineString","coordinates":[[121.515124,25.048501],[121.514339,25.048686]]}},{"type":"Feature","id":"w1558102739","properties":{"kind":"line","mode":"subway","name":"桃園機場捷運","name_en":"Taoyuan Airport MRT","network":"桃園捷運","operator":null},"geometry":{"type":"LineString","coordinates":[[121.51514,25.04855],[121.514355,25.048735]]}},{"type":"Feature","id":"w170432840","properties":{"kind":"line","mode":"subway","name":"桃園機場捷運","name_en":"Taoyuan Airport MRT","network":"桃園捷運","operator":null},"geometry":{"type":"LineString","coordinates":[[121.514355,25.048735],[121.51337,25.048972],[121.513214,25.049014],[121.513108,25.049049],[121.513011,25.049081],[121.512725,25.049183],[121.512363,25.049317],[121.512054,25.049427],[121.511942,25.049468],[121.511455,25.049645],[121.511125,25.049764],[121.510974,25.049808],[121.510888,25.049829],[121.510812,25.049846],[121.509208,25.05014],[121.509068,25.050158],[121.508896,25.05017],[121.508718,25.05017],[121.50855,25.050165],[121.508364,25.050147],[121.507519,25.050015],[121.507315,25.049988],[121.507107,25.04997],[121.506985,25.049966],[121.506871,25.049966],[121.506688,25.049978],[121.506406,25.050012],[121.506144,25.05007],[121.505596,25.050228],[121.505212,25.05035],[121.504862,25.050477],[121.504553,25.050621],[121.504307,25.050768],[121.504063,25.050937],[121.503185,25.051673],[121.500833,25.053681],[121.500512,25.053946],[121.500267,25.05413],[121.500027,25.054296],[121.49986,25.054388],[121.499688,25.054471],[121.499511,25.054545],[121.49933,25.05461],[121.499145,25.054667],[121.498958,25.054714],[121.498767,25.054751],[121.498575,25.054779],[121.498381,25.054797],[121.498187,25.054806],[121.497992,25.054805],[121.497797,25.054794],[121.497612,25.054775],[121.497427,25.054747],[121.497245,25.05471],[121.497069,25.054656],[121.496892,25.054602],[121.496718,25.054539],[121.496548,25.054468],[121.496387,25.054383],[121.496226,25.054296],[121.496071,25.054202],[121.495921,25.054101],[121.495774,25.053999],[121.495636,25.053891],[121.49494,25.053311]]}},{"type":"Feature","id":"w194118011","properties":{"kind":"line","mode":"rail","name":"縱貫線東正線","name_en":null,"network":null,"operator":"國營臺灣鐵路股份有限公司"},"geometry":{"type":"LineString","coordinates":[[121.523964,25.046346],[121.525861,25.045917],[121.526235,25.04586],[121.526541,25.045828],[121.526892,25.045806],[121.527325,25.045799],[121.528793,25.045815],[121.529873,25.045827],[121.53042,25.045834],[121.530978,25.045828],[121.531253,25.045815],[121.531579,25.045785],[121.53174,25.045766],[121.532025,25.045724],[121.532411,25.045646],[121.532752,25.045561],[121.533073,25.04547],[121.533521,25.045337],[121.534195,25.045138],[121.534774,25.044998],[121.535231,25.044916],[121.535636,25.044864],[121.536048,25.044827],[121.537502,25.044746],[121.53976,25.044624],[121.540453,25.044598],[121.54128,25.044617],[121.542075,25.044674],[121.543274,25.044822],[121.54498,25.045034],[121.545441,25.045076],[121.545883,25.045107],[121.546257,25.045107],[121.546751,25.045092],[121.547228,25.045057],[121.547806,25.044994],[121.549762,25.044784],[121.549862,25.044774],[121.552839,25.044459],[121.553238,25.044443],[121.553375,25.044442],[121.553679,25.044447],[121.553975,25.044469],[121.554305,25.0445],[121.554612,25.04454],[121.554805,25.044577],[121.556177,25.044834],[121.556541,25.044903],[121.557157,25.045026],[121.55753,25.04511],[121.557951,25.04522]]}},{"type":"Feature","id":"w194118015","properties":{"kind":"line","mode":"rail","name":"縱貫線西正線","name_en":null,"network":null,"operator":"國營臺灣鐵路股份有限公司"},"geometry":{"type":"LineString","coordinates":[[121.503174,25.033598],[121.50322,25.033599],[121.50345,25.033626],[121.5038,25.033678],[121.504034,25.033729],[121.504344,25.033819],[121.504628,25.033935],[121.504906,25.034091],[121.505204,25.034296],[121.505404,25.034473],[121.505581,25.03466],[121.505837,25.035004],[121.505962,25.035234],[121.506058,25.035442],[121.506114,25.035618],[121.506282,25.036219],[121.506587,25.037338],[121.507233,25.039566],[121.507524,25.040592],[121.508117,25.042668],[121.508739,25.044821],[121.508872,25.045313],[121.509077,25.046196],[121.509134,25.046422],[121.509183,25.046582],[121.509252,25.046764],[121.509317,25.046913],[121.509387,25.047034],[121.509472,25.047172],[121.509565,25.047306],[121.509666,25.047434],[121.509775,25.047557],[121.509891,25.047675],[121.510014,25.047787],[121.510144,25.047892],[121.51028,25.04799],[121.510422,25.048082],[121.51057,25.048166],[121.510722,25.048242],[121.510879,25.048311],[121.51104,25.048371],[121.511204,25.048424],[121.511368,25.048467],[121.511534,25.048502],[121.511702,25.048529],[121.511871,25.048547],[121.512041,25.048557],[121.512212,25.048559],[121.512382,25.048552]]}},{"type":"Feature","id":"w194118017","properties":{"kind":"line","mode":"rail","name":"縱貫線東正線","name_en":null,"network":null,"operator":"國營臺灣鐵路股份有限公司"},"geometry":{"type":"LineString","coordinates":[[121.498982,25.033218],[121.49959,25.033217],[121.499952,25.03323],[121.500602,25.033277],[121.501312,25.033326],[121.501617,25.033353],[121.502072,25.033406],[121.502427,25.033456],[121.503187,25.033555]]}},{"type":"Feature","id":"w194118018","properties":{"kind":"line","mode":"rail","name":"縱貫線東正線","name_en":null,"network":null,"operator":"國營臺灣鐵路股份有限公司"},"geometry":{"type":"LineString","coordinates":[[121.514598,25.048194],[121.514802,25.048174],[121.515411,25.048115],[121.51574,25.048088],[121.516131,25.048035],[121.517356,25.047822],[121.518888,25.047557],[121.519268,25.047466],[121.520189,25.047218]]}},{"type":"Feature","id":"w194118019","properties":{"kind":"line","mode":"rail","name":"縱貫線西正線","name_en":null,"network":null,"operator":"國營臺灣鐵路股份有限公司"},"geometry":{"type":"LineString","coordinates":[[121.512382,25.048552],[121.512806,25.048504],[121.513177,25.04844],[121.513429,25.048396],[121.513705,25.048346]]}},{"type":"Feature","id":"w194118021","properties":{"kind":"line","mode":"rail","name":"縱貫線西正線","name_en":null,"network":null,"operator":"國營臺灣鐵路股份有限公司"},"geometry":{"type":"LineString","coordinates":[[121.524553,25.046241],[121.525871,25.045945],[121.526201,25.045905],[121.52656,25.045866],[121.52685,25.045848],[121.527051,25.045843],[121.527446,25.045839],[121.528775,25.045857],[121.529938,25.045869],[121.530537,25.045875],[121.531114,25.045865],[121.531405,25.045846],[121.531643,25.045825],[121.531787,25.045807],[121.531946,25.045781],[121.532263,25.045725],[121.532558,25.045658],[121.532865,25.045577],[121.534208,25.045179],[121.534675,25.045064],[121.535246,25.044958],[121.535661,25.044908],[121.536092,25.044866],[121.537505,25.044792],[121.539762,25.044669],[121.54045,25.044643],[121.541279,25.044662],[121.542071,25.044719],[121.543268,25.044867],[121.544974,25.045078],[121.545441,25.045122],[121.54588,25.045152],[121.54626,25.045152],[121.546756,25.045137],[121.547234,25.045098],[121.547812,25.045039],[121.54987,25.044813],[121.552843,25.044505],[121.553241,25.044488],[121.553371,25.044487],[121.553676,25.044493],[121.55397,25.044514],[121.554299,25.044545],[121.554604,25.044585],[121.5548,25.04462],[121.556164,25.044877],[121.557144,25.045067],[121.557519,25.045153],[121.557637,25.045184],[121.557936,25.045262],[121.558086,25.045309],[121.558254,25.045358],[121.558441,25.045423],[121.558707,25.045513],[121.558907,25.045592]]}},{"type":"Feature","id":"w194118023","properties":{"kind":"line","mode":"rail","name":"縱貫線西正線","name_en":null,"network":null,"operator":"國營臺灣鐵路股份有限公司"},"geometry":{"type":"LineString","coordinates":[[121.52,25.047315],[121.520269,25.047243],[121.521139,25.047065],[121.521641,25.046942],[121.521749,25.046917],[121.523974,25.046377],[121.524553,25.046241]]}},{"type":"Feature","id":"w194118025","properties":{"kind":"line","mode":"rail","name":"縱貫線西正線","name_en":null,"network":null,"operator":"國營臺灣鐵路股份有限公司"},"geometry":{"type":"LineString","coordinates":[[121.498916,25.033276],[121.499965,25.033329],[121.500589,25.033377],[121.501339,25.033428],[121.502256,25.033501],[121.502604,25.033539],[121.50313,25.033596],[121.503174,25.033598]]}},{"type":"Feature","id":"w194118036","properties":{"kind":"line","mode":"rail","name":"縱貫線東正線","name_en":null,"network":null,"operator":"國營臺灣鐵路股份有限公司"},"geometry":{"type":"LineString","coordinates":[[121.490203,25.02793],[121.490403,25.028061],[121.490979,25.028431],[121.491666,25.029036],[121.493563,25.0307],[121.494561,25.031589],[121.495276,25.032227],[121.495542,25.032457],[121.49569,25.03257],[121.495852,25.032678],[121.496077,25.032809],[121.49635,25.032933],[121.496555,25.033007],[121.496816,25.033082],[121.496989,25.033116],[121.497077,25.03313],[121.497341,25.033163],[121.497647,25.033181],[121.497943,25.033192],[121.498011,25.033195],[121.498982,25.033218]]}},{"type":"Feature","id":"w194118037","properties":{"kind":"line","mode":"rail","name":"縱貫線西正線","name_en":null,"network":null,"operator":"國營臺灣鐵路股份有限公司"},"geometry":{"type":"LineString","coordinates":[[121.490172,25.027964],[121.490955,25.028468],[121.491639,25.029067],[121.493533,25.030734],[121.49454,25.031625],[121.495205,25.032216],[121.495251,25.032257],[121.495511,25.032487],[121.495664,25.032606],[121.495831,25.032719],[121.496062,25.032853],[121.496348,25.032978],[121.496544,25.033051],[121.496802,25.033123],[121.496982,25.033158],[121.497281,25.033196],[121.497868,25.03323],[121.498412,25.033254],[121.498916,25.033276]]}},{"type":"Feature","id":"w194118038","properties":{"kind":"line","mode":"rail","name":"縱貫線東正線","name_en":null,"network":null,"operator":"國營臺灣鐵路股份有限公司"},"geometry":{"type":"LineString","coordinates":[[121.503187,25.033555],[121.50324,25.033561],[121.503456,25.033589],[121.503809,25.033641],[121.504045,25.033693],[121.504359,25.033784],[121.504647,25.033902],[121.504943,25.034066],[121.505229,25.034268],[121.505431,25.034444],[121.505614,25.034636],[121.50587,25.034981],[121.505998,25.035209],[121.506092,25.035422],[121.506156,25.035611],[121.50632,25.03621],[121.506643,25.037353],[121.507153,25.039117],[121.50727,25.039566],[121.507564,25.040587],[121.50816,25.042659],[121.508779,25.044812],[121.508914,25.045306],[121.509175,25.046409],[121.509226,25.046564],[121.509295,25.046747],[121.509364,25.046899],[121.509445,25.047045],[121.509536,25.047187],[121.509635,25.047324],[121.509743,25.047455],[121.50986,25.04758],[121.509984,25.047699],[121.510116,25.047812],[121.510255,25.047916],[121.510401,25.048014],[121.510552,25.048103],[121.510702,25.048181],[121.510858,25.048252],[121.511017,25.048314],[121.51118,25.048368],[121.511346,25.048414],[121.511514,25.048451],[121.511685,25.04848],[121.511857,25.048499],[121.51203,25.048511],[121.512203,25.048513],[121.512377,25.048506]]}},{"type":"Feature","id":"w194585046","properties":{"kind":"line","mode":"subway","name":"捷運松山新店線","name_en":"MRT Songshan-Xindian Line","network":"台北捷運","operator":"臺北大眾捷運股份有限公司"},"geometry":{"type":"LineString","coordinates":[[121.509891,25.04674],[121.50994,25.046985],[121.509982,25.047315],[121.510032,25.047999],[121.510081,25.048324],[121.510154,25.048662],[121.510331,25.049443],[121.510441,25.049941],[121.510531,25.050338],[121.510569,25.050512],[121.51062,25.050697],[121.510672,25.05086],[121.510776,25.051048],[121.510846,25.051183],[121.510921,25.051286],[121.511208,25.05159],[121.511403,25.051734],[121.511916,25.05207],[121.513491,25.053082],[121.514073,25.053456],[121.514233,25.053539],[121.514421,25.053601],[121.514743,25.0537],[121.514797,25.053717],[121.514886,25.05372],[121.515274,25.053732],[121.515345,25.053734],[121.515417,25.05373],[121.515605,25.0537],[121.516266,25.053555],[121.518035,25.053138],[121.520147,25.052643],[121.520385,25.052588]]}},{"type":"Feature","id":"w194585047","properties":{"kind":"line","mode":"subway","name":null,"name_en":null,"network":null,"operator":null},"geometry":{"type":"LineString","coordinates":[[121.508947,25.043363],[121.508852,25.043649]]}},{"type":"Feature","id":"w194585049","properties":{"kind":"line","mode":"subway","name":"捷運松山新店線","name_en":"MRT Songshan-Xindian Line","network":"台北捷運","operator":"臺北大眾捷運股份有限公司"},"geometry":{"type":"LineString","coordinates":[[121.507952,25.039827],[121.508179,25.040679],[121.508764,25.042696],[121.508901,25.043193],[121.508947,25.043363],[121.508972,25.04344]]}},{"type":"Feature","id":"w194585050","properties":{"kind":"line","mode":"subway","name":"捷運松山新店線","name_en":"MRT Songshan-Xindian Line","network":"台北捷運","operator":"臺北大眾捷運股份有限公司"},"geometry":{"type":"LineString","coordinates":[[121.514711,25.035294],[121.513874,25.035361],[121.513381,25.0354],[121.513162,25.035417],[121.512353,25.035482],[121.51198,25.03554],[121.51121,25.035756],[121.510845,25.035869],[121.510535,25.035967],[121.509904,25.03616],[121.509682,25.036234],[121.509389,25.03637],[121.509203,25.036483],[121.509047,25.036609],[121.508899,25.036746],[121.508809,25.03685],[121.508658,25.037058],[121.508549,25.037265],[121.508465,25.037475],[121.50839,25.037729],[121.508284,25.03811],[121.507982,25.039212],[121.507948,25.039384],[121.507939,25.039572],[121.507948,25.039735],[121.507952,25.039827]]}},{"type":"Feature","id":"w194585052","properties":{"kind":"line","mode":"subway","name":"捷運松山新店線","name_en":"MRT Songshan-Xindian Line","network":"台北捷運","operator":"臺北大眾捷運股份有限公司"},"geometry":{"type":"LineString","coordinates":[[121.516895,25.03437],[121.516661,25.034658],[121.516554,25.034747],[121.51634,25.034901],[121.516185,25.034986],[121.515997,25.035072],[121.515828,25.035135],[121.515627,25.035188],[121.515429,25.035224],[121.51528,25.035238],[121.514711,25.035294]]}},{"type":"Feature","id":"w194585053","properties":{"kind":"line","mode":"subway","name":"捷運松山新店線","name_en":"MRT Songshan-Xindian Line","network":"台北捷運","operator":"臺北大眾捷運股份有限公司"},"geometry":{"type":"LineString","coordinates":[[121.508972,25.04344],[121.50913,25.044031],[121.509205,25.04441],[121.509307,25.044832],[121.509407,25.045186],[121.509634,25.045978],[121.509694,25.046205],[121.509742,25.046433],[121.509798,25.046723]]}},{"type":"Feature","id":"w194585055","properties":{"kind":"line","mode":"subway","name":null,"name_en":null,"network":null,"operator":null},"geometry":{"type":"LineString","coordinates":[[121.508901,25.043193],[121.508958,25.04346],[121.508988,25.043632],[121.509004,25.043726],[121.509178,25.044728],[121.509299,25.04521]]}},{"type":"Feature","id":"w194585058","properties":{"kind":"line","mode":"subway","name":"捷運松山新店線","name_en":"MRT Songshan-Xindian Line","network":"台北捷運","operator":"臺北大眾捷運股份有限公司"},"geometry":{"type":"LineString","coordinates":[[121.508969,25.043407],[121.508975,25.043427],[121.50914,25.044028],[121.509246,25.044401],[121.509367,25.044822],[121.509495,25.045267],[121.509594,25.045611],[121.50969,25.045961],[121.50982,25.046412],[121.509891,25.04674]]}},{"type":"Feature","id":"w194585059","properties":{"kind":"line","mode":"subway","name":"捷運松山新店線","name_en":"MRT Songshan-Xindian Line","network":"台北捷運","operator":"臺北大眾捷運股份有限公司"},"geometry":{"type":"LineString","coordinates":[[121.518331,25.032489],[121.517825,25.033142],[121.517449,25.033641],[121.516899,25.034374],[121.516665,25.034662],[121.516539,25.034767],[121.516454,25.034839],[121.516287,25.034953],[121.516138,25.035035],[121.515933,25.035129],[121.515755,25.035193],[121.515566,25.035251],[121.515304,25.03529],[121.514702,25.035343],[121.513877,25.035409],[121.513389,25.035448],[121.513137,25.035469],[121.512536,25.035529],[121.512138,25.035611],[121.510857,25.035999],[121.510668,25.03605],[121.510267,25.036182],[121.509843,25.036304],[121.509559,25.036416],[121.509371,25.036525],[121.509197,25.036643],[121.508916,25.036893],[121.508805,25.037049],[121.508687,25.037241],[121.50858,25.037477],[121.508411,25.038061],[121.508188,25.038834],[121.508089,25.039194],[121.508015,25.039519]]}},{"type":"Feature","id":"w194585060","properties":{"kind":"line","mode":"subway","name":"捷運松山新店線","name_en":"MRT Songshan-Xindian Line","network":"台北捷運","operator":"臺北大眾捷運股份有限公司"},"geometry":{"type":"LineString","coordinates":[[121.508015,25.039519],[121.507994,25.039904],[121.508124,25.040446],[121.508161,25.040589],[121.508351,25.041262],[121.50872,25.042554],[121.508908,25.043207],[121.508969,25.043407]]}},{"type":"Feature","id":"w194585061","properties":{"kind":"line","mode":"subway","name":"捷運松山新店線","name_en":"MRT Songshan-Xindian Line","network":"台北捷運","operator":"臺北大眾捷運股份有限公司"},"geometry":{"type":"LineString","coordinates":[[121.509798,25.046723],[121.509826,25.046959],[121.509837,25.047055],[121.509863,25.047377],[121.509882,25.047697],[121.509929,25.048028],[121.510075,25.048672],[121.510209,25.049273],[121.510258,25.049471],[121.510377,25.050024],[121.510449,25.050359]]}},{"type":"Feature","id":"w194618291","properties":{"kind":"line","mode":"subway","name":"捷運淡水信義線","name_en":"MRT Tamsui-Xinyi Line","network":"台北捷運","operator":"臺北大眾捷運股份有限公司"},"geometry":{"type":"LineString","coordinates":[[121.51939,25.062562],[121.519425,25.062472],[121.519592,25.062062],[121.519849,25.06144]]}},{"type":"Feature","id":"w194618293","properties":{"kind":"line","mode":"subway","name":"捷運淡水信義線","name_en":"MRT Tamsui-Xinyi Line","network":"台北捷運","operator":"臺北大眾捷運股份有限公司"},"geometry":{"type":"LineString","coordinates":[[121.515477,25.039734],[121.515452,25.039658],[121.51517,25.038589],[121.515144,25.038194],[121.515134,25.038019],[121.515155,25.037783],[121.515237,25.037354],[121.515375,25.036943],[121.515586,25.036502],[121.515709,25.036302],[121.516308,25.03549]]}},{"type":"Feature","id":"w194618294","properties":{"kind":"line","mode":"subway","name":"捷運淡水信義線","name_en":"MRT Tamsui-Xinyi Line","network":"台北捷運","operator":"臺北大眾捷運股份有限公司"},"geometry":{"type":"LineString","coordinates":[[121.516308,25.03549],[121.517087,25.03449],[121.51764,25.033751]]}},{"type":"Feature","id":"w194618296","properties":{"kind":"line","mode":"subway","name":"捷運淡水信義線","name_en":"MRT Tamsui-Xinyi Line","network":"台北捷運","operator":"臺北大眾捷運股份有限公司"},"geometry":{"type":"LineString","coordinates":[[121.515598,25.039626],[121.515775,25.040215],[121.516207,25.041646],[121.516539,25.042746],[121.51677,25.043525],[121.517005,25.044335],[121.517379,25.045644]]}},{"type":"Feature","id":"w194618300","properties":{"kind":"line","mode":"subway","name":"捷運淡水信義線","name_en":"MRT Tamsui-Xinyi Line","network":"台北捷運","operator":"臺北大眾捷運股份有限公司"},"geometry":{"type":"LineString","coordinates":[[121.519554,25.062593],[121.519239,25.063382],[121.519141,25.063743],[121.519102,25.063994],[121.519085,25.064151],[121.519081,25.064288],[121.519084,25.064487],[121.519095,25.064591],[121.519099,25.064667]]}},{"type":"Feature","id":"w194618307","properties":{"kind":"line","mode":"subway","name":"捷運淡水信義線","name_en":"MRT Tamsui-Xinyi Line","network":"台北捷運","operator":"臺北大眾捷運股份有限公司"},"geometry":{"type":"LineString","coordinates":[[121.517398,25.046138],[121.51735,25.045984],[121.516897,25.04436],[121.516691,25.043642],[121.5164,25.042787],[121.51607,25.041681],[121.515477,25.039734]]}},{"type":"Feature","id":"w194618308","properties":{"kind":"line","mode":"subway","name":"捷運松山新店線","name_en":"MRT Songshan-Xindian Line","network":"台北捷運","operator":"臺北大眾捷運股份有限公司"},"geometry":{"type":"LineString","coordinates":[[121.521241,25.02858],[121.521275,25.02853],[121.521546,25.02818]]}},{"type":"Feature","id":"w194618310","properties":{"kind":"line","mode":"subway","name":"捷運松山新店線","name_en":"MRT Songshan-Xindian Line","network":"台北捷運","operator":"臺北大眾捷運股份有限公司"},"geometry":{"type":"LineString","coordinates":[[121.521546,25.02818],[121.521571,25.028139],[121.522102,25.027392],[121.522642,25.026667],[121.523178,25.025948]]}},{"type":"Feature","id":"w194618312","properties":{"kind":"line","mode":"subway","name":"捷運松山新店線","name_en":"MRT Songshan-Xindian Line","network":"台北捷運","operator":"臺北大眾捷運股份有限公司"},"geometry":{"type":"LineString","coordinates":[[121.521554,25.02818],[121.522098,25.02739],[121.522639,25.026665],[121.523173,25.025945]]}},{"type":"Feature","id":"w194618322","properties":{"kind":"line","mode":"subway","name":"捷運淡水信義線","name_en":"MRT Tamsui-Xinyi Line","network":"台北捷運","operator":"臺北大眾捷運股份有限公司"},"geometry":{"type":"LineString","coordinates":[[121.517379,25.045644],[121.517451,25.045853],[121.517548,25.046086],[121.517631,25.046257],[121.518384,25.047587],[121.518616,25.047943],[121.518739,25.048122],[121.518815,25.048229]]}},{"type":"Feature","id":"w194618326","properties":{"kind":"line","mode":"subway","name":"捷運淡水信義線","name_en":"MRT Tamsui-Xinyi Line","network":"台北捷運","operator":"臺北大眾捷運股份有限公司"},"geometry":{"type":"LineString","coordinates":[[121.518592,25.0483],[121.517609,25.046585],[121.517461,25.046321],[121.517398,25.046138]]}},{"type":"Feature","id":"w194618332","properties":{"kind":"line","mode":"subway","name":"捷運松山新店線","name_en":"MRT Songshan-Xindian Line","network":"台北捷運","operator":"臺北大眾捷運股份有限公司"},"geometry":{"type":"LineString","coordinates":[[121.521261,25.028595],[121.521554,25.02818]]}},{"type":"Feature","id":"w194618333","properties":{"kind":"line","mode":"subway","name":"捷運松山新店線","name_en":"MRT Songshan-Xindian Line","network":"台北捷運","operator":"臺北大眾捷運股份有限公司"},"geometry":{"type":"LineString","coordinates":[[121.518326,25.032486],[121.518824,25.031821],[121.518941,25.031665],[121.519081,25.031481],[121.519792,25.030535],[121.521241,25.02858]]}},{"type":"Feature","id":"w194618334","properties":{"kind":"line","mode":"subway","name":"捷運淡水信義線","name_en":"MRT Tamsui-Xinyi Line","network":"台北捷運","operator":"臺北大眾捷運股份有限公司"},"geometry":{"type":"LineString","coordinates":[[121.520452,25.052841],[121.520508,25.053672],[121.520634,25.0559],[121.520704,25.057289],[121.520718,25.057625],[121.520722,25.057681],[121.520727,25.057759]]}},{"type":"Feature","id":"w194618336","properties":{"kind":"line","mode":"subway","name":"捷運淡水信義線","name_en":"MRT Tamsui-Xinyi Line","network":"台北捷運","operator":"臺北大眾捷運股份有限公司"},"geometry":{"type":"LineString","coordinates":[[121.520727,25.057759],[121.520783,25.058832],[121.520775,25.059008],[121.520766,25.059175],[121.520695,25.059613],[121.520648,25.059796],[121.520513,25.060156],[121.520385,25.060489],[121.520332,25.060626],[121.520237,25.060871],[121.520158,25.061076],[121.520032,25.061401]]}},{"type":"Feature","id":"w194618337","properties":{"kind":"line","mode":"subway","name":"捷運松山新店線","name_en":"MRT Songshan-Xindian Line","network":"台北捷運","operator":"臺北大眾捷運股份有限公司"},"geometry":{"type":"LineString","coordinates":[[121.518326,25.032486],[121.517819,25.033138],[121.517443,25.033637],[121.516895,25.03437]]}},{"type":"Feature","id":"w194618339","properties":{"kind":"line","mode":"subway","name":"捷運淡水信義線","name_en":"MRT Tamsui-Xinyi Line","network":"台北捷運","operator":"臺北大眾捷運股份有限公司"},"geometry":{"type":"LineString","coordinates":[[121.519849,25.06144],[121.520022,25.061017],[121.520097,25.060835],[121.520196,25.060596],[121.520234,25.060502],[121.520453,25.059955],[121.520493,25.059842],[121.520529,25.059728],[121.520603,25.059423],[121.520634,25.059032],[121.520581,25.05776]]}},{"type":"Feature","id":"w194618343","properties":{"kind":"line","mode":"subway","name":"捷運淡水信義線","name_en":"MRT Tamsui-Xinyi Line","network":"台北捷運","operator":"臺北大眾捷運股份有限公司"},"geometry":{"type":"LineString","coordinates":[[121.520581,25.05776],[121.520581,25.057698],[121.520573,25.057637],[121.520554,25.057308],[121.520486,25.055915],[121.520352,25.053667],[121.520302,25.05284]]}},{"type":"Feature","id":"w194618346","properties":{"kind":"line","mode":"subway","name":"捷運淡水信義線","name_en":"MRT Tamsui-Xinyi Line","network":"台北捷運","operator":"臺北大眾捷運股份有限公司"},"geometry":{"type":"LineString","coordinates":[[121.51764,25.033751],[121.518367,25.032779]]}},{"type":"Feature","id":"w194618352","properties":{"kind":"line","mode":"subway","name":"捷運淡水信義線","name_en":"MRT Tamsui-Xinyi Line","network":"台北捷運","operator":"臺北大眾捷運股份有限公司"},"geometry":{"type":"LineString","coordinates":[[121.519341,25.066104],[121.519049,25.06467]]}},{"type":"Feature","id":"w194618354","properties":{"kind":"line","mode":"subway","name":null,"name_en":null,"network":null,"operator":null},"geometry":{"type":"LineString","coordinates":[[121.518844,25.031812],[121.518368,25.032789]]}},{"type":"Feature","id":"w194618356","properties":{"kind":"line","mode":"subway","name":"捷運淡水信義線","name_en":"MRT Tamsui-Xinyi Line","network":"台北捷運","operator":"臺北大眾捷運股份有限公司"},"geometry":{"type":"LineString","coordinates":[[121.519049,25.06467],[121.519016,25.064481],[121.518997,25.06434],[121.518986,25.064253],[121.518977,25.064142],[121.518979,25.06401],[121.518987,25.063905],[121.518999,25.063783],[121.519021,25.06365],[121.519055,25.063467],[121.519111,25.063274],[121.51917,25.063116],[121.519345,25.062676],[121.51939,25.062562]]}},{"type":"Feature","id":"w194618358","properties":{"kind":"line","mode":"subway","name":"捷運淡水信義線","name_en":"MRT Tamsui-Xinyi Line","network":"台北捷運","operator":"臺北大眾捷運股份有限公司"},"geometry":{"type":"LineString","coordinates":[[121.518367,25.032779],[121.519125,25.031724],[121.5192,25.031638],[121.519287,25.031545],[121.519372,25.031467],[121.519468,25.031386],[121.51962,25.031281],[121.5197,25.031233],[121.519746,25.031208],[121.519871,25.031146],[121.520014,25.03109],[121.520098,25.031062],[121.520203,25.031031],[121.520406,25.030989],[121.520567,25.030969],[121.520744,25.03096],[121.520868,25.030966],[121.520983,25.030973],[121.521108,25.030992],[121.521297,25.031034],[121.521473,25.031085],[121.521617,25.031145],[121.521798,25.031236],[121.521916,25.031308],[121.522014,25.03138],[121.522172,25.031512],[121.522286,25.031629],[121.5224,25.03177],[121.522494,25.031917],[121.522592,25.03211],[121.522654,25.032274],[121.522698,25.032451],[121.522776,25.033047],[121.522807,25.033341],[121.522834,25.033487],[121.522871,25.033636],[121.522925,25.033793],[121.522994,25.033948],[121.523079,25.034091],[121.523194,25.034255],[121.52336,25.034433],[121.523513,25.034566],[121.523682,25.034681],[121.523829,25.034765],[121.524004,25.034847],[121.524161,25.034902],[121.524304,25.03494],[121.524455,25.034972],[121.524659,25.034998],[121.524829,25.035001],[121.524989,25.034996],[121.525182,25.034972],[121.525309,25.034947],[121.525434,25.034914],[121.525596,25.034859],[121.525669,25.034832],[121.525752,25.034793],[121.525814,25.034764],[121.526254,25.034503],[121.526561,25.034317],[121.526965,25.034121],[121.527077,25.034082],[121.52719,25.034046],[121.527373,25.033998]]}},{"type":"Feature","id":"w194618359","properties":{"kind":"line","mode":"subway","name":"捷運淡水信義線","name_en":"MRT Tamsui-Xinyi Line","network":"台北捷運","operator":"臺北大眾捷運股份有限公司"},"geometry":{"type":"LineString","coordinates":[[121.524556,25.035081],[121.524375,25.035059],[121.524208,25.035029],[121.524036,25.034983],[121.523882,25.034926],[121.523751,25.034865],[121.523634,25.034804],[121.523512,25.034726],[121.523412,25.034653],[121.523336,25.034592],[121.523268,25.03453],[121.523206,25.034476],[121.523187,25.034449],[121.523062,25.034301],[121.52296,25.034153],[121.522888,25.034021],[121.52283,25.033893],[121.522762,25.033684],[121.522714,25.033417],[121.522647,25.0328],[121.522592,25.032489],[121.522519,25.032261],[121.522475,25.032161],[121.522377,25.031986],[121.522283,25.031848],[121.522181,25.031727],[121.522053,25.0316],[121.521919,25.03149],[121.521829,25.031429],[121.521763,25.031386],[121.521602,25.031297],[121.521464,25.031233],[121.521292,25.031175],[121.52112,25.031128],[121.520932,25.031098],[121.52073,25.031082],[121.520551,25.031083],[121.520508,25.031084],[121.520328,25.031103],[121.520151,25.031139],[121.519977,25.031189],[121.519898,25.031219],[121.519832,25.031244],[121.519766,25.031272],[121.519651,25.03133],[121.519584,25.031369],[121.51949,25.031426],[121.519401,25.031491],[121.519347,25.031531],[121.519248,25.031614],[121.51918,25.031683],[121.51911,25.031755],[121.518368,25.032789]]}},{"type":"Feature","id":"w194618361","properties":{"kind":"line","mode":"subway","name":"捷運淡水信義線","name_en":"MRT Tamsui-Xinyi Line","network":"台北捷運","operator":"臺北大眾捷運股份有限公司"},"geometry":{"type":"LineString","coordinates":[[121.520302,25.05284],[121.520289,25.052632],[121.520235,25.051746],[121.520224,25.051565],[121.520209,25.051328],[121.520196,25.051014],[121.520178,25.050809],[121.520119,25.050482],[121.520096,25.050391],[121.520001,25.050116],[121.519924,25.049955],[121.51984,25.049793],[121.519793,25.049719],[121.519614,25.049468],[121.51946,25.049289],[121.519105,25.048904],[121.518979,25.048778],[121.51878,25.048532],[121.518592,25.0483]]}},{"type":"Feature","id":"w194618363","properties":{"kind":"line","mode":"subway","name":"捷運淡水信義線","name_en":"MRT Tamsui-Xinyi Line","network":"台北捷運","operator":"臺北大眾捷運股份有限公司"},"geometry":{"type":"LineString","coordinates":[[121.520032,25.061401],[121.520003,25.061475],[121.519749,25.062108],[121.519554,25.062593]]}},{"type":"Feature","id":"w194618365","properties":{"kind":"line","mode":"subway","name":"捷運淡水信義線","name_en":"MRT Tamsui-Xinyi Line","network":"台北捷運","operator":"臺北大眾捷運股份有限公司"},"geometry":{"type":"LineString","coordinates":[[121.518815,25.048229],[121.519002,25.048483],[121.519404,25.049028],[121.519908,25.049691],[121.520032,25.049908],[121.520139,25.050114],[121.520246,25.050483],[121.520347,25.051322],[121.520351,25.051377],[121.520363,25.051558],[121.520436,25.052627],[121.520452,25.052841]]}},{"type":"Feature","id":"w195135581","properties":{"kind":"line","mode":"subway","name":"捷運松山新店線","name_en":"MRT Songshan-Xindian Line","network":"台北捷運","operator":"臺北大眾捷運股份有限公司"},"geometry":{"type":"LineString","coordinates":[[121.521751,25.028279],[121.521817,25.028108],[121.522042,25.02777],[121.522248,25.02748],[121.522792,25.026751],[121.523325,25.026039],[121.523724,25.025478],[121.524461,25.024434],[121.524476,25.024417]]}},{"type":"Feature","id":"w196868570","properties":{"kind":"line","mode":"subway","name":"捷運松山新店線","name_en":"MRT Songshan-Xindian Line","network":"台北捷運","operator":"臺北大眾捷運股份有限公司"},"geometry":{"type":"LineString","coordinates":[[121.520385,25.052588],[121.521205,25.052393],[121.521975,25.052258],[121.522177,25.052239],[121.522712,25.05218],[121.52342,25.052155]]}},{"type":"Feature","id":"w196868574","properties":{"kind":"line","mode":"subway","name":"捷運松山新店線","name_en":"MRT Songshan-Xindian Line","network":"台北捷運","operator":"臺北大眾捷運股份有限公司"},"geometry":{"type":"LineString","coordinates":[[121.523449,25.05226],[121.525113,25.05218],[121.525818,25.052165],[121.526919,25.052152],[121.528123,25.052143],[121.529763,25.052128],[121.530014,25.05212],[121.530601,25.052102],[121.531274,25.052094],[121.531722,25.052089]]}},{"type":"Feature","id":"w196868575","properties":{"kind":"line","mode":"subway","name":"捷運松山新店線","name_en":"MRT Songshan-Xindian Line","network":"台北捷運","operator":"臺北大眾捷運股份有限公司"},"geometry":{"type":"LineString","coordinates":[[121.52342,25.052155],[121.524084,25.052123],[121.52518,25.052072],[121.52581,25.052052],[121.52692,25.052048],[121.528126,25.052036],[121.528809,25.052029],[121.529514,25.05203],[121.53049,25.052052],[121.531289,25.05205],[121.531726,25.052049]]}},{"type":"Feature","id":"w196868576","properties":{"kind":"line","mode":"subway","name":"捷運松山新店線","name_en":"MRT Songshan-Xindian Line","network":"台北捷運","operator":"臺北大眾捷運股份有限公司"},"geometry":{"type":"LineString","coordinates":[[121.521258,25.052494],[121.521988,25.05237],[121.522712,25.052292],[121.523449,25.05226]]}},{"type":"Feature","id":"w196868578","properties":{"kind":"line","mode":"subway","name":"捷運松山新店線","name_en":"MRT Songshan-Xindian Line","network":"台北捷運","operator":"臺北大眾捷運股份有限公司"},"geometry":{"type":"LineString","coordinates":[[121.510449,25.050359],[121.510532,25.050695],[121.51059,25.050891],[121.510684,25.051072],[121.510771,25.051221],[121.510841,25.051325],[121.510966,25.05147],[121.5111,25.051608],[121.511301,25.051767],[121.511811,25.0521],[121.514,25.053511],[121.514101,25.053575],[121.51427,25.05366],[121.514637,25.053774],[121.51481,25.053826],[121.514926,25.053829],[121.515182,25.053838],[121.515388,25.053846],[121.515674,25.053799],[121.516302,25.053651],[121.518074,25.05324],[121.520207,25.05274],[121.521258,25.052494]]}},{"type":"Feature","id":"w197881266","properties":{"kind":"line","mode":"subway","name":"捷運中和新蘆線","name_en":"MRT Zhonghe-Xinlu Line","network":"台北捷運","operator":"臺北大眾捷運股份有限公司"},"geometry":{"type":"LineString","coordinates":[[121.524662,25.035357],[121.524437,25.035378],[121.524193,25.035383],[121.523965,25.035357],[121.52388,25.035344],[121.523797,25.035326],[121.52372,25.035306],[121.523652,25.035287],[121.523556,25.035253],[121.523466,25.035217],[121.523329,25.035157],[121.523158,25.035057],[121.522985,25.034931],[121.522814,25.034773],[121.522653,25.034587],[121.522548,25.034428],[121.522464,25.034264],[121.522389,25.034057],[121.52235,25.033922],[121.522326,25.033763],[121.522319,25.033573],[121.522334,25.033281],[121.522408,25.032656],[121.522433,25.032292],[121.522429,25.032097],[121.522406,25.031857],[121.52234,25.031488],[121.522208,25.030818],[121.522128,25.030457],[121.522028,25.030102],[121.521797,25.029457],[121.521735,25.029243],[121.521698,25.029079],[121.521678,25.028924],[121.521668,25.028697],[121.521692,25.028509],[121.521751,25.028279]]}},{"type":"Feature","id":"w197881267","properties":{"kind":"line","mode":"subway","name":"捷運中和新蘆線","name_en":"MRT Zhonghe-Xinlu Line","network":"台北捷運","operator":"臺北大眾捷運股份有限公司"},"geometry":{"type":"LineString","coordinates":[[121.524956,25.035193],[121.524724,25.035226],[121.524484,25.035232],[121.524191,25.035203],[121.523976,25.035155],[121.52377,25.03509],[121.523624,25.035031],[121.523429,25.034927],[121.523222,25.034789],[121.523046,25.03464],[121.522842,25.03441],[121.522732,25.034247],[121.522625,25.034036],[121.522555,25.033852],[121.522514,25.033692],[121.522483,25.033515],[121.522476,25.033389],[121.522476,25.033214],[121.522514,25.032751],[121.522537,25.032535],[121.52256,25.03216],[121.522545,25.031858],[121.522515,25.03168],[121.522477,25.0315],[121.522312,25.030799],[121.52221,25.030444],[121.522122,25.030203],[121.522057,25.03005],[121.52183,25.029516],[121.521754,25.029236],[121.52172,25.029068],[121.521703,25.028923],[121.52169,25.028698],[121.521706,25.028509],[121.521762,25.028279]]}},{"type":"Feature","id":"w197881268","properties":{"kind":"line","mode":"subway","name":"捷運中和新蘆線","name_en":"MRT Zhonghe-Xinlu Line","network":"台北捷運","operator":"臺北大眾捷運股份有限公司"},"geometry":{"type":"LineString","coordinates":[[121.529959,25.033811],[121.529112,25.033926],[121.527536,25.03414]]}},{"type":"Feature","id":"w197881269","properties":{"kind":"line","mode":"subway","name":"捷運中和新蘆線","name_en":"MRT Zhonghe-Xinlu Line","network":"台北捷運","operator":"臺北大眾捷運股份有限公司"},"geometry":{"type":"LineString","coordinates":[[121.529961,25.033818],[121.529117,25.033931],[121.527537,25.034143]]}},{"type":"Feature","id":"w197881270","properties":{"kind":"line","mode":"subway","name":"捷運中和新蘆線","name_en":"MRT Zhonghe-Xinlu Line","network":"台北捷運","operator":"臺北大眾捷運股份有限公司"},"geometry":{"type":"LineString","coordinates":[[121.527536,25.03414],[121.527118,25.034233],[121.526889,25.034314],[121.526686,25.034405],[121.526513,25.034508],[121.526321,25.034597],[121.525938,25.034801],[121.525389,25.035074],[121.525209,25.035136],[121.525115,25.035161],[121.524956,25.035193]]}},{"type":"Feature","id":"w197881271","properties":{"kind":"line","mode":"subway","name":"捷運中和新蘆線","name_en":"MRT Zhonghe-Xinlu Line","network":"台北捷運","operator":"臺北大眾捷運股份有限公司"},"geometry":{"type":"LineString","coordinates":[[121.527537,25.034143],[121.527116,25.034236],[121.526929,25.034319],[121.526885,25.034344],[121.52669,25.034408],[121.526586,25.03447],[121.526518,25.034506],[121.525768,25.034892],[121.525346,25.035118],[121.525198,25.035188],[121.525047,25.035252],[121.524853,25.035315],[121.524662,25.035357]]}},{"type":"Feature","id":"w197881272","properties":{"kind":"line","mode":"subway","name":"捷運中和新蘆線","name_en":"MRT Zhonghe-Xinlu Line","network":"台北捷運","operator":"臺北大眾捷運股份有限公司"},"geometry":{"type":"LineString","coordinates":[[121.532745,25.040794],[121.532744,25.040655],[121.53274,25.039722],[121.532739,25.039272],[121.532713,25.037855],[121.53272,25.035749],[121.532714,25.035565],[121.532697,25.035389],[121.532637,25.035118],[121.532537,25.034875],[121.532415,25.034667],[121.532273,25.034477],[121.532141,25.034335],[121.531993,25.03421],[121.531837,25.034097],[121.531726,25.034031],[121.531627,25.033979],[121.531374,25.033872],[121.531031,25.033786],[121.530792,25.033757],[121.530541,25.033752],[121.529961,25.033818]]}},{"type":"Feature","id":"w197881273","properties":{"kind":"line","mode":"subway","name":"捷運中和新蘆線","name_en":"MRT Zhonghe-Xinlu Line","network":"台北捷運","operator":"臺北大眾捷運股份有限公司"},"geometry":{"type":"LineString","coordinates":[[121.532912,25.040792],[121.532908,25.040655],[121.532897,25.040239],[121.532881,25.039671],[121.532829,25.037832],[121.532838,25.035643],[121.532826,25.035428],[121.532791,25.035229],[121.532741,25.035052],[121.532577,25.034704],[121.532443,25.03452],[121.532346,25.034407],[121.532169,25.034236],[121.531926,25.034062],[121.531769,25.033976],[121.531619,25.033905],[121.531328,25.033805],[121.531041,25.033747],[121.530733,25.033736],[121.53055,25.03374],[121.529959,25.033811]]}},{"type":"Feature","id":"w197881275","properties":{"kind":"line","mode":"subway","name":"捷運淡水信義線","name_en":"MRT Tamsui-Xinyi Line","network":"台北捷運","operator":"臺北大眾捷運股份有限公司"},"geometry":{"type":"LineString","coordinates":[[121.571458,25.032923],[121.569769,25.03292],[121.567341,25.032931],[121.564928,25.032979],[121.563789,25.033005],[121.562445,25.033036],[121.561201,25.033063],[121.559572,25.0331],[121.556206,25.033168],[121.552671,25.033241],[121.551503,25.033266],[121.549245,25.033318],[121.54846,25.033331],[121.548098,25.033338],[121.54639,25.033381],[121.545637,25.033406],[121.544356,25.033433],[121.544216,25.033438],[121.543773,25.033443],[121.543308,25.033453],[121.541879,25.033483],[121.539531,25.03353],[121.538177,25.03355],[121.536763,25.033581],[121.535297,25.033606],[121.534198,25.033632],[121.533022,25.033655],[121.532456,25.033639],[121.531624,25.033598],[121.531209,25.03358],[121.530906,25.033583],[121.530376,25.033609],[121.529939,25.033663]]}},{"type":"Feature","id":"w197881276","properties":{"kind":"line","mode":"subway","name":"捷運淡水信義線","name_en":"MRT Tamsui-Xinyi Line","network":"台北捷運","operator":"臺北大眾捷運股份有限公司"},"geometry":{"type":"LineString","coordinates":[[121.529937,25.033652],[121.530373,25.033598],[121.530905,25.033572],[121.531139,25.033572],[121.531429,25.033572],[121.532315,25.033561],[121.532709,25.033552],[121.53308,25.033504]]}},{"type":"Feature","id":"w197881277","properties":{"kind":"line","mode":"subway","name":"捷運淡水信義線","name_en":"MRT Tamsui-Xinyi Line","network":"台北捷運","operator":"臺北大眾捷運股份有限公司"},"geometry":{"type":"LineString","coordinates":[[121.529939,25.033663],[121.52909,25.033775],[121.52885,25.033807],[121.528273,25.033885],[121.52768,25.033959]]}},{"type":"Feature","id":"w197881278","properties":{"kind":"line","mode":"subway","name":"捷運淡水信義線","name_en":"MRT Tamsui-Xinyi Line","network":"台北捷運","operator":"臺北大眾捷運股份有限公司"},"geometry":{"type":"LineString","coordinates":[[121.527373,25.033998],[121.527525,25.033972],[121.527678,25.033952],[121.528269,25.033874],[121.528847,25.033797],[121.52909,25.033765],[121.529937,25.033652]]}},{"type":"Feature","id":"w197881279","properties":{"kind":"line","mode":"subway","name":"捷運淡水信義線","name_en":"MRT Tamsui-Xinyi Line","network":"台北捷運","operator":"臺北大眾捷運股份有限公司"},"geometry":{"type":"LineString","coordinates":[[121.52768,25.033959],[121.527527,25.033981],[121.527374,25.034008],[121.527194,25.034054],[121.527081,25.03409],[121.52697,25.034129],[121.526572,25.034329],[121.525951,25.034694],[121.525853,25.034751],[121.525705,25.034833],[121.525584,25.03489],[121.52544,25.034949],[121.525386,25.03497],[121.525346,25.034983],[121.525268,25.035006],[121.525131,25.035038],[121.524987,25.035063],[121.524842,25.035078],[121.524782,25.035078],[121.524691,25.035083],[121.524556,25.035081]]}},{"type":"Feature","id":"w198163706","properties":{"kind":"line","mode":"subway","name":"桃園機場捷運","name_en":"Taoyuan Airport MRT","network":"桃園捷運","operator":null},"geometry":{"type":"LineString","coordinates":[[121.514339,25.048686],[121.513825,25.04881],[121.51332,25.04893],[121.513177,25.048973],[121.513104,25.048996],[121.513048,25.049014],[121.512798,25.049104],[121.512332,25.049274],[121.512049,25.049375],[121.511564,25.049551],[121.511434,25.049598],[121.511113,25.049714],[121.51096,25.049758],[121.510876,25.04978],[121.510798,25.049796],[121.509181,25.050093],[121.509029,25.050108],[121.508903,25.050119],[121.508757,25.05012],[121.508615,25.050116],[121.508479,25.050109],[121.508329,25.050091],[121.507722,25.049997],[121.507548,25.049968],[121.507345,25.04994],[121.50721,25.049926],[121.507103,25.049919],[121.506994,25.049915],[121.506914,25.049915],[121.506742,25.049921],[121.506668,25.049927],[121.506379,25.049966],[121.506131,25.05002],[121.505583,25.050179],[121.505192,25.050298],[121.504843,25.050428],[121.504527,25.050574],[121.504277,25.050721],[121.504041,25.050888],[121.503135,25.051648],[121.500792,25.053642],[121.500478,25.053909],[121.500234,25.054092],[121.499997,25.054257],[121.499833,25.054346],[121.499664,25.054428],[121.49949,25.054501],[121.499312,25.054565],[121.49913,25.054621],[121.498945,25.054667],[121.498757,25.054704],[121.498568,25.054732],[121.498377,25.05475],[121.498185,25.054758],[121.497993,25.054757],[121.497802,25.054747],[121.497619,25.054728],[121.497438,25.0547],[121.497258,25.054664],[121.497084,25.05461],[121.49691,25.054557],[121.496739,25.054495],[121.496572,25.054425],[121.49641,25.054344],[121.496255,25.054256],[121.496101,25.054163],[121.495954,25.054063],[121.495813,25.053957],[121.495677,25.053855],[121.494972,25.053271]]}},{"type":"Feature","id":"w198199155","properties":{"kind":"line","mode":"subway","name":"捷運板南線","name_en":"MRT Bannan Line","network":"台北捷運","operator":"臺北大眾捷運股份有限公司"},"geometry":{"type":"LineString","coordinates":[[121.508836,25.043601],[121.508852,25.043654],[121.509009,25.044193],[121.509299,25.04521],[121.509577,25.046162],[121.509683,25.04646],[121.509771,25.046643],[121.509853,25.046777],[121.509959,25.046913],[121.510076,25.047055],[121.510364,25.047295],[121.510565,25.047416],[121.510714,25.047496],[121.510894,25.047568],[121.511083,25.047621],[121.51124,25.047657],[121.511398,25.047676],[121.51154,25.047686],[121.511688,25.047688],[121.511768,25.047682],[121.511866,25.047674],[121.511991,25.047657],[121.512121,25.047634],[121.512281,25.047598],[121.512507,25.047526],[121.512747,25.047436],[121.513959,25.046998],[121.514436,25.046849],[121.515152,25.04667],[121.515694,25.046534],[121.517772,25.046031],[121.517852,25.046011],[121.518168,25.045933],[121.518353,25.045888],[121.518482,25.045854],[121.51879,25.045762],[121.518899,25.045724],[121.51908,25.045657]]}},{"type":"Feature","id":"w198199169","properties":{"kind":"line","mode":"subway","name":"捷運板南線","name_en":"MRT Bannan Line","network":"台北捷運","operator":"臺北大眾捷運股份有限公司"},"geometry":{"type":"LineString","coordinates":[[121.498352,25.035369],[121.499582,25.035328],[121.500427,25.035305],[121.50097,25.03529],[121.501112,25.035285],[121.501318,25.03528],[121.502218,25.035241],[121.502731,25.03523],[121.503238,25.035217],[121.503297,25.035215],[121.503977,25.035203],[121.504326,25.035231],[121.504612,25.035282],[121.504932,25.035358],[121.505289,25.035498],[121.505503,25.035597],[121.505911,25.035843],[121.506293,25.036148],[121.506548,25.036439],[121.506714,25.036665],[121.506834,25.036874]]}},{"type":"Feature","id":"w198199170","properties":{"kind":"line","mode":"subway","name":"捷運板南線","name_en":"MRT Bannan Line","network":"台北捷運","operator":"臺北大眾捷運股份有限公司"},"geometry":{"type":"LineString","coordinates":[[121.498597,25.035239],[121.499572,25.035208],[121.501491,25.035153],[121.502045,25.03514],[121.502696,25.035124],[121.503038,25.035113],[121.503801,25.035089],[121.50428,25.035094],[121.504459,25.035111],[121.504662,25.03514],[121.504937,25.035198],[121.505287,25.035306],[121.505566,25.035421],[121.505818,25.035559],[121.505948,25.035637],[121.506243,25.035843],[121.506507,25.036082],[121.506707,25.036312],[121.506847,25.036502],[121.506958,25.036679],[121.507044,25.036845]]}},{"type":"Feature","id":"w198199171","properties":{"kind":"line","mode":"subway","name":"捷運板南線","name_en":"MRT Bannan Line","network":"台北捷運","operator":"臺北大眾捷運股份有限公司"},"geometry":{"type":"LineString","coordinates":[[121.506834,25.036874],[121.50692,25.037038],[121.507003,25.037233],[121.507064,25.037406],[121.50714,25.037654],[121.507283,25.038154],[121.507473,25.03882],[121.507707,25.039672],[121.50795,25.040523],[121.508577,25.042724],[121.508804,25.043489],[121.508852,25.043649],[121.508852,25.043654],[121.509005,25.044193],[121.509296,25.045211],[121.5094,25.045572],[121.50957,25.046162],[121.509676,25.046462],[121.509765,25.046646],[121.509848,25.046782],[121.50995,25.046923],[121.510076,25.047059],[121.510362,25.0473],[121.510561,25.047428],[121.510706,25.047504],[121.510886,25.047577],[121.511078,25.047636],[121.511236,25.047668],[121.511396,25.047689],[121.511538,25.047699],[121.511685,25.047699],[121.511772,25.047694],[121.511868,25.047686],[121.51199,25.047669],[121.512123,25.047647],[121.512282,25.047608],[121.512783,25.047477],[121.51401,25.047153],[121.514921,25.046909],[121.515959,25.046645],[121.517643,25.046232],[121.518358,25.046067],[121.51845,25.046044],[121.518693,25.045976],[121.519068,25.045857],[121.519222,25.0458],[121.51938,25.045748],[121.519478,25.045712],[121.519648,25.04566],[121.519971,25.045566],[121.519997,25.04556],[121.520262,25.045502],[121.520481,25.045463],[121.520526,25.045455],[121.520738,25.045423],[121.521055,25.045374],[121.521326,25.045326],[121.521531,25.045284],[121.521925,25.045198],[121.522542,25.045055],[121.524396,25.044626],[121.524854,25.044519],[121.525148,25.044448],[121.525753,25.04431],[121.526408,25.044162],[121.526857,25.044054],[121.527554,25.043877],[121.527818,25.043808],[121.527889,25.043789],[121.528416,25.043634],[121.53057,25.042993],[121.531295,25.042796],[121.532032,25.042621],[121.532845,25.042446],[121.533866,25.042226]]}},{"type":"Feature","id":"w198199174","properties":{"kind":"line","mode":"subway","name":"捷運板南線","name_en":"MRT Bannan Line","network":"台北捷運","operator":"臺北大眾捷運股份有限公司"},"geometry":{"type":"LineString","coordinates":[[121.483697,25.036246],[121.488269,25.03613],[121.489558,25.03613],[121.490322,25.036101],[121.491254,25.036004],[121.492358,25.035878],[121.493356,25.035761],[121.494189,25.035703],[121.494687,25.035693],[121.495725,25.035669],[121.496036,25.035646],[121.496337,25.035613],[121.496824,25.035538],[121.497451,25.035435],[121.497906,25.035387],[121.498352,25.035369]]}},{"type":"Feature","id":"w198199183","properties":{"kind":"line","mode":"subway","name":"捷運板南線","name_en":"MRT Bannan Line","network":"台北捷運","operator":"臺北大眾捷運股份有限公司"},"geometry":{"type":"LineString","coordinates":[[121.51908,25.045657],[121.51935,25.045559],[121.519557,25.045482],[121.519738,25.045427],[121.520022,25.045361],[121.520122,25.045339],[121.520184,25.045329],[121.520329,25.045308],[121.520432,25.045299],[121.520758,25.045262],[121.521006,25.045237],[121.521138,25.045219],[121.52134,25.045191],[121.521512,25.045162],[121.521548,25.045154],[121.52223,25.044993],[121.522474,25.044944],[121.523468,25.04471],[121.524326,25.044516]]}},{"type":"Feature","id":"w198199190","properties":{"kind":"line","mode":"subway","name":"板南線","name_en":"Bannan line","network":"台北捷運","operator":"臺北大眾捷運股份有限公司"},"geometry":{"type":"LineString","coordinates":[[121.524326,25.044516],[121.525128,25.044324],[121.526307,25.044055],[121.526763,25.043951],[121.527573,25.043741],[121.528318,25.04353],[121.529905,25.043062],[121.530582,25.042862],[121.531145,25.042708],[121.531483,25.042622],[121.532068,25.042489],[121.53284,25.042322],[121.533639,25.042149]]}},{"type":"Feature","id":"w198199196","properties":{"kind":"line","mode":"subway","name":"板南線","name_en":"Bannan line","network":"台北捷運","operator":"臺北大眾捷運股份有限公司"},"geometry":{"type":"LineString","coordinates":[[121.507044,25.036845],[121.507111,25.036989],[121.507169,25.037139],[121.507243,25.037377],[121.507305,25.03764],[121.507408,25.038176],[121.507684,25.039556],[121.507957,25.040518],[121.508587,25.042721],[121.508804,25.043489],[121.508836,25.043601]]}},{"type":"Feature","id":"w198281375","properties":{"kind":"line","mode":"subway","name":"中和新蘆線","name_en":"Zhonghe–Xinlu line","network":"台北捷運","operator":"臺北大眾捷運股份有限公司"},"geometry":{"type":"LineString","coordinates":[[121.529466,25.062651],[121.529984,25.062666],[121.530372,25.062701],[121.530911,25.06276],[121.531125,25.062778],[121.531314,25.062787],[121.531519,25.062776],[121.531713,25.062749],[121.531888,25.062705],[121.532035,25.062661],[121.532312,25.06254],[121.532476,25.062441],[121.532634,25.062326],[121.532794,25.062179],[121.532963,25.061979],[121.533062,25.061822],[121.533109,25.061737],[121.533169,25.061607],[121.533212,25.061482],[121.533252,25.061342],[121.533279,25.061179],[121.533288,25.061043],[121.533287,25.060887],[121.533238,25.059384],[121.533159,25.054215],[121.533146,25.052969],[121.533129,25.052011],[121.533114,25.051165],[121.533082,25.049144],[121.533071,25.04721],[121.533034,25.04354],[121.532996,25.042203],[121.532912,25.040792]]}},{"type":"Feature","id":"w198281383","properties":{"kind":"line","mode":"subway","name":"捷運中和新蘆線","name_en":"MRT Zhonghe-Xinlu Line","network":"台北捷運","operator":"臺北大眾捷運股份有限公司"},"geometry":{"type":"LineString","coordinates":[[121.482647,25.05548],[121.483514,25.055659],[121.484558,25.055879],[121.485329,25.056064],[121.485826,25.05624],[121.486305,25.056414],[121.486531,25.056512],[121.486622,25.056559],[121.486712,25.056608],[121.486924,25.05672],[121.487051,25.056797],[121.487559,25.057128],[121.488522,25.057805],[121.489481,25.05847],[121.490347,25.059127],[121.492059,25.060314],[121.492603,25.060665],[121.493104,25.061027],[121.493299,25.061147],[121.493542,25.061239],[121.493703,25.061279],[121.494609,25.061421],[121.49557,25.061587]]}},{"type":"Feature","id":"w198281388","properties":{"kind":"line","mode":"subway","name":"捷運中和新蘆線","name_en":"MRT Zhonghe-Xinlu Line","network":"台北捷運","operator":"臺北大眾捷運股份有限公司"},"geometry":{"type":"LineString","coordinates":[[121.482687,25.05534],[121.483547,25.055516],[121.483955,25.055568],[121.485431,25.055904],[121.485838,25.056094],[121.486327,25.056374],[121.486554,25.056472],[121.486737,25.056569],[121.486951,25.056682],[121.487079,25.05676],[121.487589,25.057092],[121.488552,25.05777],[121.489386,25.058347],[121.489511,25.058434],[121.490437,25.05902],[121.492159,25.060222],[121.492673,25.060587],[121.493134,25.060992],[121.493323,25.061107],[121.493559,25.061196],[121.493714,25.061235],[121.494618,25.061376],[121.49559,25.061545],[121.496085,25.06162],[121.496395,25.061678],[121.49665,25.06174],[121.496993,25.061846],[121.497909,25.062189],[121.498362,25.062353],[121.499903,25.062948],[121.500562,25.063159],[121.501678,25.063591],[121.501947,25.063705],[121.502206,25.063827],[121.502411,25.063944],[121.502598,25.064057],[121.502848,25.064186],[121.5031,25.064293]]}},{"type":"Feature","id":"w198281391","properties":{"kind":"line","mode":"subway","name":"捷運中和新蘆線","name_en":"MRT Zhonghe-Xinlu Line","network":"台北捷運","operator":"臺北大眾捷運股份有限公司"},"geometry":{"type":"LineString","coordinates":[[121.519279,25.062977],[121.519574,25.062971],[121.520642,25.062945],[121.521848,25.062891],[121.524051,25.062793],[121.524562,25.062779],[121.526396,25.06273],[121.526603,25.062726],[121.529466,25.062651]]}},{"type":"Feature","id":"w198281393","properties":{"kind":"line","mode":"subway","name":"捷運中和新蘆線","name_en":"MRT Zhonghe-Xinlu Line","network":"台北捷運","operator":"臺北大眾捷運股份有限公司"},"geometry":{"type":"LineString","coordinates":[[121.51928,25.062836],[121.519611,25.062825],[121.520512,25.062797],[121.522016,25.06275],[121.524601,25.06267],[121.526397,25.062624],[121.526601,25.062617],[121.52893,25.062551],[121.530099,25.062551],[121.530484,25.062552],[121.530746,25.062535],[121.53103,25.062494],[121.53129,25.062429]]}},{"type":"Feature","id":"w198281395","properties":{"kind":"line","mode":"subway","name":"捷運中和新蘆線","name_en":"MRT Zhonghe-Xinlu Line","network":"台北捷運","operator":"臺北大眾捷運股份有限公司"},"geometry":{"type":"LineString","coordinates":[[121.503096,25.064307],[121.50332,25.064379],[121.503458,25.064408],[121.503602,25.064429],[121.503754,25.06444],[121.504148,25.064451],[121.505167,25.064392]]}},{"type":"Feature","id":"w198281398","properties":{"kind":"line","mode":"subway","name":"捷運中和新蘆線","name_en":"MRT Zhonghe-Xinlu Line","network":"台北捷運","operator":"臺北大眾捷運股份有限公司"},"geometry":{"type":"LineString","coordinates":[[121.5031,25.064293],[121.503324,25.064361],[121.50347,25.064394],[121.503606,25.064411],[121.503755,25.064426],[121.50415,25.064434],[121.505164,25.064381]]}},{"type":"Feature","id":"w198281408","properties":{"kind":"line","mode":"subway","name":"捷運中和新蘆線","name_en":"MRT Zhonghe-Xinlu Line","network":"台北捷運","operator":"臺北大眾捷運股份有限公司"},"geometry":{"type":"LineString","coordinates":[[121.508857,25.063857],[121.506837,25.064153],[121.505164,25.064381]]}},{"type":"Feature","id":"w198281409","properties":{"kind":"line","mode":"subway","name":"捷運中和新蘆線","name_en":"MRT Zhonghe-Xinlu Line","network":"台北捷運","operator":"臺北大眾捷運股份有限公司"},"geometry":{"type":"LineString","coordinates":[[121.505164,25.064381],[121.504206,25.064517],[121.504022,25.064575],[121.503851,25.064636]]}},{"type":"Feature","id":"w198281411","properties":{"kind":"line","mode":"subway","name":"捷運中和新蘆線","name_en":"MRT Zhonghe-Xinlu Line","network":"台北捷運","operator":"臺北大眾捷運股份有限公司"},"geometry":{"type":"LineString","coordinates":[[121.503851,25.064636],[121.503762,25.06467],[121.503671,25.064702],[121.503583,25.064745],[121.503515,25.064787],[121.503451,25.064829],[121.50303,25.065191],[121.502553,25.065609],[121.502062,25.066059],[121.501644,25.06639],[121.501235,25.066786],[121.500656,25.067325],[121.500091,25.067816],[121.499562,25.06831],[121.498788,25.068926],[121.497262,25.069969],[121.495754,25.071017],[121.494452,25.071927],[121.492007,25.073631],[121.490697,25.074406],[121.488032,25.075765],[121.486348,25.076753],[121.484159,25.078015],[121.483238,25.078553],[121.482412,25.079022],[121.48115,25.07975],[121.480576,25.080097],[121.480203,25.080294],[121.479768,25.080527],[121.479446,25.080705],[121.479139,25.080841],[121.47887,25.080924],[121.478514,25.081054],[121.477788,25.081251],[121.477081,25.081453],[121.476532,25.081563],[121.476282,25.081597],[121.476144,25.08165],[121.476091,25.081687],[121.476046,25.081745],[121.475965,25.081878],[121.475882,25.082101],[121.475572,25.082837],[121.475205,25.083678],[121.475122,25.083862],[121.474985,25.084041],[121.474848,25.084177],[121.474779,25.084253],[121.474429,25.084473],[121.473587,25.085196],[121.473243,25.085452],[121.472962,25.08567],[121.472529,25.086017],[121.471215,25.087155],[121.469787,25.088317],[121.468893,25.089067],[121.468486,25.089393],[121.468198,25.089633],[121.467811,25.0899],[121.467422,25.090129],[121.466256,25.090676],[121.46617,25.09072],[121.465403,25.091104],[121.465085,25.091263],[121.463801,25.091897]]}},{"type":"Feature","id":"w198281412","properties":{"kind":"line","mode":"subway","name":"捷運中和新蘆線","name_en":"MRT Zhonghe-Xinlu Line","network":"台北捷運","operator":"臺北大眾捷運股份有限公司"},"geometry":{"type":"LineString","coordinates":[[121.50886,25.06402],[121.508405,25.064072],[121.50788,25.064111],[121.507378,25.064147],[121.506844,25.064188],[121.505167,25.064392]]}},{"type":"Feature","id":"w198281413","properties":{"kind":"line","mode":"subway","name":"捷運中和新蘆線","name_en":"MRT Zhonghe-Xinlu Line","network":"台北捷運","operator":"臺北大眾捷運股份有限公司"},"geometry":{"type":"LineString","coordinates":[[121.51928,25.062836],[121.518283,25.062862],[121.516963,25.062895],[121.516745,25.062909],[121.516562,25.062926],[121.515874,25.063032],[121.515499,25.063093],[121.515168,25.06315],[121.514882,25.063195],[121.514656,25.063218],[121.51442,25.063232],[121.513634,25.063207],[121.5129,25.063174],[121.511778,25.063125],[121.511476,25.063117],[121.511302,25.063124],[121.511136,25.063141],[121.511013,25.063163],[121.510884,25.063194],[121.510801,25.063216],[121.510664,25.063262],[121.510592,25.063289],[121.510468,25.063336],[121.510324,25.063395],[121.509994,25.063531],[121.509705,25.063645],[121.509419,25.06374],[121.509132,25.063808],[121.508857,25.063857]]}},{"type":"Feature","id":"w199771198","properties":{"kind":"line","mode":"rail","name":"台灣高速鐵路","name_en":"Taiwan High Speed Rail","network":"台灣高鐵","operator":"台灣高速鐵路股份有限公司"},"geometry":{"type":"LineString","coordinates":[[121.506607,25.037005],[121.506321,25.03597],[121.50627,25.035785],[121.506204,25.035573],[121.506116,25.035364],[121.506057,25.035223],[121.50599,25.035085],[121.505915,25.034951],[121.505831,25.034821],[121.50574,25.034695],[121.505641,25.034574],[121.505536,25.034458],[121.505423,25.034347],[121.5053,25.034239],[121.50517,25.034137],[121.505034,25.034042],[121.504893,25.033954],[121.504746,25.033873],[121.504594,25.0338],[121.504438,25.033735],[121.504278,25.033678],[121.504115,25.03363],[121.504015,25.033604],[121.503912,25.03358],[121.503805,25.033556],[121.503507,25.033507],[121.502353,25.03336],[121.501527,25.033256],[121.499953,25.033144],[121.499597,25.033131],[121.497716,25.033113],[121.49754,25.033108],[121.497364,25.033094],[121.497188,25.033072],[121.497015,25.033041],[121.496844,25.033001],[121.496675,25.032953],[121.49651,25.032897],[121.496358,25.032838],[121.49621,25.032771],[121.496066,25.032698],[121.495926,25.032618],[121.49579,25.032532],[121.49566,25.03244],[121.495535,25.032342],[121.495415,25.032239],[121.491777,25.029001],[121.49159,25.028825],[121.491396,25.028656],[121.491196,25.028493],[121.49099,25.028336],[121.490778,25.028186],[121.490545,25.028032],[121.490307,25.027886],[121.490062,25.027748]]}},{"type":"Feature","id":"w199771199","properties":{"kind":"line","mode":"rail","name":"台灣高速鐵路","name_en":"Taiwan High Speed Rail","network":"台灣高鐵","operator":"台灣高速鐵路股份有限公司"},"geometry":{"type":"LineString","coordinates":[[121.50665,25.036996],[121.506365,25.03596],[121.506314,25.035775],[121.506246,25.03556],[121.506158,25.03535],[121.506098,25.035208],[121.50603,25.035068],[121.505954,25.034932],[121.505869,25.0348],[121.505777,25.034672],[121.505677,25.034549],[121.505569,25.034431],[121.505455,25.034319],[121.50533,25.034209],[121.505198,25.034106],[121.50506,25.034009],[121.504917,25.03392],[121.504768,25.033838],[121.504614,25.033764],[121.504456,25.033698],[121.504294,25.033641],[121.504128,25.033591],[121.504027,25.033565],[121.503923,25.033541],[121.503814,25.033517],[121.503514,25.033467],[121.502359,25.03332],[121.501532,25.033216],[121.499955,25.033104],[121.499598,25.033091],[121.497717,25.033073],[121.497542,25.033068],[121.497369,25.033054],[121.497196,25.033032],[121.497025,25.033001],[121.496856,25.032962],[121.49669,25.032915],[121.496526,25.03286],[121.496377,25.032801],[121.496231,25.032735],[121.496088,25.032663],[121.49595,25.032585],[121.495817,25.0325],[121.495688,25.032409],[121.495565,25.032312],[121.495446,25.03221],[121.491809,25.028972],[121.491621,25.028797],[121.491426,25.028627],[121.491225,25.028463],[121.491018,25.028305],[121.490805,25.028154],[121.490571,25.027999],[121.490331,25.027852],[121.490085,25.027713]]}},{"type":"Feature","id":"w199771201","properties":{"kind":"line","mode":"rail","name":"台灣高速鐵路","name_en":"Taiwan High Speed Rail","network":"台灣高鐵","operator":"台灣高速鐵路股份有限公司"},"geometry":{"type":"LineString","coordinates":[[121.506607,25.037005],[121.506736,25.037499],[121.506846,25.037875],[121.50733,25.039562],[121.507638,25.0406],[121.508218,25.042605],[121.509056,25.045617],[121.509302,25.046581],[121.50948,25.046962],[121.509536,25.047045]]}},{"type":"Feature","id":"w199771202","properties":{"kind":"line","mode":"rail","name":"台灣高速鐵路","name_en":"Taiwan High Speed Rail","network":"台灣高鐵","operator":"台灣高速鐵路股份有限公司"},"geometry":{"type":"LineString","coordinates":[[121.50959,25.047028],[121.509521,25.046931],[121.50935,25.046566],[121.5091,25.045608],[121.508743,25.04429],[121.50825,25.042592],[121.507671,25.040592],[121.50739,25.039548],[121.507339,25.039403]]}},{"type":"Feature","id":"w209147242","properties":{"kind":"line","mode":"subway","name":"桃園機場捷運","name_en":"Taoyuan Airport MRT","network":"桃園捷運","operator":null},"geometry":{"type":"LineString","coordinates":[[121.493313,25.051974],[121.492818,25.051573],[121.490225,25.049357],[121.489395,25.048668],[121.488767,25.048163],[121.488454,25.047928]]}},{"type":"Feature","id":"w209147243","properties":{"kind":"line","mode":"subway","name":"桃園機場捷運","name_en":"Taoyuan Airport MRT","network":"桃園捷運","operator":null},"geometry":{"type":"LineString","coordinates":[[121.493342,25.051945],[121.492839,25.051546],[121.490248,25.049328],[121.489431,25.048633],[121.488802,25.048126],[121.488499,25.047887]]}},{"type":"Feature","id":"w23416669","properties":{"kind":"line","mode":"subway","name":"捷運淡水信義線","name_en":"MRT Tamsui-Xinyi Line","network":"台北捷運","operator":"臺北大眾捷運股份有限公司"},"geometry":{"type":"LineString","coordinates":[[121.517646,25.033755],[121.517093,25.034493],[121.516311,25.035501],[121.516108,25.035831],[121.516063,25.035916],[121.515912,25.036206],[121.515759,25.036559],[121.515586,25.037106],[121.515508,25.037479],[121.515448,25.03793],[121.515434,25.038147],[121.515434,25.038515],[121.515453,25.038809],[121.515495,25.039128],[121.515568,25.039499],[121.515586,25.039576],[121.515598,25.039626]]}},{"type":"Feature","id":"w23416670","properties":{"kind":"line","mode":"subway","name":"捷運中和新蘆線","name_en":"MRT Zhonghe-Xinlu Line","network":"台北捷運","operator":"臺北大眾捷運股份有限公司"},"geometry":{"type":"LineString","coordinates":[[121.521762,25.028279],[121.521824,25.028111],[121.52205,25.027776],[121.522252,25.027483],[121.522796,25.026753],[121.52333,25.026042],[121.524293,25.02467],[121.524483,25.02442]]}},{"type":"Feature","id":"w24836700","properties":{"kind":"line","mode":"subway","name":"捷運松山新店線","name_en":"MRT Songshan-Xindian Line","network":"台北捷運","operator":"臺北大眾捷運股份有限公司"},"geometry":{"type":"LineString","coordinates":[[121.518331,25.032489],[121.518844,25.031812],[121.518949,25.031671],[121.519089,25.031486],[121.519806,25.030535],[121.521261,25.028595]]}},{"type":"Feature","id":"w25202572","properties":{"kind":"line","mode":"subway","name":"捷運淡水信義線","name_en":"MRT Tamsui-Xinyi Line","network":"台北捷運","operator":"臺北大眾捷運股份有限公司"},"geometry":{"type":"LineString","coordinates":[[121.519099,25.064667],[121.519386,25.066097]]}},{"type":"Feature","id":"w265001845","properties":{"kind":"line","mode":"rail","name":"台灣高速鐵路","name_en":"Taiwan High Speed Rail","network":"台灣高鐵","operator":"台灣高速鐵路股份有限公司"},"geometry":{"type":"LineString","coordinates":[[121.507339,25.039403],[121.506901,25.037865],[121.506782,25.037492],[121.50665,25.036996]]}},{"type":"Feature","id":"w266862892","properties":{"kind":"line","mode":"subway","name":"捷運淡水信義線","name_en":"MRT Tamsui-Xinyi Line","network":"台北捷運","operator":"臺北大眾捷運股份有限公司"},"geometry":{"type":"LineString","coordinates":[[121.518368,25.032789],[121.517646,25.033755]]}},{"type":"Feature","id":"w266862893","properties":{"kind":"line","mode":"subway","name":null,"name_en":null,"network":null,"operator":null},"geometry":{"type":"LineString","coordinates":[[121.518367,25.032779],[121.518824,25.031821]]}},{"type":"Feature","id":"w299401470","properties":{"kind":"line","mode":"subway","name":"捷運中和新蘆線","name_en":"MRT Zhonghe-Xinlu Line","network":"台北捷運","operator":"臺北大眾捷運股份有限公司"},"geometry":{"type":"LineString","coordinates":[[121.49557,25.061587],[121.496076,25.061664],[121.496383,25.061722],[121.496635,25.061783],[121.496975,25.061888],[121.497891,25.062231],[121.498343,25.062394],[121.499904,25.062963],[121.500556,25.063165],[121.501671,25.063603],[121.50194,25.063718],[121.502197,25.063843],[121.502401,25.063958],[121.502594,25.064065],[121.50284,25.064201],[121.503096,25.064307]]}},{"type":"Feature","id":"w315886314","properties":{"kind":"line","mode":"subway","name":"捷運中和新蘆線","name_en":"MRT Zhonghe-Xinlu Line","network":"台北捷運","operator":"臺北大眾捷運股份有限公司"},"geometry":{"type":"LineString","coordinates":[[121.505167,25.064392],[121.504211,25.064529],[121.504029,25.06459],[121.503861,25.064653],[121.503773,25.064688],[121.503673,25.06473],[121.503596,25.064774],[121.50352,25.064821],[121.503449,25.064873],[121.503054,25.065214],[121.502577,25.065631],[121.502086,25.066082],[121.501677,25.066421],[121.501257,25.066829],[121.500698,25.067354],[121.500152,25.067857],[121.499605,25.068345],[121.498862,25.069013],[121.497333,25.070044],[121.496522,25.070606],[121.496023,25.070938],[121.495808,25.071081],[121.494493,25.071989],[121.492035,25.073654],[121.490708,25.074435],[121.488124,25.075895],[121.486409,25.076858],[121.484234,25.078109],[121.483306,25.078629],[121.482453,25.079083],[121.481187,25.079787],[121.480672,25.080197],[121.480295,25.080397],[121.479899,25.080612],[121.479345,25.080908],[121.47922,25.080948],[121.478936,25.081051],[121.478545,25.081147],[121.477809,25.081314],[121.477089,25.081484],[121.476546,25.081599],[121.476291,25.081653],[121.47619,25.08168],[121.476121,25.081711],[121.476074,25.081764],[121.475997,25.081891],[121.475915,25.082111],[121.475604,25.082849],[121.475252,25.083693],[121.475152,25.08388],[121.475013,25.084054],[121.474876,25.084196],[121.474804,25.084275],[121.474521,25.084565],[121.473681,25.085295],[121.473356,25.085564],[121.473038,25.085794],[121.472617,25.086114],[121.471238,25.087179],[121.469798,25.088358],[121.468909,25.089093],[121.46851,25.089422],[121.468214,25.089657],[121.467836,25.089927],[121.467453,25.090149],[121.466386,25.090718],[121.466223,25.090802],[121.465454,25.0912],[121.465128,25.091368],[121.463847,25.092008]]}},{"type":"Feature","id":"w323105864","properties":{"kind":"line","mode":"rail","name":"台灣高速鐵路","name_en":"Taiwan High Speed Rail","network":"台灣高鐵","operator":"台灣高速鐵路股份有限公司"},"geometry":{"type":"LineString","coordinates":[[121.514795,25.048005],[121.514359,25.048087],[121.513008,25.048326],[121.512783,25.048355],[121.512306,25.048404],[121.512139,25.048406],[121.511972,25.0484],[121.511806,25.048385],[121.511641,25.048362],[121.511478,25.04833],[121.511317,25.04829],[121.511159,25.048242],[121.511004,25.048186],[121.510844,25.048118],[121.510689,25.048042],[121.510539,25.047958],[121.510395,25.047865],[121.510257,25.047766],[121.510127,25.047658],[121.510003,25.047544],[121.509887,25.047424],[121.509779,25.047297],[121.50968,25.047165],[121.50959,25.047028]]}},{"type":"Feature","id":"w381111230","properties":{"kind":"line","mode":"rail","name":"台灣高速鐵路","name_en":"Taiwan High Speed Rail","network":"台灣高鐵","operator":"台灣高速鐵路股份有限公司"},"geometry":{"type":"LineString","coordinates":[[121.520115,25.047142],[121.520377,25.047093],[121.520572,25.047055],[121.520691,25.04703],[121.521171,25.046939],[121.52176,25.046827],[121.521784,25.046823],[121.522141,25.04673],[121.523828,25.046315],[121.525105,25.046028],[121.525991,25.045846],[121.526387,25.045786],[121.526716,25.045761],[121.52687,25.045746],[121.527408,25.045744],[121.528805,25.045752],[121.52981,25.045762],[121.530305,25.045768],[121.530768,25.04576],[121.531235,25.045734],[121.531525,25.045704],[121.531831,25.04566],[121.532073,25.045619],[121.532309,25.045571],[121.532814,25.045454],[121.534047,25.045094],[121.534354,25.045011],[121.534664,25.044934],[121.534941,25.04488],[121.535309,25.044817],[121.53568,25.044773],[121.540628,25.044513],[121.541189,25.044521],[121.541776,25.044561],[121.543605,25.044781],[121.543913,25.044823],[121.545159,25.044973],[121.545567,25.045005],[121.545931,25.045022],[121.546286,25.045023],[121.54686,25.045005],[121.547379,25.044959],[121.550887,25.044578],[121.552569,25.044391],[121.552678,25.044382],[121.552787,25.044373],[121.553017,25.044359],[121.553275,25.044353],[121.55351,25.044352],[121.553752,25.044363],[121.554025,25.04438],[121.554244,25.044406],[121.554513,25.044441],[121.554821,25.04449],[121.555095,25.044541],[121.55549,25.044618],[121.55607,25.044722],[121.556742,25.044853],[121.557263,25.044954],[121.557558,25.045022],[121.558072,25.045161],[121.558465,25.045287],[121.559057,25.045503],[121.560709,25.046226],[121.563104,25.047274],[121.563729,25.047511],[121.564394,25.047743],[121.565749,25.048218],[121.566304,25.048392],[121.567038,25.048583],[121.568453,25.048913],[121.569462,25.049106],[121.570153,25.049205],[121.570534,25.049245],[121.571232,25.049294],[121.572117,25.049302],[121.573133,25.049288],[121.575156,25.049268],[121.575745,25.049259],[121.576552,25.049229],[121.577417,25.049178],[121.577558,25.04917],[121.577658,25.049168],[121.579881,25.049139],[121.58068,25.049139],[121.581128,25.049155],[121.581679,25.049203],[121.582117,25.049259],[121.582672,25.049361],[121.58368,25.049571],[121.584528,25.049719],[121.585727,25.049897],[121.590164,25.050606],[121.599424,25.05205],[121.601139,25.052264]]}},{"type":"Feature","id":"w542501100","properties":{"kind":"line","mode":"rail","name":"台北車站通過線（臺鐵）","name_en":null,"network":null,"operator":"國營臺灣鐵路股份有限公司"},"geometry":{"type":"LineString","coordinates":[[121.521911,25.046844],[121.521056,25.047005],[121.521017,25.047013],[121.520011,25.047205],[121.519004,25.047391],[121.515428,25.048005],[121.515009,25.048081],[121.514685,25.048137],[121.514295,25.048204],[121.513939,25.048265],[121.513704,25.048305]]}},{"type":"Feature","id":"w593866771","properties":{"kind":"line","mode":"rail","name":"台灣高速鐵路","name_en":"Taiwan High Speed Rail","network":"台灣高鐵","operator":"台灣高速鐵路股份有限公司"},"geometry":{"type":"LineString","coordinates":[[121.577555,25.049129],[121.577414,25.049136],[121.576551,25.049184],[121.575744,25.04922],[121.57313,25.049251],[121.572349,25.049257],[121.572113,25.049261],[121.57118,25.049249],[121.570639,25.049212],[121.570145,25.049164],[121.568464,25.048871],[121.567061,25.048542],[121.566324,25.048356],[121.565765,25.048173],[121.5644,25.047695],[121.563733,25.047462],[121.56312,25.047229],[121.560725,25.046188],[121.559075,25.045466],[121.558476,25.045247],[121.558084,25.045121],[121.55757,25.044978],[121.557274,25.04491],[121.556753,25.044809],[121.55608,25.044678],[121.5555,25.044574],[121.555106,25.044497],[121.55483,25.044446],[121.554521,25.044396],[121.55425,25.044361],[121.55403,25.044335],[121.553755,25.044318],[121.553511,25.044307],[121.553275,25.044308],[121.553011,25.044318],[121.55279,25.044331],[121.552672,25.04434],[121.552567,25.044346],[121.550882,25.044535],[121.547373,25.044916],[121.546857,25.044961],[121.546285,25.04498],[121.545932,25.044978],[121.545571,25.044961],[121.545164,25.04493],[121.54392,25.04478],[121.543612,25.044743],[121.54178,25.044516],[121.541189,25.044476],[121.54063,25.044468],[121.536316,25.044682],[121.53579,25.044721],[121.5353,25.044774],[121.534977,25.044829],[121.534656,25.044891],[121.534345,25.044968],[121.534041,25.04505],[121.532809,25.045409],[121.532475,25.045492],[121.53231,25.04553],[121.532157,25.045561],[121.531844,25.045615],[121.531524,25.045661],[121.531486,25.045664],[121.531043,25.045704],[121.530614,25.045723],[121.53023,25.045726],[121.529882,25.045723],[121.528265,25.045707],[121.527605,25.045701],[121.527374,25.045705],[121.527051,25.045706],[121.52671,25.045717],[121.526355,25.045751],[121.526046,25.045796],[121.525855,25.045831],[121.525098,25.045985],[121.521763,25.046786],[121.521697,25.046799],[121.521139,25.046909],[121.520938,25.046952],[121.520525,25.047026],[121.52016,25.047088],[121.520096,25.047099],[121.519592,25.047151]]}},{"type":"Feature","id":"w593871105","properties":{"kind":"line","mode":"rail","name":"台灣高速鐵路","name_en":"Taiwan High Speed Rail","network":"台灣高鐵","operator":"台灣高速鐵路股份有限公司"},"geometry":{"type":"LineString","coordinates":[[121.513406,25.048304],[121.513008,25.048326]]}},{"type":"Feature","id":"w593871117","properties":{"kind":"line","mode":"rail","name":"台灣高速鐵路","name_en":"Taiwan High Speed Rail","network":"台灣高鐵","operator":"台灣高速鐵路股份有限公司"},"geometry":{"type":"LineString","coordinates":[[121.514359,25.048087],[121.514046,25.048195]]}},{"type":"Feature","id":"w593871135","properties":{"kind":"line","mode":"rail","name":"台灣高速鐵路","name_en":"Taiwan High Speed Rail","network":"台灣高鐵","operator":"台灣高速鐵路股份有限公司"},"geometry":{"type":"LineString","coordinates":[[121.520938,25.046952],[121.520691,25.04703],[121.52016,25.047088]]}},{"type":"Feature","id":"w593871144","properties":{"kind":"line","mode":"rail","name":"台灣高速鐵路","name_en":"Taiwan High Speed Rail","network":"台灣高鐵","operator":"台灣高速鐵路股份有限公司"},"geometry":{"type":"LineString","coordinates":[[121.522141,25.04673],[121.521763,25.046786]]}},{"type":"Feature","id":"w593871149","properties":{"kind":"line","mode":"rail","name":"台灣高速鐵路","name_en":"Taiwan High Speed Rail","network":"台灣高鐵","operator":"台灣高速鐵路股份有限公司"},"geometry":{"type":"LineString","coordinates":[[121.519592,25.047151],[121.518818,25.047239],[121.518466,25.047283],[121.518355,25.047298],[121.518081,25.047344],[121.517912,25.047373],[121.51694,25.047537],[121.516578,25.047598],[121.51611,25.047679],[121.515894,25.047724],[121.515709,25.047772],[121.514795,25.048005]]}},{"type":"Feature","id":"w615600478","properties":{"kind":"line","mode":"rail","name":"台灣高速鐵路","name_en":"Taiwan High Speed Rail","network":"台灣高鐵","operator":"台灣高速鐵路股份有限公司"},"geometry":{"type":"LineString","coordinates":[[121.516948,25.047588],[121.518402,25.04734],[121.518541,25.04732],[121.518817,25.047287],[121.520115,25.047142]]}},{"type":"Feature","id":"w615600481","properties":{"kind":"line","mode":"rail","name":"台灣高速鐵路","name_en":"Taiwan High Speed Rail","network":"台灣高鐵","operator":"台灣高速鐵路股份有限公司"},"geometry":{"type":"LineString","coordinates":[[121.51479,25.048055],[121.515313,25.047921],[121.515744,25.047809],[121.516104,25.047731],[121.516948,25.047588]]}},{"type":"Feature","id":"w615600482","properties":{"kind":"line","mode":"rail","name":"縱貫線東正線","name_en":null,"network":null,"operator":"國營臺灣鐵路股份有限公司"},"geometry":{"type":"LineString","coordinates":[[121.520189,25.047218],[121.52074,25.047109],[121.521024,25.047053],[121.521399,25.04696],[121.521911,25.046844],[121.523964,25.046346]]}},{"type":"Feature","id":"w615600483","properties":{"kind":"line","mode":"rail","name":"縱貫線東正線","name_en":null,"network":null,"operator":"國營臺灣鐵路股份有限公司"},"geometry":{"type":"LineString","coordinates":[[121.512377,25.048506],[121.512787,25.048459],[121.513142,25.0484],[121.513173,25.048395]]}},{"type":"Feature","id":"w615600484","properties":{"kind":"line","mode":"rail","name":"縱貫線西正線","name_en":null,"network":null,"operator":"國營臺灣鐵路股份有限公司"},"geometry":{"type":"LineString","coordinates":[[121.514623,25.048241],[121.51576,25.048212],[121.515938,25.048204],[121.516105,25.048187],[121.516258,25.048171],[121.516447,25.04814],[121.516766,25.048085],[121.517375,25.047983],[121.518438,25.0478],[121.51884,25.047709],[121.519332,25.047546],[121.52,25.047315]]}},{"type":"Feature","id":"w615600485","properties":{"kind":"line","mode":"rail","name":"縱貫線東正線","name_en":null,"network":null,"operator":"國營臺灣鐵路股份有限公司"},"geometry":{"type":"LineString","coordinates":[[121.514598,25.048194],[121.517338,25.04773],[121.520189,25.047218]]}},{"type":"Feature","id":"w615600486","properties":{"kind":"line","mode":"rail","name":"縱貫線西正線","name_en":null,"network":null,"operator":"國營臺灣鐵路股份有限公司"},"geometry":{"type":"LineString","coordinates":[[121.514623,25.048241],[121.515807,25.048125],[121.517358,25.047868],[121.518556,25.047669],[121.518893,25.047603],[121.519107,25.04755],[121.52,25.047315]]}},{"type":"Feature","id":"w619251066","properties":{"kind":"line","mode":"subway","name":null,"name_en":null,"network":null,"operator":null},"geometry":{"type":"LineString","coordinates":[[121.511455,25.049645],[121.511676,25.04955],[121.511762,25.049507],[121.511859,25.04946],[121.512049,25.049375]]}},{"type":"Feature","id":"w619251067","properties":{"kind":"line","mode":"subway","name":null,"name_en":null,"network":null,"operator":null},"geometry":{"type":"LineString","coordinates":[[121.512054,25.049427],[121.511859,25.049483],[121.511762,25.049507],[121.511658,25.049534],[121.511434,25.049598]]}},{"type":"Feature","id":"w865641460","properties":{"kind":"line","mode":"subway","name":"捷運淡水信義線","name_en":"MRT Tamsui-Xinyi Line","network":"台北捷運","operator":"臺北大眾捷運股份有限公司"},"geometry":{"type":"LineString","coordinates":[[121.519431,25.066621],[121.519396,25.066407],[121.519341,25.066104]]}},{"type":"Feature","id":"w865641461","properties":{"kind":"line","mode":"subway","name":"捷運淡水信義線","name_en":"MRT Tamsui-Xinyi Line","network":"台北捷運","operator":"臺北大眾捷運股份有限公司"},"geometry":{"type":"LineString","coordinates":[[121.519386,25.066097],[121.519449,25.066418],[121.519484,25.066624]]}},{"type":"Feature","id":"w865642192","properties":{"kind":"line","mode":"subway","name":"桃園機場捷運","name_en":"Taoyuan Airport MRT","network":"桃園捷運","operator":null},"geometry":{"type":"LineString","coordinates":[[121.49494,25.053311],[121.493794,25.052398]]}},{"type":"Feature","id":"w865642193","properties":{"kind":"line","mode":"subway","name":"桃園機場捷運","name_en":"Taoyuan Airport MRT","network":"桃園捷運","operator":null},"geometry":{"type":"LineString","coordinates":[[121.494972,25.053271],[121.493832,25.052363]]}},{"type":"Feature","id":"w865642194","properties":{"kind":"line","mode":"subway","name":"桃園機場捷運","name_en":"Taoyuan Airport MRT","network":"桃園捷運","operator":null},"geometry":{"type":"LineString","coordinates":[[121.493794,25.052398],[121.493313,25.051974]]}},{"type":"Feature","id":"w865642195","properties":{"kind":"line","mode":"subway","name":"桃園機場捷運","name_en":"Taoyuan Airport MRT","network":"桃園捷運","operator":null},"geometry":{"type":"LineString","coordinates":[[121.493832,25.052363],[121.493342,25.051945]]}},{"type":"Feature","id":"w871108521","properties":{"kind":"line","mode":"rail","name":null,"name_en":null,"network":null,"operator":null},"geometry":{"type":"LineString","coordinates":[[121.52074,25.047109],[121.520269,25.047243]]}},{"type":"Feature","id":"w871108522","properties":{"kind":"line","mode":"rail","name":"台灣高速鐵路","name_en":"Taiwan High Speed Rail","network":"台灣高鐵","operator":"台灣高速鐵路股份有限公司"},"geometry":{"type":"LineString","coordinates":[[121.521171,25.046939],[121.521697,25.046799]]}},{"type":"Feature","id":"w871108523","properties":{"kind":"line","mode":"rail","name":null,"name_en":null,"network":null,"operator":"國營臺灣鐵路股份有限公司"},"geometry":{"type":"LineString","coordinates":[[121.521641,25.046942],[121.521024,25.047053]]}},{"type":"Feature","id":"w871112936","properties":{"kind":"line","mode":"rail","name":null,"name_en":null,"network":null,"operator":null},"geometry":{"type":"LineString","coordinates":[[121.502604,25.033539],[121.503187,25.033555]]}},{"type":"Feature","id":"w871112937","properties":{"kind":"line","mode":"rail","name":null,"name_en":null,"network":null,"operator":"國營臺灣鐵路股份有限公司"},"geometry":{"type":"LineString","coordinates":[[121.513173,25.048395],[121.513261,25.048386],[121.513356,25.048377],[121.513647,25.048349],[121.51366,25.048347],[121.513705,25.048346]]}},{"type":"Feature","id":"w871112938","properties":{"kind":"line","mode":"rail","name":null,"name_en":null,"network":null,"operator":"國營臺灣鐵路股份有限公司"},"geometry":{"type":"LineString","coordinates":[[121.513177,25.04844],[121.513704,25.048305]]}},{"type":"Feature","id":"w871112939","properties":{"kind":"line","mode":"rail","name":"縱貫線東正線","name_en":null,"network":null,"operator":"國營臺灣鐵路股份有限公司"},"geometry":{"type":"LineString","coordinates":[[121.514,25.048298],[121.514079,25.048284],[121.514111,25.048278],[121.514232,25.048256],[121.51433,25.048238],[121.514598,25.048194]]}},{"type":"Feature","id":"w871168310","properties":{"kind":"line","mode":"subway","name":null,"name_en":null,"network":null,"operator":null},"geometry":{"type":"LineString","coordinates":[[121.513874,25.035361],[121.513631,25.035404],[121.513389,25.035448]]}},{"type":"Feature","id":"w871168311","properties":{"kind":"line","mode":"subway","name":null,"name_en":null,"network":null,"operator":null},"geometry":{"type":"LineString","coordinates":[[121.513381,25.0354],[121.513631,25.035404],[121.513877,25.035409]]}},{"type":"Feature","id":"w877532219","properties":{"kind":"line","mode":"subway","name":null,"name_en":null,"network":null,"operator":null},"geometry":{"type":"LineString","coordinates":[[121.520234,25.060502],[121.520161,25.060791],[121.520081,25.061193],[121.520003,25.061475]]}},{"type":"Feature","id":"w877532220","properties":{"kind":"line","mode":"subway","name":null,"name_en":null,"network":null,"operator":null},"geometry":{"type":"LineString","coordinates":[[121.519849,25.06144],[121.51994,25.061243],[121.52019,25.060847],[121.520385,25.060489]]}},{"type":"Feature","id":"w877532239","properties":{"kind":"line","mode":"rail","name":null,"name_en":null,"network":null,"operator":"國營臺灣鐵路股份有限公司"},"geometry":{"type":"LineString","coordinates":[[121.497943,25.033192],[121.498412,25.033254]]}}]}
