{"type":"FeatureCollection","name":"taoyuan transit","features":[{"type":"Feature","id":"n12192154326","properties":{"kind":"station","mode":"station","name":"桃花園飯店","name_en":null,"network":"桃園市市區公車","operator":null},"geometry":{"type":"Point","coordinates":[121.311218,24.98979]}},{"type":"Feature","id":"n12471024506","properties":{"kind":"station","mode":"station","name":"中壢客運桃園總站","name_en":null,"network":null,"operator":null},"geometry":{"type":"Point","coordinates":[121.312277,24.990376]}},{"type":"Feature","id":"n246416407","properties":{"kind":"station","mode":"train","name":"桃園","name_en":"Taoyuan","network":"臺鐵","operator":"國營臺灣鐵路股份有限公司"},"geometry":{"type":"Point","coordinates":[121.313777,24.988726]}},{"type":"Feature","id":"n3787601472","properties":{"kind":"station","mode":"station","name":"桃園火車站","name_en":null,"network":"桃園市市區公車","operator":null},"geometry":{"type":"Point","coordinates":[121.315486,24.98989]}},{"type":"Feature","id":"w1368780846","properties":{"kind":"line","mode":"rail","name":"縱貫線","name_en":"Western Trunk line","network":null,"operator":"國營臺灣鐵路股份有限公司"},"geometry":{"type":"LineString","coordinates":[[121.28368,24.983097],[121.284257,24.983173],[121.285385,24.983311],[121.288515,24.983715],[121.289721,24.983878],[121.293016,24.984284],[121.293694,24.984408],[121.296884,24.985333],[121.298178,24.9857]]}},{"type":"Feature","id":"w1368780847","properties":{"kind":"line","mode":"rail","name":"縱貫線","name_en":"Western Trunk line","network":null,"operator":"國營臺灣鐵路股份有限公司"},"geometry":{"type":"LineString","coordinates":[[121.298178,24.9857],[121.29823,24.985714]]}},{"type":"Feature","id":"w1368780848","properties":{"kind":"line","mode":"rail","name":"縱貫線","name_en":"West Coast Line","network":null,"operator":"國營臺灣鐵路股份有限公司"},"geometry":{"type":"LineString","coordinates":[[121.283685,24.983053],[121.284424,24.983146],[121.28913,24.983739],[121.289726,24.983825],[121.292328,24.984147],[121.293704,24.984364],[121.298194,24.985652]]}},{"type":"Feature","id":"w1368780849","properties":{"kind":"line","mode":"rail","name":"縱貫線","name_en":"West Coast Line","network":null,"operator":"國營臺灣鐵路股份有限公司"},"geometry":{"type":"LineString","coordinates":[[121.298194,24.985652],[121.298247,24.985667]]}},{"type":"Feature","id":"w197231532","properties":{"kind":"line","mode":"rail","name":"縱貫線","name_en":"West Coast Line","network":null,"operator":"國營臺灣鐵路股份有限公司"},"geometry":{"type":"LineString","coordinates":[[121.298247,24.985667],[121.300558,24.98633],[121.302623,24.986897],[121.303144,24.987023],[121.304073,24.987193],[121.30445,24.987236],[121.304727,24.987286],[121.304757,24.98729],[121.306206,24.987468],[121.306972,24.987565],[121.307621,24.987651],[121.308203,24.987718],[121.308873,24.987771],[121.309457,24.987821],[121.309853,24.987878],[121.310202,24.987941],[121.310865,24.988093],[121.312085,24.988347],[121.312902,24.988507],[121.313324,24.988589],[121.313748,24.988693],[121.313782,24.988703],[121.314574,24.988949],[121.315814,24.989444],[121.316035,24.989542],[121.316412,24.989701],[121.316696,24.989805],[121.316889,24.989862],[121.317063,24.989912],[121.317575,24.990052],[121.317956,24.990159],[121.318188,24.99022],[121.318472,24.990286],[121.318664,24.990315],[121.318857,24.990336],[121.319052,24.990347],[121.319246,24.99035],[121.319441,24.990344],[121.319635,24.990329],[121.319828,24.990305],[121.320019,24.990273],[121.320208,24.990232],[121.320395,24.990182],[121.320579,24.990124],[121.320754,24.99006],[121.320926,24.989988],[121.321094,24.989908],[121.321257,24.989821],[121.321416,24.989727],[121.321569,24.989626],[121.321716,24.989518],[121.321858,24.989404],[121.321993,24.989284],[121.322122,24.989158],[121.322244,24.989027],[121.322358,24.98889],[121.32267,24.988489],[121.323888,24.986927],[121.329611,24.979452],[121.329681,24.97937],[121.330351,24.978592],[121.330872,24.978053],[121.33096,24.977968],[121.331486,24.977471],[121.332724,24.976356],[121.333319,24.975694],[121.334142,24.974838],[121.334476,24.974552],[121.33515,24.973987],[121.336583,24.972663],[121.33678,24.97248],[121.336855,24.972411],[121.337152,24.972128],[121.337544,24.971829],[121.337946,24.971633],[121.338163,24.971489],[121.338355,24.9713],[121.338572,24.971029],[121.338686,24.970871],[121.338791,24.970708],[121.338887,24.97054],[121.338973,24.970368],[121.33908,24.970107],[121.339146,24.969928],[121.339203,24.969746],[121.339248,24.969562],[121.339284,24.969376],[121.339308,24.969201],[121.339322,24.969026],[121.339327,24.96885],[121.339324,24.968675],[121.33931,24.9685],[121.339288,24.968325],[121.339225,24.968018],[121.339137,24.967738],[121.338991,24.967384],[121.338642,24.966759],[121.338351,24.966263],[121.33805,24.965718],[121.337858,24.965207],[121.337792,24.964983],[121.337734,24.964636],[121.337706,24.964283],[121.337751,24.963768],[121.337822,24.963353]]}},{"type":"Feature","id":"w202768969","properties":{"kind":"line","mode":"rail","name":"縱貫線","name_en":"Western Trunk line","network":null,"operator":"國營臺灣鐵路股份有限公司"},"geometry":{"type":"LineString","coordinates":[[121.29823,24.985714],[121.30058,24.98638],[121.301315,24.986608],[121.302472,24.986928],[121.303132,24.987098],[121.304069,24.987265],[121.304925,24.987379],[121.305431,24.987449],[121.305546,24.987464],[121.305874,24.987501],[121.307431,24.987703],[121.308032,24.987772],[121.309099,24.987826],[121.309447,24.987858],[121.309856,24.987912],[121.310214,24.987984],[121.310874,24.988143],[121.312051,24.988381],[121.313178,24.988601],[121.313767,24.988746],[121.314564,24.988984],[121.315172,24.989224],[121.315791,24.989478],[121.315968,24.989554],[121.316322,24.989695],[121.316537,24.989781],[121.316688,24.989831],[121.316853,24.989885],[121.317036,24.989936],[121.317562,24.990083],[121.318183,24.990258],[121.318463,24.990327],[121.318657,24.990356],[121.318853,24.990375],[121.319049,24.990386],[121.319246,24.990389],[121.319442,24.990382],[121.319639,24.990366],[121.319834,24.990342],[121.320027,24.990309],[121.320218,24.990267],[121.320407,24.990216],[121.320593,24.990157],[121.32077,24.990092],[121.320944,24.990019],[121.321114,24.989938],[121.321279,24.98985],[121.321439,24.989755],[121.321594,24.989653],[121.321744,24.989545],[121.321887,24.98943],[121.322024,24.989308],[121.322155,24.989181],[121.322278,24.989048],[121.322394,24.98891],[121.322708,24.988509],[121.323927,24.986937],[121.324337,24.98641],[121.325744,24.984563],[121.328403,24.981106],[121.329674,24.979463],[121.33039,24.978622],[121.330888,24.97809],[121.330989,24.977987],[121.331535,24.977491],[121.332478,24.976636],[121.332744,24.976389],[121.333361,24.975714],[121.333598,24.975476],[121.33419,24.974863],[121.334522,24.974587],[121.335183,24.974014],[121.336617,24.972694],[121.336883,24.972448],[121.337183,24.972159],[121.337578,24.971886],[121.337977,24.971684],[121.338116,24.971586],[121.338494,24.971226],[121.338606,24.971086],[121.33871,24.970942],[121.338807,24.970794],[121.338896,24.970642],[121.338977,24.970486],[121.339051,24.970327],[121.339147,24.97008],[121.339204,24.969916],[121.339258,24.969734],[121.339301,24.969551],[121.339334,24.969365],[121.339357,24.969179],[121.33937,24.968992],[121.339372,24.968804],[121.339365,24.968616],[121.339347,24.96843],[121.339268,24.968004],[121.339205,24.9678],[121.339099,24.967522],[121.338936,24.967178],[121.338682,24.966741],[121.338387,24.966234],[121.33809,24.965693],[121.337886,24.965176],[121.337835,24.964967],[121.337773,24.964632],[121.337749,24.964282],[121.337794,24.96381],[121.33786,24.963358],[121.338196,24.962451],[121.338613,24.961292],[121.338815,24.960749],[121.338911,24.960144],[121.338922,24.959975],[121.338924,24.959806],[121.338917,24.959637],[121.338902,24.95947],[121.338878,24.959303],[121.338845,24.959138],[121.338804,24.958974],[121.338755,24.958813],[121.338697,24.958653],[121.338497,24.958215],[121.338247,24.957807],[121.337623,24.956807],[121.336753,24.955502],[121.336245,24.954678],[121.336158,24.954496],[121.336079,24.95431],[121.33601,24.954122],[121.335949,24.953931],[121.335898,24.953738],[121.335856,24.953543],[121.335823,24.953347],[121.335804,24.953201],[121.335791,24.953055],[121.335783,24.952908],[121.335792,24.952441]]}},{"type":"Feature","id":"w619251063","properties":{"kind":"line","mode":"rail","name":null,"name_en":null,"network":null,"operator":"國營臺灣鐵路股份有限公司"},"geometry":{"type":"LineString","coordinates":[[121.305874,24.987501],[121.306972,24.987565]]}},{"type":"Feature","id":"w619251064","properties":{"kind":"line","mode":"rail","name":null,"name_en":null,"network":null,"operator":"國營臺灣鐵路股份有限公司"},"geometry":{"type":"LineString","coordinates":[[121.305546,24.987464],[121.304727,24.987286]]}}]}
